{"type":"FeatureCollection","_meta":{"source":"ch.bazl.uas-aktivitaetszonen","description":"UAS-aktivitetszoner (BAZL drönar-zoner)","license":"BGDI free-of-charge (BAZL/BAFU/VBS / swisstopo)","fetched_at":"2026-10-01T11:25:45.544086+00:00","feature_count":32,"uas_delning":{"grind":true,"information_only":31,"restriktion":1,"andel":0.9688,"golv":0.5,"golvbrott":false}},"features":[{"type":"Feature","featureId":1,"bbox":[7.543406,47.167169,7.8879,47.334909],"layerBodId":"ch.bazl.uas-aktivitaetszonen","layerName":"UAS Aktivitätszonen","id":1,"geometry":{"type":"MultiPolygon","coordinates":[[[[7.543522,47.226731],[7.823253,47.335142],[7.887392,47.274397],[7.813844,47.216956],[7.592842,47.167114],[7.543522,47.226731]]]]},"properties":{"routelocation_de":"Solothurn-Hägendorf","routelocation_fr":"Solothurn-Hägendorf","routelocation_it":"Solothurn-Hägendorf","routelocation_en":"Solothurn-Hägendorf","startdatetime":"2026-10-01","enddatetime":"2026-11-02","validity":"20:45 - 06:15 LT, Daily","lowerlimit":"GND","upperlimit":"1123m / 3684ft","heightaboveground":"115m / 377ft","description":"UNMANNED DRONE BEYOND VISUAL LINE OF SIGHT (BVLOS) OPERATIONS TAKE PLACE AT NIGHT BETWEEN SOLOTHURN AND HAEGENDORF AT AND BELOW 378FT/AGL (115 M/AGL) CENTERED ON 471501.51N74232.25E.","existingdetectionsystems":"Ground receivers: ADS-B IN, FLARM IN, Mode-S IN (MLAT),Onboard receivers: ADS-B IN, FLARM IN","coordination":"+41 58 221 98 31","label":"Solothurn-Hägendorf","_zoneType":"UAS_AKT_CH","dataSource":"geo.admin.ch","sourceLayer":"ch.bazl.uas-aktivitaetszonen","uas_information_only":true}},{"type":"Feature","featureId":2,"bbox":[7.928008,46.046759,8.006694,46.142443],"layerBodId":"ch.bazl.uas-aktivitaetszonen","layerName":"UAS Aktivitätszonen","id":2,"geometry":{"type":"MultiPolygon","coordinates":[[[[7.929516,46.046752],[8.005724,46.049122],[8.002022,46.142467],[7.9288,46.135173],[7.929516,46.046752]]]]},"properties":{"routelocation_de":"Saas-Almagell","routelocation_fr":"Saas-Almagell","routelocation_it":"Saas-Almagell","routelocation_en":"Saas-Almagell","startdatetime":"2026-08-20","enddatetime":"2026-10-25","validity":"Mo-Fr 7:00 - 17:00","lowerlimit":"GND","upperlimit":"2651m / 8698ft","heightaboveground":"120m / 400ft","description":"UNMANNED DRONE BVLOS OPERATIONS AT SAAS ALMAGELL  460830.65N0080006.69E 460256.43N0080020.59E 460248.99N0075545.26E 460806.04N0075544.24E CENTERED ON 460545.14N0075751.90E BELOW 400FT/AGL (120 M/AGL).","existingdetectionsystems":"Visual observer, on-board receiver: ADS-B IN","coordination":"+41 27 953 70 00","label":"Saas-Almagell","_zoneType":"UAS_AKT_CH","dataSource":"geo.admin.ch","sourceLayer":"ch.bazl.uas-aktivitaetszonen","uas_information_only":true}},{"type":"Feature","featureId":3,"bbox":[8.436067,46.613054,8.53572,46.656489],"layerBodId":"ch.bazl.uas-aktivitaetszonen","layerName":"UAS Aktivitätszonen","id":3,"geometry":{"type":"MultiPolygon","coordinates":[[[[8.444316,46.657332],[8.436098,46.614718],[8.484604,46.612619],[8.535196,46.6307],[8.506339,46.655192],[8.444316,46.657332]]]]},"properties":{"routelocation_de":"East Dammastock","routelocation_fr":"East Dammastock","routelocation_it":"East Dammastock","routelocation_en":"East Dammastock","startdatetime":"2026-09-29","enddatetime":"2026-10-07","validity":"6:00 - 20:00 Mo-Fri","lowerlimit":"GND","upperlimit":"3362m / 11030ft","heightaboveground":"120m / 400ft","description":"UNMANNED DRONE BVLOS OPERATIONS AT E DAMMASTOCK 463917.28N0083023.31E 463750.75N0083206.76E 463643.99N0082907.57E 463653.54N0082611.21E 463925.23N0082639.47E BELOW 400FT/AGL(120 M/AGL).  ","existingdetectionsystems":"Visual observer, on-board receiver: ADS-B IN","coordination":"+41 79 196 99 80","label":"East Dammastock","_zoneType":"UAS_AKT_CH","dataSource":"geo.admin.ch","sourceLayer":"ch.bazl.uas-aktivitaetszonen","uas_information_only":true}},{"type":"Feature","featureId":4,"bbox":[8.801092,46.651123,8.837469,46.68306],"layerBodId":"ch.bazl.uas-aktivitaetszonen","layerName":"UAS Aktivitätszonen","id":4,"geometry":{"type":"MultiPolygon","coordinates":[[[[8.80186,46.681559],[8.801268,46.651121],[8.805425,46.651116],[8.837469,46.68306],[8.80186,46.681559]]]]},"properties":{"routelocation_de":"Sedrun","routelocation_fr":"Sedrun","routelocation_it":"Sedrun","routelocation_en":"Sedrun","startdatetime":"2026-08-21","enddatetime":"2026-10-23","validity":"07:00 - 17:00","lowerlimit":"GND","upperlimit":"2020m / 6628ft","heightaboveground":"120m / 400ft","description":"UNMANNED DRONE BVLOS OPERATIONS AT E SEDRUN CENTERED ON 464003.15N0084900.31E R1.08NM AT AND BELOW 400FT/AGL (120 M/AGL).","existingdetectionsystems":"Visual observer, on-board receiver: ADS-B IN","coordination":"+41 81 929 25 11","label":"Sedrun","_zoneType":"UAS_AKT_CH","dataSource":"geo.admin.ch","sourceLayer":"ch.bazl.uas-aktivitaetszonen","uas_information_only":true}},{"type":"Feature","featureId":5,"bbox":[9.095242,46.805693,9.136922,46.836468],"layerBodId":"ch.bazl.uas-aktivitaetszonen","layerName":"UAS Aktivitätszonen","id":5,"geometry":{"type":"MultiPolygon","coordinates":[[[[9.113013,46.805434],[9.136395,46.819771],[9.103697,46.836957],[9.096107,46.833788],[9.113013,46.805434]]]]},"properties":{"routelocation_de":"Waltensburg","routelocation_fr":"Waltensburg","routelocation_it":"Waltensburg","routelocation_en":"Waltensburg","startdatetime":"2026-08-24","enddatetime":"2026-10-23","validity":"07:00 - 17:00","lowerlimit":"GND","upperlimit":"1834m / 6017ft","heightaboveground":"120m / 400ft","description":"UNMANNED DRONE BVLOS OPERATIONS AT N WALTENSBURG CENTERED ON 464916.91N0090657.25E R1.1NM AT AND BELOW 400FT/AGL (120 M/AGL).","existingdetectionsystems":"Visual observer, on-board receiver: ADS-B IN","coordination":"+41 81 929 25 11","label":"Waltensburg","_zoneType":"UAS_AKT_CH","dataSource":"geo.admin.ch","sourceLayer":"ch.bazl.uas-aktivitaetszonen","uas_information_only":true}},{"type":"Feature","featureId":6,"bbox":[8.947855,46.650281,8.995746,46.695018],"layerBodId":"ch.bazl.uas-aktivitaetszonen","layerName":"UAS Aktivitätszonen","id":6,"geometry":{"type":"MultiPolygon","coordinates":[[[[8.994519,46.652486],[8.988625,46.649733],[8.948992,46.690928],[8.963392,46.695456],[8.994519,46.652486]]]]},"properties":{"routelocation_de":"Val Sumvitg","routelocation_fr":"Val Sumvitg","routelocation_it":"Val Sumvitg","routelocation_en":"Val Sumvitg","startdatetime":"2026-07-15","enddatetime":"2026-10-15","validity":"07:00-17:00, Mo-Fr","lowerlimit":"GND","upperlimit":"1535m / 5036ft","heightaboveground":"120m / 400ft","description":"UNMANNED DRONE BVLOS OPERATIONS AT VAL SUMVITG CENTERED ON 464027.90N0085820.94E AT AND BELOW 400FT/AGL (120 M/AGL).","existingdetectionsystems":"on-board receiver: ADS-B IN, FLARM IN","coordination":"+41 81 929 25 11","label":"Val Sumvitg","_zoneType":"UAS_AKT_CH","dataSource":"geo.admin.ch","sourceLayer":"ch.bazl.uas-aktivitaetszonen","uas_information_only":true}},{"type":"Feature","featureId":7,"bbox":[8.601625,47.638779,8.638064,47.676784],"layerBodId":"ch.bazl.uas-aktivitaetszonen","layerName":"UAS Aktivitätszonen","id":7,"geometry":{"type":"MultiPolygon","coordinates":[[[[8.637297,47.642878],[8.6221,47.638572],[8.602422,47.675103],[8.612325,47.677047],[8.637297,47.642878]]]]},"properties":{"routelocation_de":"Schaffhausen","routelocation_fr":"Schaffhausen","routelocation_it":"Schaffhausen","routelocation_en":"Schaffhausen","startdatetime":"2026-07-15","enddatetime":"2026-10-15","validity":"07:00-17:00, Mo-Fr","lowerlimit":"GND","upperlimit":"527m / 1729ft","heightaboveground":"120m / 400ft","description":"UNMANNED DRONE BVLOS OPERATIONS AT SOUTH SCHAFFHAUSEN CENTERED ON 473926.11N0083713.52E AT AND BELOW 400FT/AGL (120 M/AGL).","existingdetectionsystems":"visual observer, on-board receiver: ADS-B IN","coordination":"+41 44 746 35 50","label":"Schaffhausen","_zoneType":"UAS_AKT_CH","dataSource":"geo.admin.ch","sourceLayer":"ch.bazl.uas-aktivitaetszonen","uas_information_only":true}},{"type":"Feature","featureId":8,"bbox":[9.479682,47.127005,9.54746,47.217743],"layerBodId":"ch.bazl.uas-aktivitaetszonen","layerName":"UAS Aktivitätszonen","id":8,"geometry":{"type":"MultiPolygon","coordinates":[[[[9.495322,47.126726],[9.494768,47.126761],[9.494321,47.126921],[9.493965,47.127212],[9.493816,47.12754],[9.493866,47.127917],[9.49394,47.128085],[9.494255,47.128492],[9.491851,47.136004],[9.491928,47.136329],[9.492311,47.136531],[9.497359,47.137532],[9.494427,47.14356],[9.488448,47.153108],[9.488415,47.153158],[9.487139,47.153256],[9.486777,47.153365],[9.485685,47.154018],[9.485476,47.154259],[9.484842,47.156214],[9.484837,47.15639],[9.485186,47.157709],[9.484148,47.159032],[9.482797,47.160189],[9.481439,47.1609],[9.481284,47.161016],[9.481097,47.161217],[9.480998,47.161501],[9.481031,47.161727],[9.481384,47.16208],[9.481697,47.162191],[9.481871,47.162233],[9.482735,47.162351],[9.482909,47.162359],[9.483139,47.162349],[9.483266,47.162374],[9.484194,47.162024],[9.486398,47.160138],[9.486536,47.159995],[9.487766,47.158426],[9.489259,47.157904],[9.493363,47.160921],[9.496271,47.165235],[9.496972,47.173458],[9.497065,47.17359],[9.497058,47.173735],[9.497837,47.175145],[9.498011,47.175365],[9.502031,47.179154],[9.502177,47.17927],[9.536781,47.20269],[9.537052,47.202833],[9.543474,47.205423],[9.544015,47.206044],[9.544234,47.206824],[9.543854,47.207627],[9.543062,47.208304],[9.535416,47.210353],[9.535375,47.210379],[9.535318,47.210382],[9.534109,47.210781],[9.533717,47.210974],[9.532793,47.211625],[9.532701,47.211697],[9.529891,47.214127],[9.529119,47.214586],[9.524994,47.216435],[9.524399,47.217032],[9.5246,47.217739],[9.525479,47.218143],[9.526521,47.218007],[9.530725,47.216123],[9.530874,47.216046],[9.531815,47.215486],[9.531992,47.215359],[9.534838,47.212898],[9.535542,47.212402],[9.536483,47.212092],[9.544424,47.209964],[9.545,47.209674],[9.546182,47.208666],[9.546417,47.208367],[9.546982,47.207172],[9.547024,47.206707],[9.546694,47.205529],[9.546525,47.205225],[9.545679,47.204255],[9.545194,47.203926],[9.538616,47.201273],[9.504214,47.177989],[9.500368,47.174365],[9.499728,47.173206],[9.499024,47.164949],[9.498901,47.164611],[9.495792,47.159999],[9.495627,47.159895],[9.49555,47.159751],[9.491014,47.156417],[9.49152,47.155209],[9.491483,47.154896],[9.490883,47.154024],[9.490986,47.153868],[9.490995,47.153854],[9.497001,47.144263],[9.497041,47.144189],[9.500132,47.137836],[9.500142,47.137816],[9.500954,47.13601],[9.50469,47.134687],[9.505648,47.13457],[9.512996,47.135517],[9.512996,47.135517],[9.513185,47.135543],[9.513395,47.135549],[9.513841,47.135514],[9.514211,47.135397],[9.514541,47.13519],[9.51474,47.134948],[9.514828,47.134648],[9.51478,47.134373],[9.514592,47.134095],[9.514315,47.133892],[9.513924,47.133742],[9.513723,47.133693],[9.513518,47.133667],[9.513512,47.133664],[9.506026,47.132699],[9.505959,47.132682],[9.505275,47.131256],[9.505005,47.131018],[9.49696,47.127492],[9.496237,47.127073],[9.496232,47.12707],[9.495804,47.126828],[9.495322,47.126726]]]]},"properties":{"routelocation_de":"Buchs - Vaduz; Sevelen - Eschen","routelocation_fr":"Buchs - Vaduz; Sevelen - Eschen","routelocation_it":"Buchs - Vaduz; Sevelen - Eschen","routelocation_en":"Buchs - Vaduz; Sevelen - Eschen","startdatetime":"2026-05-12","enddatetime":"2026-12-22","validity":"SR-SS, Mo-Sat","lowerlimit":"GND","upperlimit":"690m / 2260ft","heightaboveground":"150m / 500ft","description":"UNMANNED ACFT ACT WILL TAKE PLACE BTW BUCHS-VADUZ AND SEVELEN-ESCHENEN DISTANCE 20KM (47.13459N, 9.51344E; 47.16168N, 9.48255E; 47.12754N, 9.49514E; 47.21753N, 9.52598E, DISTANCE 11NM)","existingdetectionsystems":"on-board: ADS-B IN, FLARM IN/OUT; web-based: SafeSky, Glider Tracker; radio: mountain 130.355 Mhz","coordination":"+41793750101","label":"Buchs - Vaduz; Sevelen - Eschen","_zoneType":"UAS_AKT_CH","dataSource":"geo.admin.ch","sourceLayer":"ch.bazl.uas-aktivitaetszonen","uas_information_only":true}},{"type":"Feature","featureId":9,"bbox":[8.838453,46.588785,8.866793,46.622436],"layerBodId":"ch.bazl.uas-aktivitaetszonen","layerName":"UAS Aktivitätszonen","id":9,"geometry":{"type":"MultiPolygon","coordinates":[[[[8.839307,46.621757],[8.856083,46.588566],[8.865975,46.591462],[8.844524,46.622713],[8.839307,46.621757]]]]},"properties":{"routelocation_de":"Lucomagno","routelocation_fr":"Lucomagno","routelocation_it":"Lucomagno","routelocation_en":"Lucomagno","startdatetime":"2026-08-28","enddatetime":"2026-10-23","validity":"07:00-17:00, Mo-Fr","lowerlimit":"GND","upperlimit":"2079m / 6821ft","heightaboveground":"120m / 400ft","description":"UNMANNED DRONE BVLOS OPERATIONS AT NE LUCOMAGNO CENTERED ON 463624.27N0085105.89E R1.11NM AT AND BELOW 400FT/AGL (120 M/AGL).","existingdetectionsystems":"Visual observer, on-board receiver: ADS-B IN","coordination":"+41 81 929 25 11","label":"Lucomagno","_zoneType":"UAS_AKT_CH","dataSource":"geo.admin.ch","sourceLayer":"ch.bazl.uas-aktivitaetszonen","uas_information_only":true}},{"type":"Feature","featureId":10,"bbox":[8.538994,47.537571,8.570743,47.569644],"layerBodId":"ch.bazl.uas-aktivitaetszonen","layerName":"UAS Aktivitätszonen","id":10,"geometry":{"type":"MultiPolygon","coordinates":[[[[8.570097,47.539325],[8.5626,47.537344],[8.539614,47.567489],[8.54745,47.569869],[8.570097,47.539325]]]]},"properties":{"routelocation_de":"Bülach","routelocation_fr":"Bülach","routelocation_it":"Bülach","routelocation_en":"Bülach","startdatetime":"2026-07-15","enddatetime":"2026-10-15","validity":"07:00-17:00, Mo-Fr","lowerlimit":"GND","upperlimit":"507m / 1663ft","heightaboveground":"120m / 400ft","description":"UNMANNED DRONE BVLOS OPERATIONS AT NE BÜLACH CENTERED ON 473311.60N0083320.44E AT AND BELOW 400FT/AGL (120 M/AGL).","existingdetectionsystems":"visual observer, on-board receiver: ADS-B IN","coordination":"+41 44 746 35 50","label":"Bülach","_zoneType":"UAS_AKT_CH","dataSource":"geo.admin.ch","sourceLayer":"ch.bazl.uas-aktivitaetszonen","uas_information_only":true}},{"type":"Feature","featureId":11,"bbox":[9.095845,46.817574,9.129894,46.836511],"layerBodId":"ch.bazl.uas-aktivitaetszonen","layerName":"UAS Aktivitätszonen","id":11,"geometry":{"type":"MultiPolygon","coordinates":[[[[9.129478,46.823269],[9.115556,46.817286],[9.096342,46.833714],[9.103767,46.836894],[9.129478,46.823269]]]]},"properties":{"routelocation_de":"Waltensburg","routelocation_fr":"Waltensburg","routelocation_it":"Waltensburg","routelocation_en":"Waltensburg","startdatetime":"2026-07-15","enddatetime":"2026-10-15","validity":"07:00-17:00, Mo-Fr","lowerlimit":"GND","upperlimit":"1834m / 6017ft","heightaboveground":"120m / 400ft","description":"UNMANNED DRONE BVLOS OPERATIONS AT N WALTENSBURG CENTERED ON 464939.64N0090644.49E AT AND BELOW 400FT/AGL (120 M/AGL).","existingdetectionsystems":"visual observer, on-board receiver: ADS-B IN","coordination":"+41 81 929 25 11","label":"Waltensburg","_zoneType":"UAS_AKT_CH","dataSource":"geo.admin.ch","sourceLayer":"ch.bazl.uas-aktivitaetszonen","uas_information_only":true}},{"type":"Feature","featureId":12,"bbox":[8.757489,46.620822,8.775244,46.640554],"layerBodId":"ch.bazl.uas-aktivitaetszonen","layerName":"UAS Aktivitätszonen","id":12,"geometry":{"type":"MultiPolygon","coordinates":[[[[8.758195,46.640752],[8.757492,46.620965],[8.766306,46.62072],[8.775238,46.640321],[8.758195,46.640752]]]]},"properties":{"routelocation_de":"Sedrun","routelocation_fr":"Sedrun","routelocation_it":"Sedrun","routelocation_en":"Sedrun","startdatetime":"2026-08-21","enddatetime":"2026-10-23","validity":"07:00 - 17:00, Mo-Fr","lowerlimit":"GND","upperlimit":"2280m / 7480ft","heightaboveground":"120m / 140ft","description":"UNMANNED DRONE BVLOS OPERATIONS AT S SEDRUN CENTERED ON 463755.43N0084551.70E R0.73NM AT AND BELOW 400FT/AGL (120 M/AGL).","existingdetectionsystems":"Visual observer, on-board receiver: ADS-B IN","coordination":"+41 81 929 25 11","label":"Sedrun","_zoneType":"UAS_AKT_CH","dataSource":"geo.admin.ch","sourceLayer":"ch.bazl.uas-aktivitaetszonen","uas_information_only":true}},{"type":"Feature","featureId":13,"bbox":[8.567499,47.574078,8.587189,47.595354],"layerBodId":"ch.bazl.uas-aktivitaetszonen","layerName":"UAS Aktivitätszonen","id":13,"geometry":{"type":"MultiPolygon","coordinates":[[[[8.587183,47.5951],[8.575792,47.573997],[8.567525,47.575317],[8.574906,47.595475],[8.587183,47.5951]]]]},"properties":{"routelocation_de":"Eglisau","routelocation_fr":"Eglisau","routelocation_it":"Eglisau","routelocation_en":"Eglisau","startdatetime":"2026-07-15","enddatetime":"2026-10-15","validity":"07:00-17:00, Mo-Fr","lowerlimit":"GND","upperlimit":"446m / 1463ft","heightaboveground":"120m / 400ft","description":"UNMANNED DRONE BVLOS OPERATIONS AT E EGLISAU CENTERED ON 473509.39N0083436.68E AT AND BELOW 400FT/AGL (120 M/AGL).","existingdetectionsystems":"visual observer, on-board receiver: ADS-B IN","coordination":"+41 44 746 35 50","label":"Eglisau","_zoneType":"UAS_AKT_CH","dataSource":"geo.admin.ch","sourceLayer":"ch.bazl.uas-aktivitaetszonen","uas_information_only":true}},{"type":"Feature","featureId":14,"bbox":[8.786243,46.568465,8.804914,46.588485],"layerBodId":"ch.bazl.uas-aktivitaetszonen","layerName":"UAS Aktivitätszonen","id":14,"geometry":{"type":"MultiPolygon","coordinates":[[[[8.797104,46.588579],[8.786294,46.570514],[8.799809,46.568304],[8.80489,46.587499],[8.797104,46.588579]]]]},"properties":{"routelocation_de":"Lucomagno","routelocation_fr":"Lucomagno","routelocation_it":"Lucomagno","routelocation_en":"Lucomagno","startdatetime":"2026-08-28","enddatetime":"2026-10-23","validity":"07:00-17:00, Mo-Fr","lowerlimit":"GND","upperlimit":"2030m / 6660ft","heightaboveground":"120m / 400ft","description":"UNMANNED DRONE BVLOS OPERATIONS AT LUCOMAGNO CENTERED ON 463444.12N0084748.28E R0.67NM AT AND BELOW 400FT/AGL (120 M/AGL).","existingdetectionsystems":"Visual observer, on-board receiver: ADS-B IN","coordination":"+41 81 929 25 11","label":"Lucomagno","_zoneType":"UAS_AKT_CH","dataSource":"geo.admin.ch","sourceLayer":"ch.bazl.uas-aktivitaetszonen","uas_information_only":true}},{"type":"Feature","featureId":15,"bbox":[9.402569,46.820786,9.437914,46.837014],"layerBodId":"ch.bazl.uas-aktivitaetszonen","layerName":"UAS Aktivitätszonen","id":15,"geometry":{"type":"MultiPolygon","coordinates":[[[[9.433642,46.837089],[9.437747,46.832522],[9.406617,46.820717],[9.402764,46.826117],[9.433642,46.837089]]]]},"properties":{"routelocation_de":"Bonaduz","routelocation_fr":"Bonaduz","routelocation_it":"Bonaduz","routelocation_en":"Bonaduz","startdatetime":"2026-07-15","enddatetime":"2026-10-15","validity":"07:00-17:00, Mo-Fr","lowerlimit":"GND","upperlimit":"655m / 2148ft","heightaboveground":"120m / 400ft","description":"UNMANNED DRONE BVLOS OPERATIONS AT NE BONADUZ CENTERED ON 464944.89N0092511.69E AT AND BELOW 400FT/AGL (120 M/AGL).","existingdetectionsystems":"visual observer, on-board receiver: ADS-B IN","coordination":"+41 81 929 25 11","label":"Bonaduz","_zoneType":"UAS_AKT_CH","dataSource":"geo.admin.ch","sourceLayer":"ch.bazl.uas-aktivitaetszonen","uas_information_only":true}},{"type":"Feature","featureId":16,"bbox":[8.707479,46.61651,8.71965,46.637465],"layerBodId":"ch.bazl.uas-aktivitaetszonen","layerName":"UAS Aktivitätszonen","id":16,"geometry":{"type":"MultiPolygon","coordinates":[[[[8.707957,46.636863],[8.710054,46.616481],[8.719159,46.616731],[8.716579,46.6375],[8.707957,46.636863]]]]},"properties":{"routelocation_de":"Tschamut","routelocation_fr":"Tschamut","routelocation_it":"Tschamut","routelocation_en":"Tschamut","startdatetime":"2026-08-26","enddatetime":"2026-10-23","validity":"07:00 - 17:00, Mo-Fr","lowerlimit":"GND","upperlimit":"2004m / 6574ft","heightaboveground":"120m / 400ft","description":"UNMANNED DRONE BVLOS OPERATIONS AT S TSCHAMUT CENTERED ON 463736.48N0084248.59E AT AND BELOW 400FT/AGL (120 M/AGL).","existingdetectionsystems":"Visual observer, on-board receiver: ADS-B IN","coordination":"+41 81 929 25 11","label":"Tschamut","_zoneType":"UAS_AKT_CH","dataSource":"geo.admin.ch","sourceLayer":"ch.bazl.uas-aktivitaetszonen","uas_information_only":true}},{"type":"Feature","featureId":17,"bbox":[8.809942,46.612343,8.824975,46.62445],"layerBodId":"ch.bazl.uas-aktivitaetszonen","layerName":"UAS Aktivitätszonen","id":17,"geometry":{"type":"MultiPolygon","coordinates":[[[[8.813672,46.624587],[8.809962,46.613152],[8.82466,46.612165],[8.816606,46.624248],[8.813672,46.624587]]]]},"properties":{"routelocation_de":"Lucomagno","routelocation_fr":"Lucomagno","routelocation_it":"Lucomagno","routelocation_en":"Lucomagno","startdatetime":"2026-08-28","enddatetime":"2026-10-23","validity":"07:00-17:00, Mo-Fr","lowerlimit":"GND","upperlimit":"1990m / 6529ft","heightaboveground":"120m / 400ft","description":"UNMANNED DRONE BVLOS OPERATIONS AT N LUCOMAGNO CENTERED ON 463704.28N0084859.07E R0.49NM AT AND BELOW 400FT/AGL (120 M/AGL).","existingdetectionsystems":"Visual observer, on-board receiver: ADS-B IN","coordination":"+41 81 929 25 11","label":"Lucomagno","_zoneType":"UAS_AKT_CH","dataSource":"geo.admin.ch","sourceLayer":"ch.bazl.uas-aktivitaetszonen","uas_information_only":true}},{"type":"Feature","featureId":18,"bbox":[8.674425,46.639036,8.689552,46.650839],"layerBodId":"ch.bazl.uas-aktivitaetszonen","layerName":"UAS Aktivitätszonen","id":18,"geometry":{"type":"MultiPolygon","coordinates":[[[[8.682117,46.65092],[8.674557,46.644794],[8.687329,46.638895],[8.689295,46.639754],[8.682117,46.65092]]]]},"properties":{"routelocation_de":"Tschamut","routelocation_fr":"Tschamut","routelocation_it":"Tschamut","routelocation_en":"Tschamut","startdatetime":"2026-08-26","enddatetime":"2026-10-23","validity":"07:00-17:00, Mo-Fr","lowerlimit":"GND","upperlimit":"2037m / 6683ft","heightaboveground":"120m / 400ft","description":"UNMANNED DRONE BVLOS OPERATIONS AT SW TSCHAMUT CENTERED ON 463842.12N0084054.14E R0.45NM AT AND BELOW 400FT/AGL (120 M/AGL).","existingdetectionsystems":"Visual observer, on-board receiver: ADS-B IN","coordination":"+41 81 929 25 11","label":"Tschamut","_zoneType":"UAS_AKT_CH","dataSource":"geo.admin.ch","sourceLayer":"ch.bazl.uas-aktivitaetszonen","uas_information_only":true}},{"type":"Feature","featureId":19,"bbox":[9.0357,46.766884,9.055776,46.772662],"layerBodId":"ch.bazl.uas-aktivitaetszonen","layerName":"UAS Aktivitätszonen","id":19,"geometry":{"type":"MultiPolygon","coordinates":[[[[9.035735,46.768079],[9.038723,46.772903],[9.055626,46.767657],[9.054474,46.76662],[9.035735,46.768079]]]]},"properties":{"routelocation_de":"Breil","routelocation_fr":"Breil","routelocation_it":"Breil","routelocation_en":"Breil","startdatetime":"2026-08-24","enddatetime":"2026-10-23","validity":"07:00-17:00","lowerlimit":"GND","upperlimit":"1387m / 4551ft","heightaboveground":"120m / 400ft","description":"UNMANNED DRONE BVLOS OPERATIONS AT W BREIL CENTERED ON 464609.32N0090237.79E R0.5NM AT AND BELOW 400FT/AGL (120 M/AGL).","existingdetectionsystems":"Visual observer, on-board receiver: ADS-B IN","coordination":"+41 81 929 25 11 ","label":"Breil","_zoneType":"UAS_AKT_CH","dataSource":"geo.admin.ch","sourceLayer":"ch.bazl.uas-aktivitaetszonen","uas_information_only":true}},{"type":"Feature","featureId":20,"bbox":[8.47741,47.016178,8.543059,47.045055],"layerBodId":"ch.bazl.uas-aktivitaetszonen","layerName":"UAS Aktivitätszonen","id":20,"geometry":{"type":"MultiPolygon","coordinates":[[[[8.478316,47.016776],[8.479355,47.017941],[8.479395,47.017998],[8.480928,47.020994],[8.481895,47.021272],[8.481966,47.021297],[8.482029,47.021331],[8.482082,47.021373],[8.482123,47.02142],[8.482821,47.022422],[8.482849,47.022476],[8.482863,47.022532],[8.48286,47.02259],[8.482534,47.024308],[8.49181,47.030645],[8.500145,47.033799],[8.500216,47.033832],[8.500275,47.033874],[8.500322,47.033922],[8.504358,47.039166],[8.508294,47.040322],[8.511392,47.040645],[8.5115,47.040667],[8.524913,47.044603],[8.530657,47.044015],[8.530766,47.044013],[8.538116,47.044499],[8.542518,47.043929],[8.542604,47.043924],[8.54269,47.04393],[8.542773,47.043948],[8.542849,47.043976],[8.542915,47.044014],[8.542969,47.04406],[8.54301,47.044112],[8.543034,47.044169],[8.543042,47.044228],[8.543032,47.044286],[8.543007,47.044343],[8.542965,47.044394],[8.54291,47.04444],[8.542842,47.044477],[8.542766,47.044504],[8.542682,47.044521],[8.538218,47.045099],[8.538093,47.045103],[8.530735,47.044616],[8.52492,47.045211],[8.524838,47.045214],[8.524757,47.045207],[8.524679,47.045189],[8.511202,47.041235],[8.508104,47.040912],[8.507996,47.04089],[8.503865,47.039676],[8.503778,47.039643],[8.503705,47.039596],[8.503649,47.03954],[8.499601,47.034282],[8.491327,47.031151],[8.491228,47.031101],[8.481755,47.024629],[8.481704,47.024586],[8.481665,47.024538],[8.481639,47.024487],[8.481627,47.024432],[8.48163,47.024377],[8.481967,47.0226],[8.481397,47.021782],[8.480405,47.021497],[8.480324,47.021467],[8.480254,47.021426],[8.480198,47.021376],[8.480159,47.021319],[8.478577,47.018226],[8.477485,47.017002],[8.477445,47.016944],[8.477424,47.016881],[8.477423,47.016816],[8.477477,47.016443],[8.477494,47.016386],[8.477527,47.016331],[8.477575,47.016282],[8.477636,47.01624],[8.477708,47.016208],[8.477788,47.016185],[8.477873,47.016173],[8.477959,47.016173],[8.478044,47.016185],[8.478124,47.016208],[8.478196,47.01624],[8.478257,47.016282],[8.478305,47.016331],[8.478338,47.016386],[8.478355,47.016444],[8.478355,47.016503],[8.478316,47.016776]]]]},"properties":{"routelocation_de":"Vitznau-Arth","routelocation_fr":"Vitznau-Arth","routelocation_it":"Vitznau-Arth","routelocation_en":"Vitznau-Arth","startdatetime":"2026-09-28","enddatetime":"2026-10-02","validity":"Mo - Fr; 08:00 - 20:00","lowerlimit":"GND","upperlimit":"1551m / 5089ft","heightaboveground":"51m / 168ft","description":"UNMANNED DRONE BVLOS OPERATIONS TAKE PLACE BETWEEN VITZNAU AND ARTH. CENTERED ON 470222.00N0083014.71E IN A RADIUS OF 3.5 KM / 2 NM AT AND BELOW 168FT AGL (51M AGL)","existingdetectionsystems":"web-based: SafeSky, on-board receiver: ADS-B IN","coordination":"+41 79 599 82 65","label":"Vitznau-Arth","_zoneType":"UAS_AKT_CH","dataSource":"geo.admin.ch","sourceLayer":"ch.bazl.uas-aktivitaetszonen","uas_information_only":true}},{"type":"Feature","featureId":21,"bbox":[7.967012,47.551984,7.980113,47.554975],"layerBodId":"ch.bazl.uas-aktivitaetszonen","layerName":"UAS Aktivitätszonen","id":21,"geometry":{"type":"MultiPolygon","coordinates":[[[[7.979806,47.552233],[7.979803,47.552218],[7.979801,47.552211],[7.979787,47.552183],[7.979782,47.552177],[7.979756,47.552153],[7.979749,47.552148],[7.979713,47.552131],[7.979704,47.552128],[7.979663,47.552118],[7.979652,47.552117],[7.979631,47.552115],[7.976343,47.55206],[7.974343,47.552027],[7.974343,47.552027],[7.974343,47.552027],[7.974342,47.552027],[7.970076,47.55197],[7.970073,47.55197],[7.970072,47.55197],[7.97007,47.55197],[7.969348,47.551976],[7.96883,47.55198],[7.968807,47.551981],[7.968797,47.551982],[7.968754,47.551992],[7.968744,47.551995],[7.968708,47.552013],[7.968701,47.552018],[7.968674,47.552043],[7.968669,47.55205],[7.968655,47.552079],[7.968654,47.552086],[7.968652,47.552101],[7.968648,47.552707],[7.968648,47.552796],[7.967101,47.55365],[7.967085,47.55366],[7.967078,47.553665],[7.967054,47.553689],[7.96705,47.553695],[7.967038,47.553723],[7.967036,47.553729],[7.967035,47.553744],[7.967034,47.554182],[7.967035,47.554197],[7.967037,47.554203],[7.967049,47.554231],[7.967054,47.554237],[7.967078,47.554262],[7.967084,47.554267],[7.967118,47.554285],[7.967126,47.554288],[7.967146,47.554295],[7.968719,47.55473],[7.969072,47.554891],[7.969094,47.554899],[7.969104,47.554902],[7.969151,47.55491],[7.969163,47.554911],[7.969187,47.554911],[7.969321,47.554903],[7.969666,47.555024],[7.970366,47.554984],[7.97039,47.554982],[7.970395,47.554982],[7.970419,47.554979],[7.971579,47.5548],[7.974284,47.554566],[7.975868,47.554489],[7.975868,47.554489],[7.979242,47.554322],[7.979627,47.554386],[7.97968,47.554392],[7.97969,47.554393],[7.979798,47.554388],[7.979808,47.554386],[7.979908,47.55436],[7.979917,47.554356],[7.980001,47.55431],[7.980008,47.554305],[7.980067,47.554244],[7.980071,47.554238],[7.980101,47.554167],[7.980102,47.55416],[7.980104,47.554124],[7.980048,47.552987],[7.979834,47.552803],[7.979806,47.552233]]]]},"properties":{"routelocation_de":"Stein AG","routelocation_fr":"Stein AG","routelocation_it":"Stein AG","routelocation_en":"Stein AG","startdatetime":"2026-09-14","enddatetime":"2026-10-07","validity":"09:00-17:00, Mo-Fr","lowerlimit":"GND","upperlimit":"346m / 1135ft","heightaboveground":"45m / 147ft","description":"UNMANNED DRONE BEYOND VISUAL LINE OF SIGHT OPERATIONS TAKE PLACE AT AND BELOW 147FT AGL(45M AGL) AT STEIN AG CENTERED ON 47° 33′ 11.74″ N, 7° 58′ 23.12″ E.","existingdetectionsystems":"web-based: SafeSky, on-board receiver: ADS-B IN","coordination":"+41 79 504 60 68","label":"Stein AG","_zoneType":"UAS_AKT_CH","dataSource":"geo.admin.ch","sourceLayer":"ch.bazl.uas-aktivitaetszonen","uas_information_only":true}},{"type":"Feature","featureId":22,"bbox":[8.005137,47.113838,8.013623,47.118471],"layerBodId":"ch.bazl.uas-aktivitaetszonen","layerName":"UAS Aktivitätszonen","id":22,"geometry":{"type":"MultiPolygon","coordinates":[[[[8.0074,47.118399],[8.007274,47.118453],[8.007135,47.118488],[8.006988,47.118504],[8.00684,47.118501],[8.006695,47.118477],[8.00656,47.118435],[8.00644,47.118376],[8.00634,47.118301],[8.005321,47.117381],[8.005247,47.1173],[8.005197,47.11721],[8.005172,47.117115],[8.005173,47.117019],[8.005201,47.116925],[8.005255,47.116836],[8.005332,47.116755],[8.005429,47.116686],[8.00824,47.115029],[8.008364,47.11497],[8.008503,47.114928],[8.008651,47.114907],[8.008802,47.114906],[8.00895,47.114926],[8.00909,47.114965],[8.009215,47.115023],[8.009273,47.115063],[8.011902,47.113886],[8.012031,47.11384],[8.01217,47.113812],[8.012314,47.113802],[8.012458,47.113811],[8.012597,47.113839],[8.012726,47.113884],[8.01284,47.113946],[8.012934,47.114021],[8.013449,47.114524],[8.013522,47.114613],[8.013567,47.114711],[8.013584,47.114812],[8.01357,47.114914],[8.013527,47.115012],[8.013456,47.115102],[8.013361,47.115181],[8.013244,47.115245],[8.01065,47.116404],[8.010654,47.116426],[8.010646,47.116523],[8.010611,47.116618],[8.01055,47.116706],[8.010465,47.116785],[8.010361,47.116851],[8.0074,47.118399]]]]},"properties":{"routelocation_de":"Willisau","routelocation_fr":"Willisau","routelocation_it":"Willisau","routelocation_en":"Willisau","startdatetime":"2026-08-24","enddatetime":"2026-10-25","validity":"05:00 - 23:00, Mo-So","lowerlimit":"GND","upperlimit":"600m / 1970ft","heightaboveground":"50m / 164ft","description":"UNMANNED DRONE BVLOS OPERATIONS TAKE PLACE OVER WILLISAU CENTERED ON 470700.38N0080028.38E AT AND BELOW 164FT/AGL (50M AGL) RADIUS 0.7 KM / 0.37 NM.","existingdetectionsystems":"web-based: SafeSky, on-board receiver: ADS-B IN","coordination":"+41 56 200 67 07","label":"Willisau","_zoneType":"UAS_AKT_CH","dataSource":"geo.admin.ch","sourceLayer":"ch.bazl.uas-aktivitaetszonen","uas_information_only":true}},{"type":"Feature","featureId":23,"bbox":[9.069447,46.749268,9.072651,46.755231],"layerBodId":"ch.bazl.uas-aktivitaetszonen","layerName":"UAS Aktivitätszonen","id":23,"geometry":{"type":"MultiPolygon","coordinates":[[[[9.069629,46.755271],[9.071895,46.755242],[9.072469,46.749225],[9.07014,46.749276],[9.069629,46.755271]]]]},"properties":{"routelocation_de":"Breil","routelocation_fr":"Breil","routelocation_it":"Breil","routelocation_en":"Breil","startdatetime":"2026-08-24","enddatetime":"2026-10-23","validity":"07:00 - 17:00, Mo-Fr","lowerlimit":"GND","upperlimit":"1170m / 3839ft","heightaboveground":"120m / 400ft","description":"UNMANNED DRONE BVLOS OPERATIONS AT S BREIL CENTERED ON 464508.80N0090415.76E R0.2NM AT AND BELOW 400FT/AGL (120 M/AGL).","existingdetectionsystems":"Visual observer, on-board receiver: ADS-B IN","coordination":"+41 81 929 25 11","label":"Breil","_zoneType":"UAS_AKT_CH","dataSource":"geo.admin.ch","sourceLayer":"ch.bazl.uas-aktivitaetszonen","uas_information_only":true}},{"type":"Feature","featureId":24,"bbox":[7.464165,46.958022,7.470448,46.963929],"layerBodId":"ch.bazl.uas-aktivitaetszonen","layerName":"UAS Aktivitätszonen","id":24,"geometry":{"type":"MultiPolygon","coordinates":[[[[7.464166,46.959402],[7.465036,46.95901],[7.46635,46.958022],[7.468481,46.959365],[7.469059,46.959769],[7.469014,46.959887],[7.470446,46.960804],[7.469142,46.961597],[7.468808,46.961364],[7.468421,46.96119],[7.46657,46.961931],[7.468037,46.963835],[7.467753,46.96393],[7.46733,46.963377],[7.464166,46.959402]]]]},"properties":{"routelocation_de":"BERNEXPO Facility","routelocation_fr":"BERNEXPO Facility","routelocation_it":"BERNEXPO Facility","routelocation_en":"BERNEXPO Facility","startdatetime":"2026-05-19","enddatetime":"2027-07-16","validity":"ALL HOURS","lowerlimit":"GND","upperlimit":"591m / 1939ft","heightaboveground":"50m / 164ft","description":"UNMANNED ACFT ACT WILL TAKE PLACE AT BERNEXPO DISTANCE 0.3KM (46.95993N, 7.46786E, DISTANCE 0.17NM)","existingdetectionsystems":"Ground receivers: ADS-B IN, FLARM IN, MLAT","coordination":"+41 58 221 98 31","label":"BERNEXPO Facility","_zoneType":"UAS_AKT_CH","dataSource":"geo.admin.ch","sourceLayer":"ch.bazl.uas-aktivitaetszonen","uas_information_only":true}},{"type":"Feature","featureId":25,"bbox":[9.344217,46.815299,9.351059,46.8216],"layerBodId":"ch.bazl.uas-aktivitaetszonen","layerName":"UAS Aktivitätszonen","id":25,"geometry":{"type":"MultiPolygon","coordinates":[[[[9.344237,46.815868],[9.349028,46.821634],[9.351039,46.821051],[9.3458,46.815272],[9.344237,46.815868]]]]},"properties":{"routelocation_de":"Bonaduz","routelocation_fr":"Bonaduz","routelocation_it":"Bonaduz","routelocation_en":"Bonaduz","startdatetime":"2026-08-24","enddatetime":"2026-10-23","validity":"07:00 - 17:00, Mo-Fr","lowerlimit":"GND","upperlimit":"936m / 3071ft","heightaboveground":"120m / 400ft","description":"UNMANNED DRONE BVLOS OPERATIONS AT W BONADUZ CENTERED ON 464906.98N0092051.14E R0.22NM AT AND BELOW 400FT/AGL (120 M/AGL).","existingdetectionsystems":"Visual observer, on-board receiver: ADS-B IN","coordination":"+41 81 929 25 11","label":"Bonaduz","_zoneType":"UAS_AKT_CH","dataSource":"geo.admin.ch","sourceLayer":"ch.bazl.uas-aktivitaetszonen","uas_information_only":true}},{"type":"Feature","featureId":26,"bbox":[8.047728,47.551548,8.054489,47.554968],"layerBodId":"ch.bazl.uas-aktivitaetszonen","layerName":"UAS Aktivitätszonen","id":26,"geometry":{"type":"MultiPolygon","coordinates":[[[[8.047755,47.553892],[8.052305,47.554979],[8.052855,47.55496],[8.054472,47.55355],[8.053535,47.552914],[8.051052,47.552215],[8.051209,47.551859],[8.049661,47.551538],[8.048471,47.553598],[8.047912,47.553469],[8.047755,47.553892]]]]},"properties":{"routelocation_de":"Laufenburg","routelocation_fr":"Laufenburg","routelocation_it":"Laufenburg","routelocation_en":"Laufenburg","startdatetime":"2026-05-06","enddatetime":"2027-02-11","validity":"12:30-15:00, Mo-Fri","lowerlimit":"GND","upperlimit":"400m / 1312ft","heightaboveground":"80m / 262ft","description":"UNMANNED ACFT ACT WILL TAKE PLACE AT LAUFENBURG DISTANCE 0.3KM (47.554129N, 8.049953E, DISTANCE 0.15NM)","existingdetectionsystems":"on-ground receiver: ADS-B IN, FLARM-IN","coordination":"+41 71 351 21 38","label":"Laufenburg","_zoneType":"UAS_AKT_CH","dataSource":"geo.admin.ch","sourceLayer":"ch.bazl.uas-aktivitaetszonen","uas_information_only":true}},{"type":"Feature","featureId":27,"bbox":[8.975218,46.045398,8.980009,46.048411],"layerBodId":"ch.bazl.uas-aktivitaetszonen","layerName":"UAS Aktivitätszonen","id":27,"geometry":{"type":"MultiPolygon","coordinates":[[[[8.977052,46.045899],[8.977714,46.046106],[8.978456,46.046226],[8.979622,46.045912],[8.979947,46.046572],[8.979977,46.047261],[8.979681,46.048416],[8.975755,46.048081],[8.975286,46.047817],[8.97538,46.046226],[8.975692,46.046299],[8.975722,46.045391],[8.977052,46.045899]]]]},"properties":{"routelocation_de":"Via La Stampa 20 6901 Lugano","routelocation_fr":"Via La Stampa 20 6901 Lugano","routelocation_it":"Via La Stampa 20 6901 Lugano","routelocation_en":"Via La Stampa 20 6901 Lugano","startdatetime":"2026-05-26","enddatetime":"2027-08-28","validity":"ALL HOURS","lowerlimit":"GND","upperlimit":"458m / 1574ft","heightaboveground":"100m / 328ft","description":"UNMANNED ACFT ACT WILL TAKE PLACE AT VIA LA STAMPA LUGANO DISTANCE 0.4KM (46.047167N, 8.977641E, DISTANCE 0.2NM)","existingdetectionsystems":"on-board receiver: ADS-B IN, web-based:Flightradar24,Safesky","coordination":"+41 91 815 00 31","label":"Via La Stampa 20 6901 Lugano","_zoneType":"UAS_AKT_CH","dataSource":"geo.admin.ch","sourceLayer":"ch.bazl.uas-aktivitaetszonen","uas_information_only":true}},{"type":"Feature","featureId":28,"bbox":[8.467618,47.438504,8.472506,47.44173],"layerBodId":"ch.bazl.uas-aktivitaetszonen","layerName":"UAS Aktivitätszonen","id":28,"geometry":{"type":"MultiPolygon","coordinates":[[[[8.470297,47.441631],[8.467867,47.440172],[8.46778,47.440109],[8.467712,47.440035],[8.467666,47.439955],[8.467644,47.439869],[8.467646,47.439782],[8.467672,47.439698],[8.467722,47.439618],[8.467793,47.439546],[8.468871,47.438654],[8.468968,47.438589],[8.469082,47.438538],[8.469209,47.438504],[8.469343,47.438488],[8.469479,47.438491],[8.469612,47.438512],[8.469735,47.438551],[8.469845,47.438607],[8.472265,47.440109],[8.472351,47.440173],[8.472417,47.440248],[8.472461,47.440329],[8.472481,47.440415],[8.472477,47.440502],[8.472448,47.440587],[8.472396,47.440666],[8.472322,47.440737],[8.471254,47.441586],[8.471158,47.441649],[8.471046,47.441697],[8.470921,47.44173],[8.47079,47.441745],[8.470657,47.441742],[8.470527,47.441722],[8.470405,47.441684],[8.470297,47.441631]]]]},"properties":{"routelocation_de":"Regensdorf","routelocation_fr":"Regensdorf","routelocation_it":"Regensdorf","routelocation_en":"Regensdorf","startdatetime":"2026-09-30","enddatetime":"2028-09-30","validity":"07:00 - 20:00, Daily","lowerlimit":"GND","upperlimit":"540m / 1850ft","heightaboveground":"120m / 400ft","description":"UNMANNED ACFT ACT WILL TAKE PLACE AT REGENSDORF FOR CONSTRUCTION MONITORING CENTERED ON 47° 26′ 24.24″ N 8° 28′ 11.99″ E.","existingdetectionsystems":"web-based: SafeSky, on-board receiver: ADS-B IN","coordination":"+41 79 124 10 48","label":"Regensdorf","_zoneType":"UAS_AKT_CH","dataSource":"geo.admin.ch","sourceLayer":"ch.bazl.uas-aktivitaetszonen","uas_information_only":true}},{"type":"Feature","featureId":29,"bbox":[8.666457,47.715475,8.671524,47.718799],"layerBodId":"ch.bazl.uas-aktivitaetszonen","layerName":"UAS Aktivitätszonen","id":29,"geometry":{"type":"MultiPolygon","coordinates":[[[[8.670405,47.718811],[8.671513,47.718359],[8.670864,47.717584],[8.667845,47.715461],[8.666476,47.716281],[8.668149,47.717448],[8.667934,47.717612],[8.669366,47.71868],[8.670405,47.718811]]]]},"properties":{"routelocation_de":"Kantonales Gefägnis Schaffhausen","routelocation_fr":"Kantonales Gefägnis Schaffhausen","routelocation_it":"Kantonales Gefägnis Schaffhausen","routelocation_en":"Kantonales Gefägnis Schaffhausen","startdatetime":"2026-05-06","enddatetime":"2027-02-11","validity":"13:30-15:00, Mo-Fr","lowerlimit":"GND","upperlimit":"495m / 1624ft","heightaboveground":"70m / 229ft","description":"UNMANNED ACFT ACT WILL TAKE PLACE AT SCHAFFHAUSEN DISTANCE 0.36KM (47.718044N, 8.670556E, DISTANCE 0.2NM)","existingdetectionsystems":"on-ground receiver: ADS-B IN, FLARM IN","coordination":"+41 71 351 21 38","label":"Kantonales Gefägnis Schaffhausen","_zoneType":"UAS_AKT_CH","dataSource":"geo.admin.ch","sourceLayer":"ch.bazl.uas-aktivitaetszonen","uas_information_only":true}},{"type":"Feature","featureId":30,"bbox":[9.046273,47.572807,9.049702,47.575034],"layerBodId":"ch.bazl.uas-aktivitaetszonen","layerName":"UAS Aktivitätszonen","id":30,"geometry":{"type":"MultiPolygon","coordinates":[[[[9.048115,47.575055],[9.047969,47.575058],[9.047823,47.575053],[9.047678,47.575039],[9.047536,47.575016],[9.047397,47.574986],[9.047263,47.574947],[9.047134,47.574901],[9.047011,47.574847],[9.046896,47.574786],[9.046789,47.574719],[9.046691,47.574645],[9.046603,47.574566],[9.046526,47.574483],[9.046459,47.574395],[9.046404,47.574303],[9.046361,47.574209],[9.04633,47.574112],[9.046312,47.574014],[9.046306,47.573915],[9.046314,47.573816],[9.046333,47.573718],[9.046366,47.573622],[9.04641,47.573528],[9.046466,47.573437],[9.046534,47.573349],[9.046613,47.573266],[9.046702,47.573188],[9.046801,47.573115],[9.046909,47.573048],[9.047025,47.572988],[9.047149,47.572935],[9.047278,47.57289],[9.047413,47.572852],[9.047552,47.572822],[9.047695,47.572801],[9.04784,47.572788],[9.047986,47.572784],[9.048132,47.572788],[9.048277,47.572801],[9.048419,47.572822],[9.048559,47.572851],[9.048694,47.572889],[9.048823,47.572934],[9.048947,47.572987],[9.049063,47.573047],[9.049171,47.573114],[9.04927,47.573186],[9.04936,47.573264],[9.049439,47.573348],[9.049507,47.573435],[9.049563,47.573526],[9.049608,47.57362],[9.04964,47.573717],[9.04966,47.573815],[9.049668,47.573913],[9.049662,47.574012],[9.049644,47.57411],[9.049614,47.574207],[9.049571,47.574301],[9.049516,47.574393],[9.04945,47.574481],[9.049372,47.574565],[9.049284,47.574644],[9.049187,47.574717],[9.04908,47.574785],[9.048965,47.574846],[9.048843,47.5749],[9.048714,47.574946],[9.04858,47.574985],[9.048441,47.575016],[9.048299,47.575038],[9.048115,47.575055]]]]},"properties":{"routelocation_de":"Amlikon","routelocation_fr":"Amlikon","routelocation_it":"Amlikon","routelocation_en":"Amlikon","startdatetime":"2026-09-15","enddatetime":"2026-10-24","validity":"SS-SR, So-Fri","lowerlimit":"GND","upperlimit":"FL195","heightaboveground":"5530m / 18132ft","description":"TEMPO R-AREA AMLIKON SEE ACTIVITY STATUS ON DABS RADIUS 0.2KM (473426N 0090252E RADIUS 0.1NM). WX MEASUREMENTS BY REMOTELY PILOTED AERIAL SYSTEM WILL TAKE PLACE.","existingdetectionsystems":"LSR in accordance to DABS","coordination":"+41 77 282 80 71","label":"Amlikon","_zoneType":"UAS_AKT_CH","dataSource":"geo.admin.ch","sourceLayer":"ch.bazl.uas-aktivitaetszonen"}},{"type":"Feature","featureId":31,"bbox":[7.469025,46.974467,7.472763,46.976507],"layerBodId":"ch.bazl.uas-aktivitaetszonen","layerName":"UAS Aktivitätszonen","id":31,"geometry":{"type":"MultiPolygon","coordinates":[[[[7.472208,46.974473],[7.472295,46.974466],[7.472381,46.974477],[7.472458,46.974505],[7.47252,46.974547],[7.472561,46.9746],[7.472746,46.974973],[7.472762,46.975035],[7.472748,46.975098],[7.472706,46.975154],[7.472641,46.975199],[7.471757,46.975633],[7.470688,46.976191],[7.470633,46.976214],[7.469749,46.97649],[7.469652,46.976508],[7.469551,46.976501],[7.469237,46.976442],[7.469159,46.976419],[7.469095,46.976382],[7.469049,46.976333],[7.469026,46.976278],[7.469026,46.97622],[7.469051,46.976165],[7.469913,46.974916],[7.469965,46.974864],[7.470038,46.974826],[7.470124,46.974805],[7.471099,46.974685],[7.472208,46.974473]]]]},"properties":{"routelocation_de":"Swisscom Ittigen","routelocation_fr":"Swisscom Ittigen","routelocation_it":"Swisscom Ittigen","routelocation_en":"Swisscom Ittigen","startdatetime":"2026-05-19","enddatetime":"2026-12-19","validity":"ALL HOURS","lowerlimit":"GND","upperlimit":"663m / 2176ft","heightaboveground":"115m / 378ft","description":"UNMANNED ACFT ACT WILL TAKE PLACE AT ITTIGEN DISTANCE 0.2KM (46.975325N, 7.470763E, DISTANCE 0.11NM)","existingdetectionsystems":"Ground receivers: ADS-B IN, FLARM IN","coordination":"+41 58 221 98 31","label":"Swisscom Ittigen","_zoneType":"UAS_AKT_CH","dataSource":"geo.admin.ch","sourceLayer":"ch.bazl.uas-aktivitaetszonen","uas_information_only":true}},{"type":"Feature","featureId":32,"bbox":[6.569198,46.548993,6.570821,46.550686],"layerBodId":"ch.bazl.uas-aktivitaetszonen","layerName":"UAS Aktivitätszonen","id":32,"geometry":{"type":"MultiPolygon","coordinates":[[[[6.569451,46.550675],[6.569286,46.55061],[6.569231,46.55051],[6.569177,46.550312],[6.56966,46.548996],[6.570834,46.549883],[6.569451,46.550675]]]]},"properties":{"routelocation_de":"Crissier","routelocation_fr":"Crissier","routelocation_it":"Crissier","routelocation_en":"Crissier","startdatetime":"2026-04-28","enddatetime":"2026-12-31","validity":"SR-SS, Mo-Su","lowerlimit":"GND","upperlimit":"475m / 1558ft","heightaboveground":"45m / 147ft","description":"UNMANNED ACFT ACT WILL TAKE PLACE AT CRISSIER DISTANCE 0.06KM (46.550245N, 6.569651E DISTANCE 0.03NM)","existingdetectionsystems":"On-board receiver: ADS-B IN Web-based: SafeSky","coordination":"+41 84 410 53 30","label":"Crissier","_zoneType":"UAS_AKT_CH","dataSource":"geo.admin.ch","sourceLayer":"ch.bazl.uas-aktivitaetszonen","uas_information_only":true}}]}