{"type":"FeatureCollection","_meta":{"source":"Traficom Ilmatilasovellus — fi-ats","fetched_at":"2026-08-16T05:09:49.093075+00:00","feature_count":64,"classification_counts":{"ATS_FI":64},"skipped":[],"unit_note":"höjder i FT (verifierat via Traficoms AIXM-export); höjdreferens saknas i källan"},"features":[{"type":"Feature","geometry":{"type":"Polygon","coordinates":[[[24.7008173406044,66.1888855777656],[24.9155473116022,66.177215586589],[25.2833172884611,66.0555555992055],[26.0585971570474,66.1183256340268],[26.6402669726374,66.4877756682274],[26.8022069015051,66.6616656796636],[26.6547068707442,66.8547156785362],[26.324986892552,66.9549956673256],[25.71165698223,66.9641656417151],[25.1463771192568,66.7730556124934],[24.7783172245547,66.5863855917659],[24.6888772717286,66.4588855844759],[24.7008173406044,66.1888855777656]]]},"properties":{"id":145688,"name":"EFRO EFRO TMA","gmlId":"4fc1cb1e-6665-4f53-9c8b-47a77882f068","startDate":"2024-04-18T00:00:00","endDate":null,"activity":"","notes":"","groundRiskDensity":null,"permanentReserveType":null,"temporaryReserveType":null,"uasReserveType":null,"atsAreaType":"Lähestymisalue","airRiskLevel":null,"_zoneType":"ATS_FI","start_time":"2024-04-18T00:00:00"}},{"type":"Feature","geometry":{"type":"Polygon","coordinates":[[[21.0027685861333,63.2699953434658],[20.983048660736,62.9411053369915],[21.3980486545304,62.6761053572236],[21.8652686010855,62.6027753809816],[22.2158185396219,62.6508253990549],[22.2649885088106,62.7602754028163],[22.3880484319349,63.0308254123264],[22.3313784214418,63.1161054108157],[22.123598383655,63.424165405491],[21.8791584061471,63.4849953945098],[21.5897084318175,63.5633253811519],[21.2997085005536,63.4511053636793],[21.0027685861333,63.2699953434658]]]},"properties":{"id":145689,"name":"EFVA EFVA TMA","gmlId":"fddb62e0-f3b5-4f58-9a96-9c47ea37bc32","startDate":"2021-04-22T00:00:00","endDate":null,"activity":"","notes":"","groundRiskDensity":null,"permanentReserveType":null,"temporaryReserveType":null,"uasReserveType":null,"atsAreaType":"Lähestymisalue","airRiskLevel":null,"_zoneType":"ATS_FI","start_time":"2021-04-22T00:00:00"}},{"type":"Feature","geometry":{"type":"Polygon","coordinates":[[[30.5510973704698,62.5877757912226],[30.432487345939,62.7694357861165],[29.1577674759122,62.984995726711],[28.806927548322,62.8841657095647],[28.6860976005656,62.7283257030183],[28.6360976477609,62.5491656998234],[29.0866576166577,62.4044357207933],[30.0719274944543,62.3333257678324],[30.4210974236517,62.4319357847086],[30.5510973704698,62.5877757912226]]]},"properties":{"id":145690,"name":"EFJO EFJO TMA","gmlId":"4e8ac161-e7f7-426d-a84f-9116037b28f9","startDate":"2014-11-13T00:00:00","endDate":null,"activity":"","notes":"","groundRiskDensity":null,"permanentReserveType":null,"temporaryReserveType":null,"uasReserveType":null,"atsAreaType":"Lähestymisalue","airRiskLevel":null,"_zoneType":"ATS_FI","start_time":"2014-11-13T00:00:00"}},{"type":"Feature","geometry":{"type":"Polygon","coordinates":[[[19.2688795497503,60.066385148721],[19.7988795154795,59.694715213742],[20.1438794476186,59.7330552478116],[20.6319292588157,60.2980552887783],[20.4052692566065,60.4933252723281],[20.1002692946106,60.5591652467396],[19.654709385349,60.5091652008796],[19.2688795497503,60.066385148721]]]},"properties":{"id":145691,"name":"EFMA EFMA TMA","gmlId":"0482f772-53d1-4f72-ad79-c6a7febcfeed","startDate":"2024-04-18T00:00:00","endDate":null,"activity":"","notes":"","groundRiskDensity":null,"permanentReserveType":null,"temporaryReserveType":null,"uasReserveType":null,"atsAreaType":"Lähestymisalue","airRiskLevel":null,"_zoneType":"ATS_FI","start_time":"2024-04-18T00:00:00"}},{"type":"Feature","geometry":{"type":"Polygon","coordinates":[[[30.0455466736346,65.7386058010297],[29.9060966133158,66.040275800683],[29.0535966493008,66.3663857700397],[28.5480467290431,66.3458257474235],[28.278316801851,66.2227757328161],[28.2944268531211,66.0219357290735],[28.650266872499,65.7516657391537],[29.4144267998763,65.6055557703551],[30.0455466736346,65.7386058010297]]]},"properties":{"id":145692,"name":"EFKS EFKS TMA","gmlId":"95d83c25-bacc-4bf2-9c32-8019009dafcd","startDate":"2024-04-18T00:00:00","endDate":null,"activity":"","notes":"","groundRiskDensity":null,"permanentReserveType":null,"temporaryReserveType":null,"uasReserveType":null,"atsAreaType":"Lähestymisalue","airRiskLevel":null,"_zoneType":"ATS_FI","start_time":"2024-04-18T00:00:00"}},{"type":"Feature","geometry":{"type":"Polygon","coordinates":[[[25.0233177309469,64.4274955535807],[25.676657629915,64.4533255831406],[25.9177675826767,64.5044355947657],[26.3124874587354,64.7791656170779],[26.3083174059104,64.9963856208264],[25.1835974687236,65.4058255797542],[24.4147076071443,65.304715544172],[24.1922076873264,65.1119355303069],[24.2202677328802,64.9077755272448],[24.5230477466074,64.6669355357784],[24.8049877368089,64.5361055458096],[25.0233177309469,64.4274955535807]]]},"properties":{"id":145693,"name":"EFOU EFOU TMA","gmlId":"fcba3c67-14e3-4446-8d42-48d7191547bf","startDate":"2021-04-22T00:00:00","endDate":null,"activity":"","notes":"","groundRiskDensity":null,"permanentReserveType":null,"temporaryReserveType":null,"uasReserveType":null,"atsAreaType":"Lähestymisalue","airRiskLevel":null,"_zoneType":"ATS_FI","start_time":"2021-04-22T00:00:00"}},{"type":"Feature","geometry":{"type":"Polygon","coordinates":[[[24.8499887377601,59.8833255159975],[24.9969287157427,59.8908255233062],[25.3333186652823,59.9083255400399],[25.8666585957851,59.8833255668746],[26.5499884505528,60.1333255996915],[26.1330484444759,60.4522155776094],[25.8416584364318,60.6922155626551],[25.485818457974,60.8308255450644],[24.7822085589676,60.8202755107306],[24.4855486165243,60.742495496245],[24.0435987382005,60.447775474654],[23.8244288753417,59.9130554647187],[23.9919288937716,59.6999954738357],[24.8499887377601,59.8833255159975]]]},"properties":{"id":145694,"name":"EFHKU EFHK TMA UPPER","gmlId":"f701fe02-452e-4f18-811e-e48e7987dac2","startDate":"2014-11-13T00:00:00","endDate":null,"activity":"","notes":"","groundRiskDensity":null,"permanentReserveType":null,"temporaryReserveType":null,"uasReserveType":null,"atsAreaType":"Lähestymisalue","airRiskLevel":null,"_zoneType":"ATS_FI","start_time":"2014-11-13T00:00:00"}},{"type":"Feature","geometry":{"type":"Polygon","coordinates":[[[22.673048719511,61.4886054106856],[22.6244287277057,61.4824954082654],[22.5041587360696,61.5249954026195],[22.4505488203431,61.1524953978248],[22.5983187943637,61.1766654052959],[22.6252687920106,61.1694354065958],[22.673048719511,61.4886054106856]]]},"properties":{"id":145695,"name":"EFPOE EFPO TMA EAST","gmlId":"cb631a98-40a9-4833-80c9-d223c108c16f","startDate":"2023-04-20T00:00:00","endDate":null,"activity":"","notes":"","groundRiskDensity":null,"permanentReserveType":null,"temporaryReserveType":null,"uasReserveType":null,"atsAreaType":"Lähestymisalue","airRiskLevel":null,"_zoneType":"ATS_FI","start_time":"2023-04-20T00:00:00"}},{"type":"Feature","geometry":{"type":"Polygon","coordinates":[[[25.2833172884611,66.0555555992055],[24.9155473116022,66.177215586589],[24.7008173406044,66.1888855777656],[24.5144273658451,66.198885570121],[24.2805474116581,66.1569355591061],[24.1627675078917,65.8497155462028],[24.1399875917529,65.5299955374618],[23.9097076644676,65.3744355239166],[24.4147076071443,65.304715544172],[25.1835974687236,65.4058255797542],[25.2266574146424,65.5955555858419],[25.2833172884611,66.0555555992055]]]},"properties":{"id":145696,"name":"EFKE EFKE TMA","gmlId":"e37c15cf-7e1f-47fe-a4c1-e6d392de3e15","startDate":"2014-11-13T00:00:00","endDate":null,"activity":"","notes":"","groundRiskDensity":null,"permanentReserveType":null,"temporaryReserveType":null,"uasReserveType":null,"atsAreaType":"Lähestymisalue","airRiskLevel":null,"_zoneType":"ATS_FI","start_time":"2014-11-13T00:00:00"}},{"type":"Feature","geometry":{"type":"Polygon","coordinates":[[[28.6647079659772,61.058325700521],[28.6880479097915,61.3097157010031],[28.4247079332765,61.3724956880256],[27.3499881306002,61.1494356358461],[27.4260981337597,61.0833256396673],[27.7199881464674,60.8244356547566],[27.7535981624195,60.7244356567745],[28.5010980044688,60.9833256927165],[28.6647079659772,61.058325700521]]]},"properties":{"id":145697,"name":"EFLP EFLP  TMA","gmlId":"a23b5d33-ff45-4213-9e28-e2a0651d07cf","startDate":"2014-11-13T00:00:00","endDate":null,"activity":"","notes":"","groundRiskDensity":null,"permanentReserveType":null,"temporaryReserveType":null,"uasReserveType":null,"atsAreaType":"Lähestymisalue","airRiskLevel":null,"_zoneType":"ATS_FI","start_time":"2014-11-13T00:00:00"}},{"type":"Feature","geometry":{"type":"Polygon","coordinates":[[[22.673048719511,61.4886054106856],[22.6252687920106,61.1694354065958],[23.0716587536378,61.0474954280133],[23.3691587086775,61.0616654425431],[23.1413787307623,61.1111054316451],[22.8910987156503,61.3572154205754],[22.9019286785179,61.5291654220742],[22.7908186996887,61.503325416523],[22.673048719511,61.4886054106856]]]},"properties":{"id":145698,"name":"EFTPW EFTP TMA WEST","gmlId":"0fc4f884-6297-47a8-a54a-4133b978c1e2","startDate":"2018-04-26T00:00:00","endDate":null,"activity":"","notes":"","groundRiskDensity":null,"permanentReserveType":null,"temporaryReserveType":null,"uasReserveType":null,"atsAreaType":"Lähestymisalue","airRiskLevel":null,"_zoneType":"ATS_FI","start_time":"2018-04-26T00:00:00"}},{"type":"Feature","geometry":{"type":"Polygon","coordinates":[[[24.0558169604245,67.944995604749],[23.9805470717684,67.5919355895874],[24.447487069472,67.3430556005935],[24.9097070246103,67.2508256167908],[25.3344269490972,67.2905556356428],[25.6360968573708,67.4544356532483],[25.2435967447837,68.0566656568535],[24.7738767899581,68.1505556410409],[24.3497068672924,68.1105556224733],[24.0558169604245,67.944995604749]]]},"properties":{"id":145699,"name":"EFKT EFKT TMA","gmlId":"d61575ca-054f-49af-8368-82f6e7e196d4","startDate":"2023-04-20T00:00:00","endDate":null,"activity":"","notes":"","groundRiskDensity":null,"permanentReserveType":null,"temporaryReserveType":null,"uasReserveType":null,"atsAreaType":"Lähestymisalue","airRiskLevel":null,"_zoneType":"ATS_FI","start_time":"2023-04-20T00:00:00"}},{"type":"Feature","geometry":{"type":"Polygon","coordinates":[[[23.1458182694665,63.2694354510051],[23.596928186598,63.3488854727259],[23.8616580061637,63.9733254941244],[23.4630480578513,64.0002754767282],[22.8463781591823,63.9502754480692],[22.6230481961488,63.9313854375346],[22.4191583353211,63.4469354199461],[22.777768315917,63.2999954344681],[23.1458182694665,63.2694354510051]]]},"properties":{"id":145700,"name":"EFKK EFKK TMA","gmlId":"82f65d48-fb68-45ef-8c6d-bfc8f32a2145","startDate":"2024-04-18T00:00:00","endDate":null,"activity":"","notes":"","groundRiskDensity":null,"permanentReserveType":null,"temporaryReserveType":null,"uasReserveType":null,"atsAreaType":"Lähestymisalue","airRiskLevel":null,"_zoneType":"ATS_FI","start_time":"2024-04-18T00:00:00"}},{"type":"Feature","geometry":{"type":"Polygon","coordinates":[[[26.5608179715521,62.4102756007735],[26.3094279822007,62.5238855896326],[25.995267995911,62.6638855758985],[25.6641580107717,62.8094355616479],[25.1780480819978,62.800825538986],[24.835268150045,62.7141655222753],[24.8299881809816,62.5766655207987],[24.8247082128317,62.4341655193713],[24.8169282768439,62.1433255168963],[25.115818229278,62.1672155311327],[25.2702682223285,62.0977755380022],[25.7822081999119,61.8644355611531],[26.5763780325621,62.1205556000412],[26.5608179715521,62.4102756007735]]]},"properties":{"id":145701,"name":"EFJY EFJY TMA","gmlId":"bd63c457-c609-40a8-ac11-8bd2d4806974","startDate":"2014-11-13T00:00:00","endDate":null,"activity":"","notes":"","groundRiskDensity":null,"permanentReserveType":null,"temporaryReserveType":null,"uasReserveType":null,"atsAreaType":"Lähestymisalue","airRiskLevel":null,"_zoneType":"ATS_FI","start_time":"2014-11-13T00:00:00"}},{"type":"Feature","geometry":{"type":"Polygon","coordinates":[[[28.1085960212187,68.9783258068636],[27.6308160962192,68.9749957871005],[26.3797064217031,68.5519357205899],[26.3394264883823,68.3522157118937],[26.6544264763462,68.23082572067],[27.1944263919283,68.2363857431885],[28.4283160731163,68.6591658088112],[28.482206011013,68.8297158169972],[28.1085960212187,68.9783258068636]]]},"properties":{"id":145702,"name":"EFIV EFIV TMA","gmlId":"5dcb9ff4-382f-49a0-b141-90ed26826a31","startDate":"2024-04-18T00:00:00","endDate":null,"activity":"","notes":"","groundRiskDensity":null,"permanentReserveType":null,"temporaryReserveType":null,"uasReserveType":null,"atsAreaType":"Lähestymisalue","airRiskLevel":null,"_zoneType":"ATS_FI","start_time":"2024-04-18T00:00:00"}},{"type":"Feature","geometry":{"type":"Polygon","coordinates":[[[24.5119287675479,59.9716654987899],[25.0294286786204,60.0549955242488],[25.4510985974784,60.1661055448004],[25.721928495986,60.4819355572112],[25.3222085075718,60.7005555371639],[24.6433186318372,60.5577755040176],[24.3897086918558,60.4366654916787],[24.3852687163457,60.3177754916232],[24.0985987829984,60.1852754776944],[24.5119287675479,59.9716654987899]]]},"properties":{"id":145703,"name":"EFHKL EFHK TMA LOWER","gmlId":"d63792ad-6f76-41b3-9531-a4ca0d6b2da1","startDate":"2014-11-13T00:00:00","endDate":null,"activity":"","notes":"","groundRiskDensity":null,"permanentReserveType":null,"temporaryReserveType":null,"uasReserveType":null,"atsAreaType":"Lähestymisalue","airRiskLevel":null,"_zoneType":"ATS_FI","start_time":"2014-11-13T00:00:00"}},{"type":"Feature","geometry":{"type":"Polygon","coordinates":[[[24.1319284643775,61.7186054819664],[24.5977684233949,61.5999955035778],[25.5049882898958,61.6252755470382],[25.7822081999119,61.8644355611531],[25.115818229278,62.1672155311327],[24.0891583933876,62.081935482222],[24.0494284274311,61.948605479433],[24.1319284643775,61.7186054819664]]]},"properties":{"id":145704,"name":"EFHA EFHA TMA","gmlId":"bdfe86a3-4b3f-4511-b9b4-d836f02c1791","startDate":"2014-11-13T00:00:00","endDate":null,"activity":"","notes":"","groundRiskDensity":null,"permanentReserveType":null,"temporaryReserveType":null,"uasReserveType":null,"atsAreaType":"Lähestymisalue","airRiskLevel":null,"_zoneType":"ATS_FI","start_time":"2014-11-13T00:00:00"}},{"type":"Feature","geometry":{"type":"Polygon","coordinates":[[[28.806927548322,62.8841657095647],[29.1577674759122,62.984995726711],[28.499707570499,62.9774956956393],[28.191927538133,63.3091656836748],[27.916097556983,63.397215671602],[27.6110975957547,63.4172156576277],[27.27470765851,63.3527756414139],[27.0266577297533,63.1958256284359],[27.1599878596718,62.5330556297755],[27.3085978342796,62.5527756369075],[27.8722077511804,62.5683256636533],[28.6360976477609,62.5491656998234],[28.6860976005656,62.7283257030183],[28.806927548322,62.8841657095647]]]},"properties":{"id":145705,"name":"EFKU EFKU TMA","gmlId":"1e5cc20a-4305-4f9e-9b46-9f8fbf467fbf","startDate":"2014-12-23T00:00:00","endDate":null,"activity":"","notes":"","groundRiskDensity":null,"permanentReserveType":null,"temporaryReserveType":null,"uasReserveType":null,"atsAreaType":"Lähestymisalue","airRiskLevel":null,"_zoneType":"ATS_FI","start_time":"2014-12-23T00:00:00"}},{"type":"Feature","geometry":{"type":"Polygon","coordinates":[[[21.5777688035982,61.8447153575936],[21.1733188779577,61.7763853339812],[20.9719289365873,61.6405553203546],[20.9672089910713,61.3780553177932],[21.8927689190689,61.0599953687599],[22.4505488203431,61.1524953978248],[22.5041587360696,61.5249954026195],[21.5777688035982,61.8447153575936]]]},"properties":{"id":145706,"name":"EFPOW EFPO TMA WEST","gmlId":"75c0c169-b73b-4784-8e14-b49f80eb914e","startDate":"2023-04-20T00:00:00","endDate":null,"activity":"","notes":"","groundRiskDensity":null,"permanentReserveType":null,"temporaryReserveType":null,"uasReserveType":null,"atsAreaType":"Lähestymisalue","airRiskLevel":null,"_zoneType":"ATS_FI","start_time":"2023-04-20T00:00:00"}},{"type":"Feature","geometry":{"type":"Polygon","coordinates":[[[26.0902683519511,60.9338855745259],[26.0508183671643,60.8869355726409],[26.1258183900241,60.7244355765545],[26.4305483754092,60.5872155918916],[27.7535981624195,60.7244356567745],[27.7199881464674,60.8244356547566],[27.4260981337597,61.0833256396673],[27.2360981645808,61.0630556304012],[26.4974882850813,60.9811055943832],[26.0902683519511,60.9338855745259]]]},"properties":{"id":145707,"name":"EFUT EFUT TMA","gmlId":"ca7727b7-ba18-47f0-b9d4-d8b7a5de3ea9","startDate":"2014-11-13T00:00:00","endDate":null,"activity":"","notes":"","groundRiskDensity":null,"permanentReserveType":null,"temporaryReserveType":null,"uasReserveType":null,"atsAreaType":"Lähestymisalue","airRiskLevel":null,"_zoneType":"ATS_FI","start_time":"2014-11-13T00:00:00"}},{"type":"Feature","geometry":{"type":"Polygon","coordinates":[[[24.5899884985503,61.2452755020071],[24.5977684233949,61.5999955035778],[24.1319284643775,61.7186054819664],[23.752208517218,61.7233254639496],[22.9019286785179,61.5291654220742],[22.8910987156503,61.3572154205754],[23.1413787307623,61.1111054316451],[23.3691587086775,61.0616654425431],[23.9172086241272,61.0966654691748],[24.5899884985503,61.2452755020071]]]},"properties":{"id":145708,"name":"EFTPE EFTP TMA EAST","gmlId":"157dc524-efdd-4752-8ac5-d00a73175db4","startDate":"2018-04-26T00:00:00","endDate":null,"activity":"","notes":"","groundRiskDensity":null,"permanentReserveType":null,"temporaryReserveType":null,"uasReserveType":null,"atsAreaType":"Lähestymisalue","airRiskLevel":null,"_zoneType":"ATS_FI","start_time":"2018-04-26T00:00:00"}},{"type":"Feature","geometry":{"type":"Polygon","coordinates":[[[21.8997091074266,60.111935366309],[22.9574889339847,60.2316654209816],[23.1913788538772,60.4683254326813],[23.1655488241545,60.6344354315817],[22.8805488367043,60.7716654177849],[22.1335989422743,60.7741653801094],[21.585819029426,60.7330553505744],[21.3508190994369,60.5544353364286],[21.3858191271809,60.3886053379542],[21.8997091074266,60.111935366309]]]},"properties":{"id":145709,"name":"EFTU EFTU TMA","gmlId":"48d8a83f-fc87-48db-bc37-ca8c6f0fa76a","startDate":"2021-04-22T00:00:00","endDate":null,"activity":"","notes":"","groundRiskDensity":null,"permanentReserveType":null,"temporaryReserveType":null,"uasReserveType":null,"atsAreaType":"Lähestymisalue","airRiskLevel":null,"_zoneType":"ATS_FI","start_time":"2021-04-22T00:00:00"}},{"type":"Feature","geometry":{"type":"Polygon","coordinates":[[[23.6658183359902,62.6280554672082],[22.7324883727804,63.0727754291617],[22.3880484319349,63.0308254123264],[22.2649885088106,62.7602754028163],[23.0499884905067,62.3205554353528],[23.2877684503049,62.3494354468186],[23.55109838783,62.4647154602404],[23.6658183359902,62.6280554672082]]]},"properties":{"id":145710,"name":"EFSSIFU EFSI FIZ UPPER","gmlId":"f8bf39e7-458d-4724-9edb-c4af37ca38eb","startDate":"2014-11-13T00:00:00","endDate":null,"activity":"","notes":"","groundRiskDensity":null,"permanentReserveType":null,"temporaryReserveType":null,"uasReserveType":null,"atsAreaType":"Lentotiedotusvyöhyke","airRiskLevel":null,"_zoneType":"ATS_FI","start_time":"2014-11-13T00:00:00"}},{"type":"Feature","geometry":{"type":"Polygon","coordinates":[[[27.6716579629528,61.7280556514321],[26.9638780324239,61.8680556176566],[26.7652681096969,61.6374956075989],[27.4674880405593,61.4986056413889],[27.6716579629528,61.7280556514321]]]},"properties":{"id":145711,"name":"EFSMIFL EFMI FIZ LOWER","gmlId":"08f30b93-b74a-46a5-80da-f7ec6e5687a7","startDate":"2014-11-13T00:00:00","endDate":null,"activity":"","notes":"","groundRiskDensity":null,"permanentReserveType":null,"temporaryReserveType":null,"uasReserveType":null,"atsAreaType":"Lentotiedotusvyöhyke","airRiskLevel":null,"_zoneType":"ATS_FI","start_time":"2014-11-13T00:00:00"}},{"type":"Feature","geometry":{"type":"Polygon","coordinates":[[[28.1085960212187,68.9783258068636],[27.6308160962192,68.9749957871005],[26.3797064217031,68.5519357205899],[26.3394264883823,68.3522157118937],[26.6544264763462,68.23082572067],[27.1944263919283,68.2363857431885],[28.4283160731163,68.6591658088112],[28.482206011013,68.8297158169972],[28.1085960212187,68.9783258068636]]]},"properties":{"id":145712,"name":"EFSIVFU EFIV FIZ UPPER","gmlId":"68f67537-8039-40bc-8c54-2b7ea3a220ea","startDate":"2014-11-13T00:00:00","endDate":null,"activity":"","notes":"","groundRiskDensity":null,"permanentReserveType":null,"temporaryReserveType":null,"uasReserveType":null,"atsAreaType":"Lentotiedotusvyöhyke","airRiskLevel":null,"_zoneType":"ATS_FI","start_time":"2014-11-13T00:00:00"}},{"type":"Feature","geometry":{"type":"Polygon","coordinates":[[[28.3047072225041,64.5686057032716],[26.8883174538359,64.4563856375483],[26.6919275229319,64.2869356261309],[26.7666575511203,64.1236056271712],[27.0930475337305,63.9991656403475],[27.7180474604302,63.9305556680775],[28.4863773075472,64.1111057054928],[28.6922072379892,64.277495716983],[28.628877207296,64.440825716228],[28.3047072225041,64.5686057032716]]]},"properties":{"id":145713,"name":"EFSKIFU EFKI FIZ UPPER","gmlId":"3275d73f-1966-4d7b-8804-c213983d9387","startDate":"2014-11-13T00:00:00","endDate":null,"activity":"","notes":"","groundRiskDensity":null,"permanentReserveType":null,"temporaryReserveType":null,"uasReserveType":null,"atsAreaType":"Lentotiedotusvyöhyke","airRiskLevel":null,"_zoneType":"ATS_FI","start_time":"2014-11-13T00:00:00"}},{"type":"Feature","geometry":{"type":"Polygon","coordinates":[[[24.0558169604245,67.944995604749],[23.9805470717684,67.5919355895874],[24.447487069472,67.3430556005935],[24.9097070246103,67.2508256167908],[25.3344269490972,67.2905556356428],[25.6360968573708,67.4544356532483],[25.2435967447837,68.0566656568535],[24.7738767899581,68.1505556410409],[24.3497068672924,68.1105556224733],[24.0558169604245,67.944995604749]]]},"properties":{"id":145714,"name":"EFSKTFU EFKT FIZ UPPER","gmlId":"77a09835-9f4d-4177-a805-9cb0c167c060","startDate":"2014-11-13T00:00:00","endDate":null,"activity":"","notes":"","groundRiskDensity":null,"permanentReserveType":null,"temporaryReserveType":null,"uasReserveType":null,"atsAreaType":"Lentotiedotusvyöhyke","airRiskLevel":null,"_zoneType":"ATS_FI","start_time":"2014-11-13T00:00:00"}},{"type":"Feature","geometry":{"type":"Polygon","coordinates":[[[29.7966566537854,65.9486057939825],[29.0474866883406,66.2258257666376],[28.6372067981088,66.0402757445503],[29.3855467621766,65.7649957720874],[29.7966566537854,65.9486057939825]]]},"properties":{"id":145715,"name":"EFSKSFL EFKS FIZ LOWER","gmlId":"5849e706-6072-4ebc-8018-32ff8bdc9bf0","startDate":"2014-11-13T00:00:00","endDate":null,"activity":"","notes":"","groundRiskDensity":null,"permanentReserveType":null,"temporaryReserveType":null,"uasReserveType":null,"atsAreaType":"Lentotiedotusvyöhyke","airRiskLevel":null,"_zoneType":"ATS_FI","start_time":"2014-11-13T00:00:00"}},{"type":"Feature","geometry":{"type":"Polygon","coordinates":[[[27.2997074737085,64.1269356514453],[28.1891573292111,64.1977756929536],[28.0894272841224,64.4430556917024],[27.1924874304301,64.3716656500077],[27.2997074737085,64.1269356514453]]]},"properties":{"id":145716,"name":"EFSKIFL EFKI FIZ LOWER","gmlId":"f76f3566-dece-4ed6-b6f2-e3cf266af429","startDate":"2014-11-13T00:00:00","endDate":null,"activity":"","notes":"","groundRiskDensity":null,"permanentReserveType":null,"temporaryReserveType":null,"uasReserveType":null,"atsAreaType":"Lentotiedotusvyöhyke","airRiskLevel":null,"_zoneType":"ATS_FI","start_time":"2014-11-13T00:00:00"}},{"type":"Feature","geometry":{"type":"Polygon","coordinates":[[[26.4944281332166,61.7061055947175],[26.4949881652424,61.5549955944323],[27.5910980573827,61.3372156474236],[27.9505479842326,61.4449956648518],[28.089157932167,61.5983256715479],[27.9552679291108,61.7002756651053],[26.8469280388626,61.9147156121879],[26.4944281332166,61.7061055947175]]]},"properties":{"id":145717,"name":"EFSMIFU EFMI FIZ UPPER","gmlId":"c9f141f1-6ae9-4d9e-a5a5-9b520284bffa","startDate":"2014-11-13T00:00:00","endDate":null,"activity":"","notes":"","groundRiskDensity":null,"permanentReserveType":null,"temporaryReserveType":null,"uasReserveType":null,"atsAreaType":"Lentotiedotusvyöhyke","airRiskLevel":null,"_zoneType":"ATS_FI","start_time":"2014-11-13T00:00:00"}},{"type":"Feature","geometry":{"type":"Polygon","coordinates":[[[23.2997083843138,62.6469354503939],[22.7541584055762,62.9091654280224],[22.3627684998654,62.7361054072435],[22.9085984775395,62.4752754302368],[23.2997083843138,62.6469354503939]]]},"properties":{"id":145718,"name":"EFSSIFL EFSI FIZ LOWER","gmlId":"47e33b5e-437e-4400-99d0-10907edeb1be","startDate":"2014-11-13T00:00:00","endDate":null,"activity":"","notes":"","groundRiskDensity":null,"permanentReserveType":null,"temporaryReserveType":null,"uasReserveType":null,"atsAreaType":"Lentotiedotusvyöhyke","airRiskLevel":null,"_zoneType":"ATS_FI","start_time":"2014-11-13T00:00:00"}},{"type":"Feature","geometry":{"type":"Polygon","coordinates":[[[23.0235970090167,68.3358255774542],[23.2263770163707,68.1999955805205],[23.5402670144463,68.0358255871625],[24.2683168930745,68.0649956175691],[24.3497068672924,68.1105556224733],[24.3960968588154,68.1149956245043],[24.4999868255168,68.1741656308072],[24.416656748013,68.4819356386893],[24.2980467086488,68.6761056412905],[23.9308167380627,68.7705556303651],[23.6644267972194,68.7133256175724],[23.4460968363965,68.697495608294],[23.1608169017096,68.6291655942699],[22.75720702777,68.4161055697689],[23.0235970090167,68.3358255774542]]]},"properties":{"id":145719,"name":"EFSETFU EFET FIZ UPPER","gmlId":"a3f87878-dee5-47fd-a7dc-5221dc868467","startDate":"2014-11-13T00:00:00","endDate":null,"activity":"","notes":"","groundRiskDensity":null,"permanentReserveType":null,"temporaryReserveType":null,"uasReserveType":null,"atsAreaType":"Lentotiedotusvyöhyke","airRiskLevel":null,"_zoneType":"ATS_FI","start_time":"2014-11-13T00:00:00"}},{"type":"Feature","geometry":{"type":"Polygon","coordinates":[[[30.0455466736346,65.7386058010297],[29.9060966133158,66.040275800683],[29.0535966493008,66.3663857700397],[28.5480467290431,66.3458257474235],[28.278316801851,66.2227757328161],[28.2944268531211,66.0219357290735],[28.650266872499,65.7516657391537],[29.4144267998763,65.6055557703551],[30.0455466736346,65.7386058010297]]]},"properties":{"id":145720,"name":"EFSKSFU EFKS FIZ UPPER","gmlId":"1e89f01d-9bcf-4465-9da2-88b443f8fc04","startDate":"2014-11-13T00:00:00","endDate":null,"activity":"","notes":"","groundRiskDensity":null,"permanentReserveType":null,"temporaryReserveType":null,"uasReserveType":null,"atsAreaType":"Lentotiedotusvyöhyke","airRiskLevel":null,"_zoneType":"ATS_FI","start_time":"2014-11-13T00:00:00"}},{"type":"Feature","geometry":{"type":"Polygon","coordinates":[[[24.0102668198463,68.4538856213926],[23.4535968650245,68.5969356046711],[22.9863770115769,68.3472155763876],[23.0235970090167,68.3358255774542],[23.2263770163707,68.1999955805205],[23.3799870153324,68.1199955837586],[24.0102668198463,68.4538856213926]]]},"properties":{"id":145721,"name":"EFSETFL EFET FIZ LOWER","gmlId":"8692658b-9a05-4203-8da3-fc386a959d5c","startDate":"2014-11-13T00:00:00","endDate":null,"activity":"","notes":"","groundRiskDensity":null,"permanentReserveType":null,"temporaryReserveType":null,"uasReserveType":null,"atsAreaType":"Lentotiedotusvyöhyke","airRiskLevel":null,"_zoneType":"ATS_FI","start_time":"2014-11-13T00:00:00"}},{"type":"Feature","geometry":{"type":"Polygon","coordinates":[[[26.7385963676644,68.5472157351032],[27.2055463508295,68.3666657480527],[28.0785961250871,68.6644357944648],[27.6127661394649,68.8472157817094],[26.7385963676644,68.5472157351032]]]},"properties":{"id":145722,"name":"EFSIVFL EFIV FIZ LOWER","gmlId":"62bef22d-d7d4-4fdb-9ded-ae2f6c9394a4","startDate":"2014-11-13T00:00:00","endDate":null,"activity":"","notes":"","groundRiskDensity":null,"permanentReserveType":null,"temporaryReserveType":null,"uasReserveType":null,"atsAreaType":"Lentotiedotusvyöhyke","airRiskLevel":null,"_zoneType":"ATS_FI","start_time":"2014-11-13T00:00:00"}},{"type":"Feature","geometry":{"type":"Polygon","coordinates":[[[28.4730478029534,61.9483256903548],[29.0944277613114,61.7388857202942],[29.4035976743584,61.9405557352678],[28.7810977154129,62.1513857055185],[28.4730478029534,61.9483256903548]]]},"properties":{"id":145723,"name":"EFSSAFL EFSA FIZ LOWER","gmlId":"301654d5-5c92-424e-b4a7-6042ea16ae32","startDate":"2014-11-13T00:00:00","endDate":null,"activity":"","notes":"","groundRiskDensity":null,"permanentReserveType":null,"temporaryReserveType":null,"uasReserveType":null,"atsAreaType":"Lentotiedotusvyöhyke","airRiskLevel":null,"_zoneType":"ATS_FI","start_time":"2014-11-13T00:00:00"}},{"type":"Feature","geometry":{"type":"Polygon","coordinates":[[[25.0413768096143,67.9405556446251],[24.3977669253746,67.8827756164455],[24.6613770017588,67.4691656134329],[25.2944268891602,67.5261056413516],[25.0413768096143,67.9405556446251]]]},"properties":{"id":145724,"name":"EFSKTFL EFKT FIZ LOWER","gmlId":"7ac146c7-64bf-4c3f-b034-cf5234048f3e","startDate":"2014-11-13T00:00:00","endDate":null,"activity":"","notes":"","groundRiskDensity":null,"permanentReserveType":null,"temporaryReserveType":null,"uasReserveType":null,"atsAreaType":"Lentotiedotusvyöhyke","airRiskLevel":null,"_zoneType":"ATS_FI","start_time":"2014-11-13T00:00:00"}},{"type":"Feature","geometry":{"type":"Polygon","coordinates":[[[28.7155476864415,62.3247157028116],[28.3355477569369,62.2472156844076],[28.133047814993,62.112215674338],[28.1052678607661,61.9197156726003],[29.165547790085,61.5588857239021],[29.5410977213495,61.6349957420949],[29.7497076631054,61.7699957520877],[29.789707615394,61.9636057539427],[28.7155476864415,62.3247157028116]]]},"properties":{"id":145725,"name":"EFSSAFU EFSA FIZ UPPER","gmlId":"4d1bfd42-74d2-4c9d-a5dc-5a05b234f3f1","startDate":"2019-04-25T00:00:00","endDate":null,"activity":"","notes":"","groundRiskDensity":null,"permanentReserveType":null,"temporaryReserveType":null,"uasReserveType":null,"atsAreaType":"Lentotiedotusvyöhyke","airRiskLevel":null,"_zoneType":"ATS_FI","start_time":"2019-04-25T00:00:00"}},{"type":"Feature","geometry":{"type":"Polygon","coordinates":[[[20.8119286418374,63.1522153296302],[20.7994286951148,62.9152753250347],[21.2849886865322,62.6061053499597],[21.8613786203576,62.5155553797118],[22.3705485313319,62.5852754057951],[22.4127685050151,62.6788854089486],[22.2649885088106,62.7602754028163],[22.2158185396219,62.6508253990549],[21.8652686010855,62.6027753809816],[21.3980486545304,62.6761053572236],[20.983048660736,62.9411053369915],[21.0027685861333,63.2699953434658],[20.8119286418374,63.1522153296302]]]},"properties":{"id":145726,"name":"EFVA EFVA CTA","gmlId":"61cf637b-45a6-44eb-8c70-1711b82d83dc","startDate":"2015-11-12T00:00:00","endDate":null,"activity":"","notes":"","groundRiskDensity":null,"permanentReserveType":null,"temporaryReserveType":null,"uasReserveType":null,"atsAreaType":"Lennonjohtoalue","airRiskLevel":null,"_zoneType":"ATS_FI","start_time":"2015-11-12T00:00:00"}},{"type":"Feature","geometry":{"type":"Polygon","coordinates":[[[26.3035983929993,60.5880555856254],[26.0044284074295,60.7224955705958],[25.9716584068461,60.7477755689448],[25.5433184326708,60.9147155478358],[25.4399884390094,60.9544355427961],[25.0866584896406,60.9497155255996],[24.7822085589676,60.8202755107306],[25.485818457974,60.8308255450644],[25.8416584364318,60.6922155626551],[26.1330484444759,60.4522155776094],[26.5499884505528,60.1333255996915],[26.7272084225394,60.1497156084536],[26.2335984118475,60.5436055822974],[26.3035983929993,60.5880555856254]]]},"properties":{"id":145727,"name":"EFHKE EFHK CTA EAST","gmlId":"553e5dc5-ed2c-450f-8850-7b1c3297ff51","startDate":"2022-04-21T00:00:00","endDate":null,"activity":"","notes":"","groundRiskDensity":null,"permanentReserveType":null,"temporaryReserveType":null,"uasReserveType":null,"atsAreaType":"Lennonjohtoalue","airRiskLevel":null,"_zoneType":"ATS_FI","start_time":"2022-04-21T00:00:00"}},{"type":"Feature","geometry":{"type":"Polygon","coordinates":[[[24.6330480671128,63.2172155182924],[24.0802681945274,63.0016654904221],[23.6658183359902,62.6280554672082],[23.55109838783,62.4647154602404],[24.0891583933876,62.081935482222],[24.8169282768439,62.1433255168963],[24.835268150045,62.7141655222753],[25.1780480819978,62.800825538986],[25.6641580107717,62.8094355616479],[26.5608179715521,62.4102756007735],[26.5763780325621,62.1205556000412],[27.1599878596718,62.5330556297755],[27.0447077472709,63.1074956284918],[25.6680478947529,63.3233255669679],[25.0799879844558,63.2994355397259],[24.6330480671128,63.2172155182924]]]},"properties":{"id":145728,"name":"EFJY EFJY CTA","gmlId":"b6e87b46-c93f-4886-be0f-c5e6fac89dbe","startDate":"2024-04-18T00:00:00","endDate":null,"activity":"","notes":"","groundRiskDensity":null,"permanentReserveType":null,"temporaryReserveType":null,"uasReserveType":null,"atsAreaType":"Lennonjohtoalue","airRiskLevel":null,"_zoneType":"ATS_FI","start_time":"2024-04-18T00:00:00"}},{"type":"Feature","geometry":{"type":"Polygon","coordinates":[[[24.2705486756419,60.5999954857303],[24.0633187044228,60.601665475586],[23.8860987533988,60.4822154669013],[23.8480487773634,60.3894354650677],[23.7938788114501,60.256935462512],[23.692768875418,60.0061054579203],[23.5980488993285,59.9522154533218],[23.5380489145215,59.9177754504077],[23.7524889374064,59.6480554620248],[23.9919288937716,59.6999954738357],[23.8244288753417,59.9130554647187],[24.0435987382005,60.447775474654],[24.2705486756419,60.5999954857303]]]},"properties":{"id":145729,"name":"EFHKW EFHK CTA WEST","gmlId":"c6d2425b-f9ca-4be4-81bd-fd5f3a2a5910","startDate":"2018-04-26T00:00:00","endDate":null,"activity":"","notes":"","groundRiskDensity":null,"permanentReserveType":null,"temporaryReserveType":null,"uasReserveType":null,"atsAreaType":"Lennonjohtoalue","airRiskLevel":null,"_zoneType":"ATS_FI","start_time":"2018-04-26T00:00:00"}},{"type":"Feature","geometry":{"type":"Polygon","coordinates":[[[25.676657629915,64.4533255831406],[25.0233177309469,64.4274955535807],[24.8049877368089,64.5361055458096],[24.5230477466074,64.6669355357784],[24.2202677328802,64.9077755272448],[24.1922076873264,65.1119355303069],[24.4147076071443,65.304715544172],[24.224707628643,65.3311055365372],[23.9922077126955,65.1286055219755],[24.0274877668107,64.8844355183374],[24.364157781454,64.6183255278539],[24.9430477632595,64.3405555485182],[25.6760976499194,64.3699955817415],[25.676657629915,64.4533255831406]]]},"properties":{"id":145730,"name":"EFOU EFOU CTA","gmlId":"0ff06d5f-0a9a-4b39-a12e-c6205065c889","startDate":"2019-04-25T00:00:00","endDate":null,"activity":"","notes":"","groundRiskDensity":null,"permanentReserveType":null,"temporaryReserveType":null,"uasReserveType":null,"atsAreaType":"Lennonjohtoalue","airRiskLevel":null,"_zoneType":"ATS_FI","start_time":"2019-04-25T00:00:00"}},{"type":"Feature","geometry":{"type":"Polygon","coordinates":[[[21.8997091074266,60.111935366309],[21.3858191271809,60.3886053379542],[21.3508190994369,60.5544353364286],[21.2055491430408,60.4427753273498],[21.2249891580554,60.3522153282566],[21.8430491335823,60.0199953631741],[23.0719289323159,60.15888542674],[23.3624888330793,60.4519354411287],[23.3485988163052,60.5452754404973],[23.1655488241545,60.6344354315817],[23.1913788538772,60.4683254326813],[22.9574889339847,60.2316654209816],[21.8997091074266,60.111935366309]]]},"properties":{"id":145731,"name":"EFTU EFTU CTA","gmlId":"190cd256-c624-445c-bc2d-06f11096482b","startDate":"2015-11-12T00:00:00","endDate":null,"activity":"","notes":"","groundRiskDensity":null,"permanentReserveType":null,"temporaryReserveType":null,"uasReserveType":null,"atsAreaType":"Lennonjohtoalue","airRiskLevel":null,"_zoneType":"ATS_FI","start_time":"2015-11-12T00:00:00"}},{"type":"Feature","geometry":{"type":"Polygon","coordinates":[[[25.2088771422198,61.9938844234055],[24.3560994912243,61.9663843829329],[24.3958217604451,61.7180510500744],[25.2405438574544,61.7449955348404],[25.2088771422198,61.9938844234055]]]},"properties":{"id":145773,"name":" EFHA CTR","gmlId":"901faf36-a42c-4798-b324-9471e045f56e","startDate":null,"endDate":null,"activity":"","notes":"","groundRiskDensity":null,"permanentReserveType":null,"temporaryReserveType":null,"uasReserveType":null,"atsAreaType":"Lähialue","airRiskLevel":null,"_zoneType":"ATS_FI"}},{"type":"Feature","geometry":{"type":"Polygon","coordinates":[[[24.7074886522603,60.4119399517995],[24.6472109000681,60.3266621712037],[24.6866553496758,60.2733288399301],[24.8135997875699,60.2172177352361],[24.926933107258,60.2061066297687],[24.9808219863802,60.2172177435172],[24.9938775350472,60.2424955218692],[25.0299886367047,60.2644399680401],[25.0385997430448,60.2822177461957],[25.2116552758773,60.274717754781],[25.2055441466343,60.3691621986681],[25.0813774815709,60.4474955257046],[24.9216552796633,60.4577732955992],[24.7074886522603,60.4119399517995]]]},"properties":{"id":145774,"name":" EFHK CTR NORTH","gmlId":"d2236139-b3b8-48ee-b5ec-aadc063103d2","startDate":null,"endDate":null,"activity":"","notes":"","groundRiskDensity":null,"permanentReserveType":null,"temporaryReserveType":null,"uasReserveType":null,"atsAreaType":"Lähialue","airRiskLevel":null,"_zoneType":"ATS_FI"}},{"type":"Feature","geometry":{"type":"Polygon","coordinates":[[[25.0385997430448,60.2822177461957],[25.0299886367047,60.2644399680401],[24.9938775350472,60.2424955218692],[24.9808219863802,60.2172177435172],[25.0124886549484,60.1855510785152],[25.0499886511998,60.1780510803986],[25.2110997232979,60.2602733103518],[25.2116552758773,60.274717754781],[25.0385997430448,60.2822177461957]]]},"properties":{"id":145775,"name":" EFHK CTR SOUTH","gmlId":"8f84acc6-477f-46a0-88f4-ff1ac340a21d","startDate":null,"endDate":null,"activity":"","notes":"","groundRiskDensity":null,"permanentReserveType":null,"temporaryReserveType":null,"uasReserveType":null,"atsAreaType":"Lähialue","airRiskLevel":null,"_zoneType":"ATS_FI"}},{"type":"Feature","geometry":{"type":"Polygon","coordinates":[[[27.6127639172422,68.8472180039289],[26.7385974787747,68.5472179573227],[27.2055419063867,68.3666624147163],[28.0785972361964,68.6644402389067],[27.6127639172422,68.8472180039289]]]},"properties":{"id":145776,"name":" EFIV CTR","gmlId":"b20f25fd-dcd2-4ac0-94ea-1bac4695c2b3","startDate":null,"endDate":null,"activity":"","notes":"","groundRiskDensity":null,"permanentReserveType":null,"temporaryReserveType":null,"uasReserveType":null,"atsAreaType":"Lähialue","airRiskLevel":null,"_zoneType":"ATS_FI"}},{"type":"Feature","geometry":{"type":"Polygon","coordinates":[[[29.3169319299335,62.8444401779363],[29.1319320087863,62.6102735014431],[29.923320816855,62.4755513165944],[30.1147096264957,62.7086068819869],[29.3169319299335,62.8444401779363]]]},"properties":{"id":145777,"name":" EFJO CTR","gmlId":"4676d4cb-4157-4210-839c-52aaf81bd155","startDate":null,"endDate":null,"activity":"","notes":"","groundRiskDensity":null,"permanentReserveType":null,"temporaryReserveType":null,"uasReserveType":null,"atsAreaType":"Lähialue","airRiskLevel":null,"_zoneType":"ATS_FI"}},{"type":"Feature","geometry":{"type":"Polygon","coordinates":[[[25.588043620725,62.6124955564562],[25.2152659354726,62.4322177598527],[25.8019325757305,62.1705511191059],[26.1749880395929,62.3491622488658],[25.588043620725,62.6124955564562]]]},"properties":{"id":145778,"name":" EFJY CTR","gmlId":"ef1491ef-b5a3-4a1b-ad96-b5502aa5fe2b","startDate":null,"endDate":null,"activity":"","notes":"","groundRiskDensity":null,"permanentReserveType":null,"temporaryReserveType":null,"uasReserveType":null,"atsAreaType":"Lähialue","airRiskLevel":null,"_zoneType":"ATS_FI"}},{"type":"Feature","geometry":{"type":"Polygon","coordinates":[[[24.3374874492279,65.9777733346734],[24.2227653383576,65.6055510983847],[24.8191541470926,65.5733289010586],[24.9430429232507,65.9444400263353],[24.3374874492279,65.9777733346734]]]},"properties":{"id":145779,"name":" EFKE CTR","gmlId":"571b65ab-c186-4714-8f6b-3edacb33d604","startDate":null,"endDate":null,"activity":"","notes":"","groundRiskDensity":null,"permanentReserveType":null,"temporaryReserveType":null,"uasReserveType":null,"atsAreaType":"Lähialue","airRiskLevel":null,"_zoneType":"ATS_FI"}},{"type":"Feature","geometry":{"type":"Polygon","coordinates":[[[25.0413756985046,67.940551200179],[24.3977647031496,67.8827733942336],[24.6613758906476,67.4691622801023],[25.2944313336039,67.5261067524606],[25.0413756985046,67.940551200179]]]},"properties":{"id":145780,"name":" EFKT CTR","gmlId":"e34ac756-47db-44ff-85b8-5261c5bab698","startDate":null,"endDate":null,"activity":"","notes":"","groundRiskDensity":null,"permanentReserveType":null,"temporaryReserveType":null,"uasReserveType":null,"atsAreaType":"Lähialue","airRiskLevel":null,"_zoneType":"ATS_FI"}},{"type":"Feature","geometry":{"type":"Polygon","coordinates":[[[22.9397103752703,63.9166621189029],[22.7880438135852,63.5508287727768],[23.3366548557418,63.5047176855639],[23.4949880829242,63.8708288094864],[22.9397103752703,63.9166621189029]]]},"properties":{"id":145781,"name":" EFKK CTR","gmlId":"6d1c8489-dce4-470f-9117-a44096d8bc6d","startDate":null,"endDate":null,"activity":"","notes":"","groundRiskDensity":null,"permanentReserveType":null,"temporaryReserveType":null,"uasReserveType":null,"atsAreaType":"Lähialue","airRiskLevel":null,"_zoneType":"ATS_FI"}},{"type":"Feature","geometry":{"type":"Polygon","coordinates":[[[27.8852653765603,63.2347178909663],[27.3772099153946,63.1374956442367],[27.7177655050996,62.7727734352943],[28.2205431901311,62.8688845706918],[27.8852653765603,63.2347178909663]]]},"properties":{"id":145782,"name":" EFKU CTR","gmlId":"5b3ee254-efd8-4a63-afbd-121b968881ff","startDate":null,"endDate":null,"activity":"","notes":"","groundRiskDensity":null,"permanentReserveType":null,"temporaryReserveType":null,"uasReserveType":null,"atsAreaType":"Lähialue","airRiskLevel":null,"_zoneType":"ATS_FI"}},{"type":"Feature","geometry":{"type":"Polygon","coordinates":[[[29.0474866883398,66.2258290999702],[28.637209020331,66.0402735223256],[29.385542317734,65.7649957720914],[29.7966533204591,65.9486069051157],[29.0474866883398,66.2258290999702]]]},"properties":{"id":145783,"name":" EFKS CTR","gmlId":"06fd6edc-5583-4fb4-9e6c-fe7577a70230","startDate":null,"endDate":null,"activity":"","notes":"","groundRiskDensity":null,"permanentReserveType":null,"temporaryReserveType":null,"uasReserveType":null,"atsAreaType":"Lähialue","airRiskLevel":null,"_zoneType":"ATS_FI"}},{"type":"Feature","geometry":{"type":"Polygon","coordinates":[[[28.4035990768103,61.2330512427924],[27.6955436511,61.0858289861905],[27.8827658907035,60.8766623292736],[28.5869324286467,61.0230512523633],[28.4035990768103,61.2330512427924]]]},"properties":{"id":145784,"name":" EFLP CTR","gmlId":"89c50b89-6e1c-43af-9f39-8f704524c01a","startDate":null,"endDate":null,"activity":"","notes":"","groundRiskDensity":null,"permanentReserveType":null,"temporaryReserveType":null,"uasReserveType":null,"atsAreaType":"Lähialue","airRiskLevel":null,"_zoneType":"ATS_FI"}},{"type":"Feature","geometry":{"type":"Polygon","coordinates":[[[19.8152671321816,60.3411063818059],[19.5316561254223,60.0105508119419],[19.9874894135418,59.9124952772891],[20.2752670867541,60.2416619584487],[19.8152671321816,60.3411063818059]]]},"properties":{"id":145785,"name":" EFMA CTR","gmlId":"9456b709-c230-494f-84d9-f90be89f8005","startDate":null,"endDate":null,"activity":"","notes":"","groundRiskDensity":null,"permanentReserveType":null,"temporaryReserveType":null,"uasReserveType":null,"atsAreaType":"Lähialue","airRiskLevel":null,"_zoneType":"ATS_FI"}},{"type":"Feature","geometry":{"type":"Polygon","coordinates":[[[25.1135986571472,65.1361066820935],[24.8127654203887,64.9219399979189],[25.5933209102645,64.7233289174569],[25.7469319727684,64.8311067040094],[25.6483208345716,65.0002733695176],[25.1135986571472,65.1361066820935]]]},"properties":{"id":145786,"name":" EFOU CTR","gmlId":"aaeed377-d1a9-47bd-9ccb-317d47ef1b60","startDate":null,"endDate":null,"activity":"","notes":"","groundRiskDensity":null,"permanentReserveType":null,"temporaryReserveType":null,"uasReserveType":null,"atsAreaType":"Lähialue","airRiskLevel":null,"_zoneType":"ATS_FI"}},{"type":"Feature","geometry":{"type":"Polygon","coordinates":[[[21.6238777184007,61.6752731414483],[21.32054447001,61.4724953478755],[21.9683222015833,61.2494398212297],[22.273877672471,61.4508287258132],[21.6238777184007,61.6752731414483]]]},"properties":{"id":145787,"name":" EFPO CTR","gmlId":"4c555fbf-a1c4-4b87-a30e-af39f9f09857","startDate":null,"endDate":null,"activity":"","notes":"","groundRiskDensity":null,"permanentReserveType":null,"temporaryReserveType":null,"uasReserveType":null,"atsAreaType":"Lähialue","airRiskLevel":null,"_zoneType":"ATS_FI"}},{"type":"Feature","geometry":{"type":"Polygon","coordinates":[[[25.8716536717028,66.7924956436082],[25.2788760642242,66.4891622768961],[25.7760982542608,66.3305511827682],[26.2702647782962,66.5888845439127],[26.1966536496458,66.6944400991498],[25.8716536717028,66.7924956436082]]]},"properties":{"id":145788,"name":" EFRO CTR","gmlId":"1e5741ef-7466-4d70-a06d-c255535440f9","startDate":null,"endDate":null,"activity":"","notes":"","groundRiskDensity":null,"permanentReserveType":null,"temporaryReserveType":null,"uasReserveType":null,"atsAreaType":"Lähialue","airRiskLevel":null,"_zoneType":"ATS_FI"}},{"type":"Feature","geometry":{"type":"Polygon","coordinates":[[[23.8577663038535,61.6097176906331],[23.1247108871249,61.441662099377],[23.3510997902911,61.2174954424566],[24.0799885417058,61.3841621446489],[23.8577663038535,61.6097176906331]]]},"properties":{"id":145789,"name":" EFTP CTR","gmlId":"4a4f9abd-69f0-4b0f-b2d2-12bdfc286214","startDate":null,"endDate":null,"activity":"","notes":"","groundRiskDensity":null,"permanentReserveType":null,"temporaryReserveType":null,"uasReserveType":null,"atsAreaType":"Lähialue","airRiskLevel":null,"_zoneType":"ATS_FI"}},{"type":"Feature","geometry":{"type":"Polygon","coordinates":[[[22.6538777806688,60.6558287404889],[21.8466556794165,60.6197175903272],[21.895266833025,60.3719398142628],[22.6958222689863,60.4072176310073],[22.6538777806688,60.6558287404889]]]},"properties":{"id":145790,"name":" EFTU CTR","gmlId":"623feb8d-316d-4021-b0dc-253e87d7b868","startDate":null,"endDate":null,"activity":"","notes":"","groundRiskDensity":null,"permanentReserveType":null,"temporaryReserveType":null,"uasReserveType":null,"atsAreaType":"Lähialue","airRiskLevel":null,"_zoneType":"ATS_FI"}},{"type":"Feature","geometry":{"type":"Polygon","coordinates":[[[27.2360992756928,61.063051185955],[26.4974882850812,60.9811067054926],[26.6080438760062,60.7344400446855],[27.3424882021837,60.8099956361961],[27.2360992756928,61.063051185955]]]},"properties":{"id":145791,"name":" EFUT CTR","gmlId":"27b8abfb-b6b6-40db-94e0-b229fcf795fb","startDate":null,"endDate":null,"activity":"","notes":"","groundRiskDensity":null,"permanentReserveType":null,"temporaryReserveType":null,"uasReserveType":null,"atsAreaType":"Lähialue","airRiskLevel":null,"_zoneType":"ATS_FI"}},{"type":"Feature","geometry":{"type":"Polygon","coordinates":[[[21.9010995592421,63.2736065065618],[21.3730440960267,63.2011064818642],[21.6238774740408,62.829717598713],[22.1458218277924,62.9013842899487],[21.9010995592421,63.2736065065618]]]},"properties":{"id":145792,"name":" EFVA CTR","gmlId":"af5ae68a-d935-40ec-9d1c-485d82f5e87f","startDate":null,"endDate":null,"activity":"","notes":"","groundRiskDensity":null,"permanentReserveType":null,"temporaryReserveType":null,"uasReserveType":null,"atsAreaType":"Lähialue","airRiskLevel":null,"_zoneType":"ATS_FI"}}]}