{"type":"FeatureCollection","metadata":{"country":"NL","generated":"2026-09-06T17:48:49.993110+00:00","featureCount":36,"dataSources":[{"source":"LVNL (Luchtverkeersleiding Nederland) — Airspace, ArcGIS Online","license":"CC BY 4.0","url":"https://creativecommons.org/licenses/by/4.0/","datasetUri":"https://lvnl.maps.arcgis.com/home/item.html?id=f70d761a86654aea8a7f1764c83d183a"}],"disclaimer":"For planning purposes only. Data may contain errors and/or be incomplete. Binding sources are official AIP and current NOTAMs."},"features":[{"type":"Feature","geometry":{"type":"Polygon","coordinates":[[[4.63665,51.48351],[4.63642,51.48026],[4.63569,51.47704],[4.63445,51.47388],[4.63273,51.47081],[4.63054,51.46786],[4.62789,51.46506],[4.62471,51.46234],[4.62123,51.45992],[4.61739,51.45772],[4.61323,51.45577],[4.60878,51.45408],[4.60392,51.45262],[4.59902,51.45152],[4.59398,51.45071],[4.58883,51.45022],[4.58364,51.45004],[4.57825,51.45019],[4.5731,51.45066],[4.56804,51.45144],[4.56314,51.45252],[4.55826,51.45396],[4.55379,51.45562],[4.5496,51.45756],[4.54573,51.45974],[4.54211,51.46223],[4.539,51.46484],[4.53633,51.46763],[4.53409,51.47057],[4.53233,51.47363],[4.53106,51.47678],[4.53028,51.48],[4.53001,51.48325],[4.53027,51.48661],[4.53103,51.48983],[4.5323,51.49299],[4.53405,51.49605],[4.53627,51.49899],[4.53894,51.50178],[4.54204,51.5044],[4.54553,51.50682],[4.54938,51.50901],[4.55356,51.51095],[4.55818,51.51269],[4.56289,51.51408],[4.5678,51.51518],[4.57285,51.51598],[4.57801,51.51646],[4.58322,51.51663],[4.58842,51.51647],[4.59358,51.516],[4.59864,51.51522],[4.60356,51.51414],[4.60828,51.51276],[4.61276,51.5111],[4.61696,51.50917],[4.62084,51.507],[4.62436,51.5046],[4.62749,51.502],[4.6302,51.49922],[4.63246,51.49629],[4.63425,51.49324],[4.63555,51.49009],[4.63635,51.48687],[4.63665,51.48351]]]},"properties":{"identifier":"LVNL:PJ:EHAAPJA014","name":"SCHIJF","type":"PARAJUMP","lowerLimit":"GND","upperLimit":"FL100","authority":"LVNL","siteUrl":"https://geoportaal.lvnl.nl/datasets/f70d761a86654aea8a7f1764c83d183a_6","conditions":"Valschermspringgebied volgens de AIP-data van LVNL. Vliegveiligheidsinformatie voor bemand verkeer — geen UAS-geografische zone (niet aangewezen in de Regeling zonering onbemande luchtvaartuigen).","dataSource":"LVNL Airspaces_data (ArcGIS Online)","licenseId":"CC BY 4.0"}},{"type":"Feature","geometry":{"type":"Polygon","coordinates":[[[3.83862,51.49897],[3.83837,51.49572],[3.83762,51.49251],[3.83637,51.48935],[3.83464,51.48628],[3.83243,51.48334],[3.82977,51.48054],[3.82669,51.47792],[3.82308,51.47541],[3.81923,51.47322],[3.81506,51.47127],[3.8106,51.46959],[3.80591,51.46819],[3.80101,51.46708],[3.79597,51.46627],[3.79082,51.46578],[3.78543,51.4656],[3.78023,51.46575],[3.77508,51.46621],[3.76984,51.46702],[3.76494,51.46811],[3.76006,51.46955],[3.7556,51.47123],[3.75142,51.47317],[3.74756,51.47536],[3.74394,51.47785],[3.74085,51.48047],[3.73818,51.48327],[3.73597,51.48621],[3.73422,51.48927],[3.73296,51.49243],[3.73219,51.49565],[3.73194,51.4989],[3.73221,51.50226],[3.73299,51.50548],[3.73427,51.50863],[3.73603,51.51169],[3.73827,51.51463],[3.74095,51.51742],[3.74406,51.52003],[3.74756,51.52244],[3.75157,51.5247],[3.75577,51.52663],[3.76025,51.52829],[3.76497,51.52967],[3.76988,51.53076],[3.77494,51.53155],[3.7801,51.53202],[3.78531,51.53218],[3.79052,51.53202],[3.79567,51.53154],[3.80073,51.53075],[3.80565,51.52966],[3.81036,51.52827],[3.81484,51.5266],[3.81903,51.52467],[3.8229,51.52249],[3.82641,51.52009],[3.82953,51.51748],[3.83223,51.5147],[3.83447,51.51176],[3.83625,51.5087],[3.83754,51.50555],[3.83833,51.50234],[3.83862,51.49897]]]},"properties":{"identifier":"LVNL:PJ:EHAAPJA005","name":"'S HEER ARENDSKERKE","type":"PARAJUMP","lowerLimit":"GND","upperLimit":"FL120","authority":"LVNL","siteUrl":"https://geoportaal.lvnl.nl/datasets/f70d761a86654aea8a7f1764c83d183a_6","conditions":"Valschermspringgebied volgens de AIP-data van LVNL. Vliegveiligheidsinformatie voor bemand verkeer — geen UAS-geografische zone (niet aangewezen in de Regeling zonering onbemande luchtvaartuigen).","dataSource":"LVNL Airspaces_data (ArcGIS Online)","licenseId":"CC BY 4.0"}},{"type":"Feature","geometry":{"type":"Polygon","coordinates":[[[3.79696,51.50733],[3.79672,51.50408],[3.79597,51.50086],[3.79473,51.4977],[3.79299,51.49463],[3.79079,51.49169],[3.78813,51.48889],[3.78505,51.48626],[3.78145,51.48376],[3.7776,51.48157],[3.77343,51.47962],[3.76897,51.47793],[3.76427,51.47653],[3.7592,51.47538],[3.75415,51.47459],[3.749,51.4741],[3.7438,51.47393],[3.7386,51.47408],[3.73326,51.47456],[3.7282,51.47535],[3.7233,51.47644],[3.71858,51.47782],[3.71411,51.47949],[3.70991,51.48142],[3.70591,51.48367],[3.70229,51.48617],[3.69919,51.48879],[3.69652,51.49158],[3.6943,51.49452],[3.69255,51.49759],[3.69129,51.50074],[3.69052,51.50396],[3.69026,51.50721],[3.69053,51.51057],[3.69131,51.51379],[3.69258,51.51694],[3.69435,51.52],[3.69658,51.52294],[3.69926,51.52573],[3.70237,51.52835],[3.70587,51.53076],[3.70973,51.53294],[3.71391,51.53488],[3.71838,51.53656],[3.72309,51.53796],[3.728,51.53906],[3.73306,51.53986],[3.73821,51.54034],[3.74342,51.54051],[3.74863,51.54037],[3.7538,51.5399],[3.75904,51.53909],[3.76395,51.538],[3.76867,51.53661],[3.77315,51.53495],[3.77735,51.53302],[3.78122,51.53084],[3.78474,51.52844],[3.78786,51.52583],[3.79055,51.52305],[3.7928,51.52011],[3.79458,51.51706],[3.79588,51.51391],[3.79667,51.51069],[3.79696,51.50733]]]},"properties":{"identifier":"LVNL:PJ:EHAAPJA008","name":"ZUID VAN MIDDEN-ZEELAND","type":"PARAJUMP","lowerLimit":"GND","upperLimit":"FL120","authority":"LVNL","siteUrl":"https://geoportaal.lvnl.nl/datasets/f70d761a86654aea8a7f1764c83d183a_6","conditions":"Valschermspringgebied volgens de AIP-data van LVNL. Vliegveiligheidsinformatie voor bemand verkeer — geen UAS-geografische zone (niet aangewezen in de Regeling zonering onbemande luchtvaartuigen).","dataSource":"LVNL Airspaces_data (ArcGIS Online)","licenseId":"CC BY 4.0"}},{"type":"Feature","geometry":{"type":"Polygon","coordinates":[[[4.73669,51.5168],[4.73646,51.51355],[4.73571,51.51033],[4.73447,51.50717],[4.73274,51.5041],[4.73054,51.50116],[4.72789,51.49836],[4.72481,51.49573],[4.72121,51.49322],[4.71736,51.49103],[4.71319,51.48908],[4.70874,51.48739],[4.70387,51.48594],[4.69897,51.48484],[4.69392,51.48404],[4.68858,51.48354],[4.68338,51.48337],[4.67817,51.48353],[4.67302,51.484],[4.66779,51.48482],[4.66288,51.48592],[4.65817,51.48731],[4.65371,51.48898],[4.64952,51.49092],[4.64565,51.4931],[4.64215,51.49551],[4.63893,51.49821],[4.63626,51.501],[4.63403,51.50394],[4.63228,51.50701],[4.63101,51.51016],[4.63024,51.51338],[4.62997,51.51663],[4.63024,51.51999],[4.63101,51.52321],[4.63228,51.52636],[4.63404,51.52942],[4.63627,51.53236],[4.63895,51.53515],[4.64205,51.53777],[4.64555,51.54018],[4.64941,51.54237],[4.65359,51.54431],[4.65806,51.54599],[4.66277,51.54739],[4.66768,51.54849],[4.67273,51.5493],[4.67789,51.54979],[4.6831,51.54996],[4.68831,51.54981],[4.69348,51.54935],[4.69872,51.54854],[4.70364,51.54746],[4.70836,51.54607],[4.71284,51.54441],[4.71704,51.54248],[4.72092,51.5403],[4.72444,51.5379],[4.72756,51.5353],[4.73027,51.53252],[4.73252,51.52958],[4.7343,51.52653],[4.7356,51.52338],[4.7364,51.52016],[4.73669,51.5168]]]},"properties":{"identifier":"LVNL:PJ:EHAAPJA013","name":"RIJSBERGEN","type":"PARAJUMP","lowerLimit":"GND","upperLimit":"FL100","authority":"LVNL","siteUrl":"https://geoportaal.lvnl.nl/datasets/f70d761a86654aea8a7f1764c83d183a_6","conditions":"Valschermspringgebied volgens de AIP-data van LVNL. Vliegveiligheidsinformatie voor bemand verkeer — geen UAS-geografische zone (niet aangewezen in de Regeling zonering onbemande luchtvaartuigen).","dataSource":"LVNL Airspaces_data (ArcGIS Online)","licenseId":"CC BY 4.0"}},{"type":"Feature","geometry":{"type":"Polygon","coordinates":[[[3.83753,51.52342],[3.83729,51.52017],[3.83654,51.51695],[3.83529,51.51379],[3.83355,51.51073],[3.83134,51.50778],[3.82869,51.50498],[3.82549,51.50227],[3.82199,51.49986],[3.81814,51.49767],[3.81397,51.49572],[3.80951,51.49404],[3.80481,51.49263],[3.79991,51.49152],[3.79486,51.49072],[3.78971,51.49022],[3.78432,51.49004],[3.77893,51.4902],[3.77378,51.49068],[3.76873,51.49147],[3.76382,51.49256],[3.75894,51.494],[3.75447,51.49567],[3.75029,51.49761],[3.74643,51.4998],[3.74281,51.5023],[3.73972,51.50492],[3.73705,51.50771],[3.73483,51.51065],[3.73308,51.51372],[3.73182,51.51687],[3.73106,51.52009],[3.7308,51.52334],[3.73107,51.5267],[3.73185,51.52992],[3.73313,51.53307],[3.73489,51.53613],[3.73713,51.53907],[3.73982,51.54186],[3.74293,51.54447],[3.74643,51.54688],[3.7503,51.54907],[3.75448,51.551],[3.75896,51.55268],[3.76367,51.55407],[3.76858,51.55517],[3.77364,51.55597],[3.7788,51.55646],[3.78401,51.55662],[3.78922,51.55648],[3.79438,51.55601],[3.79945,51.55523],[3.80437,51.55415],[3.8091,51.55277],[3.81359,51.55111],[3.81794,51.54912],[3.82181,51.54694],[3.82532,51.54453],[3.82844,51.54193],[3.83114,51.53914],[3.83339,51.53621],[3.83517,51.53315],[3.83646,51.53],[3.83725,51.52678],[3.83753,51.52342]]]},"properties":{"identifier":"LVNL:PJ:EHAAPJA011","name":"OUD SABBINGE","type":"PARAJUMP","lowerLimit":"GND","upperLimit":"FL120","authority":"LVNL","siteUrl":"https://geoportaal.lvnl.nl/datasets/f70d761a86654aea8a7f1764c83d183a_6","conditions":"Valschermspringgebied volgens de AIP-data van LVNL. Vliegveiligheidsinformatie voor bemand verkeer — geen UAS-geografische zone (niet aangewezen in de Regeling zonering onbemande luchtvaartuigen).","dataSource":"LVNL Airspaces_data (ArcGIS Online)","licenseId":"CC BY 4.0"}},{"type":"Feature","geometry":{"type":"Polygon","coordinates":[[[4.60257,51.55436],[4.60234,51.55111],[4.60161,51.54789],[4.60037,51.54473],[4.59865,51.54166],[4.59646,51.53871],[4.59381,51.53591],[4.59074,51.53328],[4.58714,51.53077],[4.5833,51.52857],[4.57913,51.52661],[4.57451,51.52487],[4.56981,51.52346],[4.56491,51.52235],[4.55986,51.52155],[4.5547,51.52105],[4.54931,51.52088],[4.5441,51.52103],[4.53876,51.52151],[4.5337,51.5223],[4.52879,51.5234],[4.52391,51.52484],[4.51944,51.52651],[4.51526,51.52845],[4.51139,51.53064],[4.50789,51.53305],[4.50468,51.53576],[4.50201,51.53855],[4.49979,51.54149],[4.49804,51.54456],[4.49678,51.54771],[4.49602,51.55093],[4.49576,51.55418],[4.49604,51.55755],[4.49682,51.56076],[4.4981,51.56391],[4.49987,51.56697],[4.50211,51.56991],[4.5048,51.5727],[4.50791,51.57531],[4.51142,51.57772],[4.51528,51.5799],[4.51948,51.58184],[4.52395,51.58352],[4.52867,51.58491],[4.53358,51.58601],[4.53865,51.58681],[4.54381,51.58729],[4.54902,51.58746],[4.55424,51.58731],[4.55941,51.58684],[4.56448,51.58606],[4.5694,51.58498],[4.57413,51.5836],[4.57862,51.58194],[4.58283,51.58002],[4.58671,51.57785],[4.59024,51.57545],[4.59338,51.57285],[4.59609,51.57007],[4.59836,51.56714],[4.60015,51.56409],[4.60146,51.56094],[4.60227,51.55772],[4.60257,51.55436]]]},"properties":{"identifier":"LVNL:PJ:EHSEPJA001","name":"SEPPE AIRPORT","type":"PARAJUMP","lowerLimit":"GND","upperLimit":"FL100","authority":"LVNL","siteUrl":"https://geoportaal.lvnl.nl/datasets/f70d761a86654aea8a7f1764c83d183a_6","conditions":"Valschermspringgebied volgens de AIP-data van LVNL. Vliegveiligheidsinformatie voor bemand verkeer — geen UAS-geografische zone (niet aangewezen in de Regeling zonering onbemande luchtvaartuigen).","dataSource":"LVNL Airspaces_data (ArcGIS Online)","licenseId":"CC BY 4.0"}},{"type":"Feature","geometry":{"type":"Polygon","coordinates":[[[4.58119,51.55881],[4.58096,51.55557],[4.58023,51.55234],[4.579,51.54918],[4.57727,51.54611],[4.57508,51.54316],[4.57244,51.54036],[4.56936,51.53773],[4.56577,51.53522],[4.56192,51.53302],[4.55776,51.53106],[4.55314,51.52932],[4.54844,51.52791],[4.54353,51.5268],[4.5383,51.52597],[4.53314,51.52549],[4.52794,51.52532],[4.52273,51.52547],[4.51757,51.52593],[4.5125,51.52671],[4.50741,51.52784],[4.5027,51.52922],[4.49806,51.53095],[4.49388,51.53289],[4.49001,51.53508],[4.48639,51.53758],[4.4833,51.54019],[4.48062,51.54299],[4.4784,51.54593],[4.47665,51.54899],[4.47539,51.55215],[4.47463,51.55537],[4.47437,51.55862],[4.47464,51.56198],[4.47542,51.5652],[4.4767,51.56835],[4.47847,51.57141],[4.48071,51.57435],[4.48339,51.57714],[4.48651,51.57975],[4.49001,51.58216],[4.49388,51.58434],[4.49807,51.58628],[4.50255,51.58796],[4.50726,51.58935],[4.51218,51.59045],[4.51724,51.59125],[4.5224,51.59173],[4.52762,51.5919],[4.53283,51.59175],[4.538,51.59129],[4.54307,51.59051],[4.548,51.58943],[4.55273,51.58805],[4.55722,51.58639],[4.56143,51.58447],[4.56532,51.5823],[4.56885,51.5799],[4.57198,51.5773],[4.5747,51.57452],[4.57697,51.57159],[4.57876,51.56854],[4.58007,51.56539],[4.58088,51.56218],[4.58119,51.55881]]]},"properties":{"identifier":"LVNL:PJ:EHAAPJA003","name":"BOSSCHENHOOFD","type":"PARAJUMP","lowerLimit":"GND","upperLimit":"FL100","authority":"LVNL","siteUrl":"https://geoportaal.lvnl.nl/datasets/f70d761a86654aea8a7f1764c83d183a_6","conditions":"Valschermspringgebied volgens de AIP-data van LVNL. Vliegveiligheidsinformatie voor bemand verkeer — geen UAS-geografische zone (niet aangewezen in de Regeling zonering onbemande luchtvaartuigen).","dataSource":"LVNL Airspaces_data (ArcGIS Online)","licenseId":"CC BY 4.0"}},{"type":"Feature","geometry":{"type":"Polygon","coordinates":[[[4.58334,51.56862],[4.58311,51.56537],[4.58238,51.56215],[4.58114,51.55899],[4.57942,51.55592],[4.57723,51.55297],[4.57458,51.55016],[4.57151,51.54753],[4.56791,51.54502],[4.56407,51.54282],[4.5599,51.54087],[4.55528,51.53912],[4.55058,51.53772],[4.54567,51.53661],[4.54062,51.5358],[4.53547,51.53531],[4.53007,51.53513],[4.52468,51.53529],[4.51952,51.53576],[4.51446,51.53655],[4.50955,51.53764],[4.50466,51.53908],[4.50019,51.54076],[4.49601,51.5427],[4.49214,51.54488],[4.48852,51.54738],[4.48542,51.55],[4.48275,51.55279],[4.48053,51.55574],[4.47878,51.5588],[4.47752,51.56196],[4.47675,51.56517],[4.4765,51.56842],[4.47677,51.57179],[4.47755,51.575],[4.47883,51.57816],[4.4806,51.58122],[4.48283,51.58415],[4.48552,51.58694],[4.48864,51.58955],[4.49214,51.59196],[4.49601,51.59415],[4.50021,51.59609],[4.50468,51.59776],[4.5094,51.59916],[4.51431,51.60026],[4.51938,51.60105],[4.52454,51.60154],[4.52976,51.60171],[4.53498,51.60156],[4.54015,51.60109],[4.54522,51.60031],[4.55014,51.59923],[4.55487,51.59785],[4.55937,51.5962],[4.56358,51.59427],[4.56747,51.5921],[4.571,51.58971],[4.57413,51.58711],[4.57685,51.58433],[4.57912,51.5814],[4.58091,51.57834],[4.58222,51.5752],[4.58303,51.57198],[4.58334,51.56862]]]},"properties":{"identifier":"LVNL:PJ:EHAAPJA010","name":"OUDENBOSCH","type":"PARAJUMP","lowerLimit":"GND","upperLimit":"FL100","authority":"LVNL","siteUrl":"https://geoportaal.lvnl.nl/datasets/f70d761a86654aea8a7f1764c83d183a_6","conditions":"Valschermspringgebied volgens de AIP-data van LVNL. Vliegveiligheidsinformatie voor bemand verkeer — geen UAS-geografische zone (niet aangewezen in de Regeling zonering onbemande luchtvaartuigen).","dataSource":"LVNL Airspaces_data (ArcGIS Online)","licenseId":"CC BY 4.0"}},{"type":"Feature","geometry":{"type":"Polygon","coordinates":[[[4.52098,51.85172],[4.52068,51.84847],[4.51988,51.84526],[4.51857,51.84211],[4.51678,51.83905],[4.51451,51.83612],[4.51179,51.83334],[4.50864,51.83073],[4.5051,51.82833],[4.5012,51.82615],[4.49698,51.82422],[4.49247,51.82256],[4.48772,51.82117],[4.48278,51.82008],[4.47769,51.81929],[4.47249,51.81882],[4.46707,51.81865],[4.46182,51.81882],[4.45663,51.81931],[4.45155,51.8201],[4.44643,51.82125],[4.4417,51.82265],[4.43721,51.82433],[4.433,51.82628],[4.42912,51.82847],[4.42548,51.83097],[4.42238,51.83359],[4.4197,51.83639],[4.41748,51.83934],[4.41573,51.8424],[4.41447,51.84556],[4.41371,51.84878],[4.41347,51.85203],[4.41375,51.85539],[4.41455,51.85861],[4.41585,51.86176],[4.41764,51.86482],[4.41991,51.86775],[4.42262,51.87054],[4.42576,51.87314],[4.4293,51.87555],[4.43335,51.8778],[4.43759,51.87972],[4.44211,51.88138],[4.44687,51.88276],[4.45182,51.88384],[4.45693,51.88462],[4.46213,51.88508],[4.46738,51.88523],[4.47263,51.88507],[4.47783,51.88458],[4.48292,51.88378],[4.48787,51.88268],[4.49261,51.88129],[4.49712,51.87961],[4.50148,51.8776],[4.50536,51.87541],[4.50888,51.87299],[4.512,51.87037],[4.51469,51.86758],[4.517,51.86453],[4.51874,51.86146],[4.51999,51.8583],[4.52074,51.85508],[4.52098,51.85172]]]},"properties":{"identifier":"LVNL:PJ:EHAAPJA012","name":"RHOON","type":"PARAJUMP","lowerLimit":"GND","upperLimit":"FL120","authority":"LVNL","siteUrl":"https://geoportaal.lvnl.nl/datasets/f70d761a86654aea8a7f1764c83d183a_6","conditions":"Valschermspringgebied volgens de AIP-data van LVNL. Vliegveiligheidsinformatie voor bemand verkeer — geen UAS-geografische zone (niet aangewezen in de Regeling zonering onbemande luchtvaartuigen).","dataSource":"LVNL Airspaces_data (ArcGIS Online)","licenseId":"CC BY 4.0"}},{"type":"Feature","geometry":{"type":"Polygon","coordinates":[[[5.35586,51.98735],[5.35558,51.9841],[5.35478,51.98089],[5.35348,51.97773],[5.35169,51.97468],[5.34943,51.97174],[5.34671,51.96895],[5.34357,51.96635],[5.33989,51.96386],[5.33597,51.96168],[5.33173,51.95976],[5.32721,51.95809],[5.32244,51.95671],[5.3173,51.95559],[5.31219,51.95482],[5.30698,51.95436],[5.30172,51.95421],[5.29646,51.95438],[5.29126,51.95487],[5.28616,51.95567],[5.28121,51.95677],[5.27629,51.95822],[5.27178,51.95991],[5.26757,51.96186],[5.26368,51.96405],[5.26016,51.96647],[5.25703,51.96909],[5.25434,51.97188],[5.2521,51.97482],[5.25033,51.97789],[5.24905,51.98104],[5.24828,51.98426],[5.24803,51.98751],[5.2483,51.99087],[5.24909,51.99409],[5.25038,51.99724],[5.25217,52.0003],[5.25443,52.00324],[5.25714,52.00603],[5.26028,52.00864],[5.26382,52.01105],[5.26787,52.01331],[5.27212,52.01524],[5.27665,52.0169],[5.28142,52.01828],[5.28638,52.01937],[5.2915,52.02016],[5.29671,52.02063],[5.30198,52.02079],[5.30725,52.02063],[5.31246,52.02015],[5.31757,52.01936],[5.32254,52.01827],[5.32731,52.01688],[5.33183,52.01521],[5.33621,52.0132],[5.34012,52.01102],[5.34365,52.00861],[5.34679,52.00599],[5.3495,52.0032],[5.35182,52.00015],[5.35358,51.99709],[5.35485,51.99393],[5.35561,51.99071],[5.35586,51.98735]]]},"properties":{"identifier":"LVNL:PJ:EHAAPJA019","name":"WIJK BIJ DUURSTEDE","type":"PARAJUMP","lowerLimit":"GND","upperLimit":"FL60","authority":"LVNL","siteUrl":"https://geoportaal.lvnl.nl/datasets/f70d761a86654aea8a7f1764c83d183a_6","conditions":"Valschermspringgebied volgens de AIP-data van LVNL. Vliegveiligheidsinformatie voor bemand verkeer — geen UAS-geografische zone (niet aangewezen in de Regeling zonering onbemande luchtvaartuigen).","dataSource":"LVNL Airspaces_data (ArcGIS Online)","licenseId":"CC BY 4.0"}},{"type":"Feature","geometry":{"type":"Polygon","coordinates":[[[5.18493,52.13548],[5.18466,52.13224],[5.18387,52.12902],[5.18258,52.12587],[5.1808,52.1228],[5.17853,52.11987],[5.17582,52.11708],[5.17267,52.11446],[5.169,52.11197],[5.16507,52.10979],[5.16083,52.10786],[5.15629,52.10619],[5.15152,52.1048],[5.14655,52.1037],[5.14142,52.10291],[5.1362,52.10243],[5.13074,52.10227],[5.12527,52.10244],[5.12005,52.10294],[5.11494,52.10374],[5.10997,52.10484],[5.1052,52.10624],[5.10068,52.10792],[5.09644,52.10987],[5.09253,52.11205],[5.08899,52.11447],[5.08574,52.11718],[5.08304,52.11997],[5.0808,52.12292],[5.07903,52.12598],[5.07776,52.12914],[5.07699,52.13235],[5.07674,52.1356],[5.07702,52.13897],[5.07782,52.14218],[5.07912,52.14533],[5.08091,52.14839],[5.08319,52.15133],[5.08592,52.15411],[5.08907,52.15672],[5.09263,52.15913],[5.09655,52.16131],[5.10096,52.16331],[5.10551,52.16497],[5.11029,52.16635],[5.11528,52.16744],[5.12041,52.16822],[5.12565,52.16869],[5.13093,52.16884],[5.13621,52.16868],[5.14144,52.1682],[5.14657,52.1674],[5.15155,52.16631],[5.15633,52.16492],[5.16087,52.16325],[5.16526,52.16124],[5.16917,52.15905],[5.17272,52.15663],[5.17586,52.15402],[5.17857,52.15122],[5.18083,52.14828],[5.18261,52.14522],[5.18389,52.14206],[5.18467,52.13885],[5.18493,52.13548]]]},"properties":{"identifier":"LVNL:PJ:EHAAPJA020","name":"WESTBROEK","type":"PARAJUMP","lowerLimit":"GND","upperLimit":"FL60","authority":"LVNL","siteUrl":"https://geoportaal.lvnl.nl/datasets/f70d761a86654aea8a7f1764c83d183a_6","conditions":"Valschermspringgebied volgens de AIP-data van LVNL. Vliegveiligheidsinformatie voor bemand verkeer — geen UAS-geografische zone (niet aangewezen in de Regeling zonering onbemande luchtvaartuigen).","dataSource":"LVNL Airspaces_data (ArcGIS Online)","licenseId":"CC BY 4.0"}},{"type":"Feature","geometry":{"type":"Polygon","coordinates":[[[5.20111,52.19186],[5.20084,52.18862],[5.20005,52.1854],[5.19875,52.18225],[5.19697,52.17919],[5.1947,52.17625],[5.19198,52.17346],[5.18883,52.17085],[5.18515,52.16835],[5.18122,52.16617],[5.17697,52.16424],[5.17243,52.16257],[5.16764,52.16118],[5.16266,52.16009],[5.15735,52.15928],[5.15212,52.15881],[5.14683,52.15866],[5.14155,52.15882],[5.13614,52.15933],[5.13101,52.16013],[5.12604,52.16124],[5.12127,52.16264],[5.11674,52.16432],[5.1125,52.16626],[5.10859,52.16845],[5.10492,52.17095],[5.10179,52.17357],[5.09909,52.17637],[5.09684,52.17931],[5.09507,52.18238],[5.0938,52.18553],[5.09303,52.18875],[5.09278,52.192],[5.09306,52.19536],[5.09386,52.19858],[5.09517,52.20173],[5.09697,52.20479],[5.09924,52.20772],[5.10198,52.21051],[5.10514,52.21312],[5.1087,52.21552],[5.11263,52.2177],[5.11689,52.21964],[5.1216,52.22136],[5.12639,52.22274],[5.13138,52.22383],[5.13652,52.22461],[5.14176,52.22508],[5.14705,52.22523],[5.15234,52.22507],[5.15758,52.22458],[5.16272,52.22379],[5.16788,52.22265],[5.17265,52.22125],[5.17719,52.21956],[5.18143,52.21762],[5.18534,52.21543],[5.18889,52.21301],[5.19203,52.2104],[5.19475,52.20761],[5.19701,52.20466],[5.19879,52.2016],[5.20007,52.19845],[5.20085,52.19523],[5.20111,52.19186]]]},"properties":{"identifier":"LVNL:PJ:EHHVPJA001","name":"HILVERSUM","type":"PARAJUMP","lowerLimit":"GND","upperLimit":"FL60","authority":"LVNL","siteUrl":"https://geoportaal.lvnl.nl/datasets/f70d761a86654aea8a7f1764c83d183a_6","conditions":"Valschermspringgebied volgens de AIP-data van LVNL. Vliegveiligheidsinformatie voor bemand verkeer — geen UAS-geografische zone (niet aangewezen in de Regeling zonering onbemande luchtvaartuigen).","dataSource":"LVNL Airspaces_data (ArcGIS Online)","licenseId":"CC BY 4.0"}},{"type":"Feature","geometry":{"type":"Polygon","coordinates":[[[5.37085,52.20818],[5.37056,52.20493],[5.36977,52.20171],[5.36846,52.19856],[5.36666,52.1955],[5.36438,52.19257],[5.36165,52.18978],[5.35849,52.18717],[5.35493,52.18477],[5.351,52.18259],[5.34675,52.18065],[5.34221,52.17898],[5.33726,52.17754],[5.33227,52.17646],[5.32714,52.17567],[5.3219,52.1752],[5.31662,52.17505],[5.31134,52.17521],[5.30592,52.17571],[5.30079,52.17651],[5.29581,52.17761],[5.29104,52.17901],[5.2865,52.18068],[5.28226,52.18262],[5.27834,52.18481],[5.27479,52.18722],[5.27153,52.18993],[5.26882,52.19272],[5.26657,52.19566],[5.26479,52.19873],[5.26351,52.20188],[5.26274,52.2051],[5.26248,52.20835],[5.26276,52.21171],[5.26355,52.21493],[5.26485,52.21808],[5.26665,52.22114],[5.26892,52.22408],[5.27165,52.22687],[5.27481,52.22948],[5.27837,52.23189],[5.28244,52.23414],[5.2867,52.23607],[5.29125,52.23774],[5.29605,52.23912],[5.30104,52.24021],[5.30618,52.24099],[5.31142,52.24147],[5.31671,52.24162],[5.32201,52.24146],[5.32725,52.24098],[5.33257,52.24016],[5.33755,52.23905],[5.34233,52.23765],[5.34687,52.23598],[5.35112,52.23403],[5.35503,52.23184],[5.35859,52.22943],[5.36174,52.22682],[5.36446,52.22403],[5.3668,52.22098],[5.36856,52.21792],[5.36984,52.21476],[5.3706,52.21154],[5.37085,52.20818]]]},"properties":{"identifier":"LVNL:PJ:EHAAPJA002","name":"BAARN","type":"PARAJUMP","lowerLimit":"GND","upperLimit":"FL60","authority":"LVNL","siteUrl":"https://geoportaal.lvnl.nl/datasets/f70d761a86654aea8a7f1764c83d183a_6","conditions":"Valschermspringgebied volgens de AIP-data van LVNL. Vliegveiligheidsinformatie voor bemand verkeer — geen UAS-geografische zone (niet aangewezen in de Regeling zonering onbemande luchtvaartuigen).","dataSource":"LVNL Airspaces_data (ArcGIS Online)","licenseId":"CC BY 4.0"}},{"type":"Feature","geometry":{"type":"Polygon","coordinates":[[[6.1009,52.24469],[6.10063,52.24144],[6.09985,52.23822],[6.09856,52.23507],[6.09678,52.23201],[6.09451,52.22907],[6.0918,52.22627],[6.08853,52.22357],[6.08497,52.22116],[6.08104,52.21898],[6.07679,52.21704],[6.07224,52.21537],[6.06746,52.21398],[6.06248,52.21288],[6.05716,52.21206],[6.05192,52.21159],[6.04663,52.21143],[6.04134,52.2116],[6.03611,52.21207],[6.03079,52.21289],[6.02581,52.214],[6.02103,52.21539],[6.01649,52.21707],[6.01224,52.21901],[6.00832,52.22119],[6.00464,52.22369],[6.0015,52.22631],[5.99879,52.2291],[5.99653,52.23205],[5.99475,52.23511],[5.99347,52.23827],[5.9927,52.24148],[5.99244,52.24473],[5.99271,52.2481],[5.99351,52.25131],[5.99481,52.25446],[5.9966,52.25752],[5.99887,52.26046],[6.0016,52.26325],[6.00476,52.26586],[6.00833,52.26827],[6.0124,52.27053],[6.01667,52.27246],[6.02122,52.27412],[6.02602,52.2755],[6.03101,52.27659],[6.03616,52.27738],[6.04141,52.27785],[6.0467,52.27801],[6.052,52.27785],[6.05724,52.27737],[6.06239,52.27658],[6.06738,52.27549],[6.07234,52.27405],[6.07688,52.27237],[6.08113,52.27043],[6.08506,52.26824],[6.08861,52.26583],[6.09177,52.26321],[6.09449,52.26042],[6.09676,52.25748],[6.09855,52.25442],[6.09984,52.25127],[6.10063,52.24805],[6.1009,52.24469]]]},"properties":{"identifier":"LVNL:PJ:EHTEPJA001","name":"TEUGE","type":"PARAJUMP","lowerLimit":"GND","upperLimit":"FL130","authority":"LVNL","siteUrl":"https://geoportaal.lvnl.nl/datasets/f70d761a86654aea8a7f1764c83d183a_6","conditions":"Valschermspringgebied volgens de AIP-data van LVNL. Vliegveiligheidsinformatie voor bemand verkeer — geen UAS-geografische zone (niet aangewezen in de Regeling zonering onbemande luchtvaartuigen).","dataSource":"LVNL Airspaces_data (ArcGIS Online)","licenseId":"CC BY 4.0"}},{"type":"Feature","geometry":{"type":"Polygon","coordinates":[[[6.57094,52.73104],[6.57071,52.7278],[6.56996,52.72458],[6.56869,52.72142],[6.56693,52.71835],[6.56468,52.7154],[6.56196,52.71259],[6.55869,52.70987],[6.55512,52.70745],[6.55118,52.70525],[6.5469,52.7033],[6.54216,52.70155],[6.53733,52.70014],[6.5323,52.69903],[6.52711,52.69823],[6.52163,52.69772],[6.51629,52.69755],[6.51094,52.6977],[6.50564,52.69816],[6.50044,52.69894],[6.49522,52.70006],[6.49037,52.70145],[6.48562,52.70317],[6.48132,52.70511],[6.47735,52.7073],[6.47375,52.70971],[6.47045,52.71241],[6.46771,52.7152],[6.46543,52.71815],[6.46363,52.72121],[6.46233,52.72436],[6.46154,52.72758],[6.46128,52.73083],[6.46156,52.73419],[6.46236,52.73741],[6.46367,52.74056],[6.46548,52.74362],[6.46778,52.74656],[6.47054,52.74935],[6.47373,52.75196],[6.47733,52.75437],[6.4813,52.75655],[6.4856,52.75849],[6.49019,52.76017],[6.49504,52.76156],[6.50008,52.76267],[6.50528,52.76346],[6.51058,52.76395],[6.51593,52.76412],[6.52129,52.76397],[6.52659,52.7635],[6.5318,52.76273],[6.53685,52.76165],[6.54171,52.76027],[6.54632,52.75861],[6.55065,52.75669],[6.55464,52.75452],[6.55826,52.75213],[6.56149,52.74953],[6.56427,52.74675],[6.5666,52.74382],[6.56845,52.74077],[6.56979,52.73762],[6.57063,52.73441],[6.57094,52.73104]]]},"properties":{"identifier":"LVNL:PJ:EHHOPJA001","name":"HOOGEVEEN","type":"PARAJUMP","lowerLimit":"GND","upperLimit":"FL150","authority":"LVNL","siteUrl":"https://geoportaal.lvnl.nl/datasets/f70d761a86654aea8a7f1764c83d183a_6","conditions":"Valschermspringgebied volgens de AIP-data van LVNL. Vliegveiligheidsinformatie voor bemand verkeer — geen UAS-geografische zone (niet aangewezen in de Regeling zonering onbemande luchtvaartuigen).","dataSource":"LVNL Airspaces_data (ArcGIS Online)","licenseId":"CC BY 4.0"}},{"type":"Feature","geometry":{"type":"Polygon","coordinates":[[[6.48733,52.73201],[6.48703,52.72876],[6.48621,52.72555],[6.48488,52.7224],[6.48305,52.71934],[6.48074,52.71641],[6.47797,52.71363],[6.47476,52.71102],[6.47102,52.70854],[6.46703,52.70637],[6.46271,52.70445],[6.4581,52.70279],[6.45325,52.70141],[6.4482,52.70033],[6.44282,52.69953],[6.43752,52.69908],[6.43217,52.69894],[6.42683,52.69912],[6.42153,52.69961],[6.41635,52.70042],[6.41132,52.70152],[6.40632,52.70298],[6.40174,52.70467],[6.39746,52.70662],[6.39352,52.70882],[6.38994,52.71124],[6.38677,52.71386],[6.38404,52.71666],[6.38177,52.71961],[6.37998,52.72267],[6.37869,52.72583],[6.37792,52.72905],[6.37767,52.73229],[6.37796,52.73566],[6.37877,52.73887],[6.38009,52.74202],[6.38192,52.74508],[6.38422,52.74802],[6.38699,52.7508],[6.3902,52.75341],[6.39381,52.75581],[6.39778,52.75799],[6.40225,52.75999],[6.40686,52.76165],[6.41172,52.76303],[6.41677,52.76411],[6.42198,52.76489],[6.42728,52.76536],[6.43264,52.76551],[6.43799,52.76534],[6.44329,52.76486],[6.44849,52.76406],[6.45354,52.76296],[6.45838,52.76157],[6.46298,52.7599],[6.46728,52.75796],[6.47139,52.75569],[6.47498,52.75328],[6.47816,52.75066],[6.481,52.74776],[6.48326,52.74482],[6.48504,52.74175],[6.48632,52.73859],[6.48709,52.73537],[6.48733,52.73201]]]},"properties":{"identifier":"LVNL:PJ:EHAAPJA004","name":"ECHTEN","type":"PARAJUMP","lowerLimit":"GND","upperLimit":"FL150","authority":"LVNL","siteUrl":"https://geoportaal.lvnl.nl/datasets/f70d761a86654aea8a7f1764c83d183a_6","conditions":"Valschermspringgebied volgens de AIP-data van LVNL. Vliegveiligheidsinformatie voor bemand verkeer — geen UAS-geografische zone (niet aangewezen in de Regeling zonering onbemande luchtvaartuigen).","dataSource":"LVNL Airspaces_data (ArcGIS Online)","licenseId":"CC BY 4.0"}},{"type":"Feature","geometry":{"type":"Polygon","coordinates":[[[6.52686,52.80005],[6.52656,52.7968],[6.52574,52.79359],[6.5244,52.79044],[6.52256,52.78738],[6.52025,52.78445],[6.51747,52.78167],[6.51425,52.77906],[6.5105,52.77658],[6.5065,52.77441],[6.50218,52.77249],[6.49756,52.77084],[6.4927,52.76946],[6.48746,52.76835],[6.48225,52.76758],[6.47694,52.76713],[6.47158,52.76699],[6.46623,52.76717],[6.46074,52.76769],[6.45556,52.76851],[6.45052,52.76963],[6.44569,52.77105],[6.44111,52.77274],[6.43683,52.77469],[6.43288,52.77689],[6.4293,52.77931],[6.42613,52.78194],[6.42339,52.78473],[6.42112,52.78768],[6.41933,52.79074],[6.41805,52.7939],[6.41728,52.79712],[6.41703,52.80037],[6.41732,52.80373],[6.41814,52.80695],[6.41946,52.8101],[6.42129,52.81315],[6.4237,52.81619],[6.42649,52.81897],[6.42972,52.82157],[6.43335,52.82396],[6.43749,52.8262],[6.44184,52.82812],[6.44646,52.82977],[6.45134,52.83113],[6.45641,52.8322],[6.46162,52.83297],[6.46694,52.83342],[6.47231,52.83356],[6.47767,52.83338],[6.48297,52.83288],[6.48817,52.83208],[6.49322,52.83096],[6.49806,52.82956],[6.50265,52.82788],[6.50695,52.82593],[6.51105,52.82365],[6.51463,52.82123],[6.5178,52.8186],[6.52053,52.8158],[6.5228,52.81286],[6.52458,52.80979],[6.52586,52.80663],[6.52662,52.80341],[6.52686,52.80005]]]},"properties":{"identifier":"LVNL:PJ:EHAAPJA016","name":"SPIER","type":"PARAJUMP","lowerLimit":"GND","upperLimit":"FL150","authority":"LVNL","siteUrl":"https://geoportaal.lvnl.nl/datasets/f70d761a86654aea8a7f1764c83d183a_6","conditions":"Valschermspringgebied volgens de AIP-data van LVNL. Vliegveiligheidsinformatie voor bemand verkeer — geen UAS-geografische zone (niet aangewezen in de Regeling zonering onbemande luchtvaartuigen).","dataSource":"LVNL Airspaces_data (ArcGIS Online)","licenseId":"CC BY 4.0"}},{"type":"Feature","geometry":{"type":"Polygon","coordinates":[[[4.88893,53.11534],[4.88867,53.11209],[4.88789,53.10888],[4.88659,53.10572],[4.88479,53.10266],[4.8825,53.09971],[4.87974,53.09691],[4.87654,53.09429],[4.8728,53.09179],[4.86865,53.08953],[4.86431,53.08759],[4.85968,53.08592],[4.85479,53.08453],[4.84971,53.08344],[4.84447,53.08264],[4.83913,53.08216],[4.83355,53.08199],[4.82815,53.08216],[4.82281,53.08264],[4.81739,53.08346],[4.81231,53.08456],[4.80743,53.08596],[4.8028,53.08764],[4.79847,53.08958],[4.79447,53.09176],[4.79084,53.09417],[4.78752,53.09688],[4.78475,53.09968],[4.78246,53.10262],[4.78065,53.10568],[4.77934,53.10884],[4.77855,53.11206],[4.77829,53.1153],[4.77858,53.11867],[4.77939,53.12188],[4.78072,53.12503],[4.78255,53.12809],[4.78487,53.13103],[4.78766,53.13382],[4.79088,53.13643],[4.79452,53.13883],[4.79853,53.14102],[4.80287,53.14295],[4.80751,53.14463],[4.8124,53.14602],[4.81767,53.14715],[4.82292,53.14793],[4.82827,53.14841],[4.83367,53.14856],[4.83908,53.1484],[4.84443,53.14792],[4.84967,53.14713],[4.85476,53.14603],[4.85966,53.14464],[4.8643,53.14297],[4.86864,53.14104],[4.87266,53.13886],[4.8763,53.13646],[4.87953,53.13385],[4.88232,53.13106],[4.88465,53.12813],[4.88649,53.12507],[4.88782,53.12192],[4.88864,53.11871],[4.88893,53.11534]]]},"properties":{"identifier":"LVNL:PJ:EHTXPJA001","name":"TEXEL","type":"PARAJUMP","lowerLimit":"GND","upperLimit":"FL150","authority":"LVNL","siteUrl":"https://geoportaal.lvnl.nl/datasets/f70d761a86654aea8a7f1764c83d183a_6","conditions":"Valschermspringgebied volgens de AIP-data van LVNL. Vliegveiligheidsinformatie voor bemand verkeer — geen UAS-geografische zone (niet aangewezen in de Regeling zonering onbemande luchtvaartuigen).","dataSource":"LVNL Airspaces_data (ArcGIS Online)","licenseId":"CC BY 4.0"}},{"type":"Feature","geometry":{"type":"Polygon","coordinates":[[[6.58617,53.12743],[6.58593,53.12418],[6.58517,53.12096],[6.5839,53.1178],[6.58211,53.11473],[6.57984,53.11178],[6.5771,53.10898],[6.57392,53.10635],[6.57019,53.10384],[6.56621,53.10164],[6.56174,53.09962],[6.55711,53.09794],[6.55224,53.09653],[6.54698,53.09539],[6.54174,53.09459],[6.5364,53.09411],[6.531,53.09394],[6.52561,53.09409],[6.52007,53.09458],[6.51483,53.09536],[6.50974,53.09645],[6.50468,53.09789],[6.50005,53.09957],[6.49571,53.10151],[6.49171,53.10369],[6.48808,53.1061],[6.48475,53.10881],[6.48198,53.1116],[6.47968,53.11454],[6.47787,53.1176],[6.47656,53.12076],[6.47577,53.12398],[6.4755,53.12722],[6.47578,53.13059],[6.47659,53.1338],[6.47791,53.13696],[6.47974,53.14002],[6.48206,53.14295],[6.48485,53.14574],[6.48807,53.14835],[6.4917,53.15076],[6.49571,53.15294],[6.50005,53.15488],[6.50469,53.15656],[6.50958,53.15795],[6.51467,53.15905],[6.51991,53.15985],[6.52526,53.16034],[6.53066,53.1605],[6.53607,53.16036],[6.54142,53.15989],[6.54668,53.15911],[6.55178,53.15803],[6.55668,53.15665],[6.56133,53.155],[6.5657,53.15307],[6.56972,53.1509],[6.57338,53.14851],[6.57663,53.14591],[6.57944,53.14313],[6.58179,53.1402],[6.58365,53.13715],[6.58501,53.134],[6.58585,53.13079],[6.58617,53.12743]]]},"properties":{"identifier":"LVNL:PJ:EHAAPJA021","name":"WINDE","type":"PARAJUMP","lowerLimit":"GND","upperLimit":"FL130","authority":"LVNL","siteUrl":"https://geoportaal.lvnl.nl/datasets/f70d761a86654aea8a7f1764c83d183a_6","conditions":"Valschermspringgebied volgens de AIP-data van LVNL. Vliegveiligheidsinformatie voor bemand verkeer — geen UAS-geografische zone (niet aangewezen in de Regeling zonering onbemande luchtvaartuigen).","dataSource":"LVNL Airspaces_data (ArcGIS Online)","licenseId":"CC BY 4.0"}},{"type":"Feature","geometry":{"type":"Polygon","coordinates":[[[7.08988,53.20997],[7.08961,53.20672],[7.08882,53.20351],[7.0875,53.20035],[7.08568,53.19729],[7.08336,53.19435],[7.08059,53.19156],[7.07725,53.18885],[7.07361,53.18645],[7.06959,53.18427],[7.06524,53.18233],[7.0606,53.18066],[7.05571,53.17927],[7.05043,53.17813],[7.04518,53.17735],[7.03982,53.17687],[7.03442,53.17672],[7.02882,53.17689],[7.02347,53.17738],[7.01822,53.17818],[7.01313,53.17928],[7.00824,53.18067],[7.0036,53.18235],[6.99926,53.18429],[6.99525,53.18647],[6.99149,53.18897],[6.98827,53.19159],[6.9855,53.19438],[6.98319,53.19732],[6.98137,53.20038],[6.98006,53.20354],[6.97927,53.20676],[6.979,53.21],[6.97929,53.21337],[6.9801,53.21658],[6.98142,53.21973],[6.98326,53.22279],[6.98558,53.22573],[6.98837,53.22852],[6.9916,53.23113],[6.99524,53.23354],[6.9994,53.2358],[7.00377,53.23773],[7.00842,53.23939],[7.01333,53.24078],[7.01843,53.24187],[7.02369,53.24265],[7.02906,53.24312],[7.03447,53.24328],[7.03989,53.24312],[7.04525,53.24264],[7.05051,53.24186],[7.05561,53.24076],[7.06051,53.23938],[7.06517,53.23771],[7.06953,53.23578],[7.07369,53.23352],[7.07732,53.23111],[7.08055,53.22849],[7.08333,53.2257],[7.08565,53.22276],[7.08748,53.2197],[7.0888,53.21655],[7.08961,53.21333],[7.08988,53.20997]]]},"properties":{"identifier":"LVNL:PJ:EHOWPJA001","name":"OOSTWOLD","type":"PARAJUMP","lowerLimit":"GND","upperLimit":"FL150","authority":"LVNL","siteUrl":"https://geoportaal.lvnl.nl/datasets/f70d761a86654aea8a7f1764c83d183a_6","conditions":"Valschermspringgebied volgens de AIP-data van LVNL. Vliegveiligheidsinformatie voor bemand verkeer — geen UAS-geografische zone (niet aangewezen in de Regeling zonering onbemande luchtvaartuigen).","dataSource":"LVNL Airspaces_data (ArcGIS Online)","licenseId":"CC BY 4.0"}},{"type":"Feature","geometry":{"type":"Polygon","coordinates":[[[5.73298,53.4518],[5.73273,53.44856],[5.73195,53.44534],[5.73066,53.44218],[5.72885,53.43911],[5.72655,53.43616],[5.72378,53.43337],[5.72044,53.43065],[5.7168,53.42823],[5.71278,53.42604],[5.70843,53.42409],[5.70377,53.4224],[5.69869,53.42095],[5.69357,53.41985],[5.68829,53.41905],[5.68272,53.41855],[5.67728,53.41839],[5.67184,53.41854],[5.66627,53.41904],[5.66099,53.41983],[5.65586,53.42093],[5.65094,53.42232],[5.64627,53.42399],[5.6419,53.42592],[5.63786,53.4281],[5.63407,53.4306],[5.63084,53.43321],[5.62804,53.436],[5.62571,53.43894],[5.62388,53.442],[5.62255,53.44516],[5.62174,53.44837],[5.62147,53.45162],[5.62174,53.45498],[5.62255,53.4582],[5.62388,53.46135],[5.62571,53.46441],[5.62804,53.46735],[5.63084,53.47014],[5.63408,53.47276],[5.63774,53.47517],[5.64177,53.47736],[5.64614,53.4793],[5.65081,53.48098],[5.65573,53.48238],[5.66085,53.48348],[5.66614,53.48428],[5.67153,53.48477],[5.67697,53.48495],[5.68242,53.4848],[5.68781,53.48434],[5.69311,53.48357],[5.69825,53.48249],[5.70319,53.48112],[5.70805,53.4794],[5.71244,53.47747],[5.71649,53.4753],[5.72017,53.4729],[5.72343,53.4703],[5.72626,53.46752],[5.72861,53.46458],[5.73048,53.46153],[5.73183,53.45838],[5.73267,53.45517],[5.73298,53.4518]]]},"properties":{"identifier":"LVNL:PJ:EHALPJA001","name":"AMELAND","type":"PARAJUMP","lowerLimit":"GND","upperLimit":"FL150","authority":"LVNL","siteUrl":"https://geoportaal.lvnl.nl/datasets/f70d761a86654aea8a7f1764c83d183a_6","conditions":"Valschermspringgebied volgens de AIP-data van LVNL. Vliegveiligheidsinformatie voor bemand verkeer — geen UAS-geografische zone (niet aangewezen in de Regeling zonering onbemande luchtvaartuigen).","dataSource":"LVNL Airspaces_data (ArcGIS Online)","licenseId":"CC BY 4.0"}},{"type":"Feature","geometry":{"type":"Polygon","coordinates":[[[5.64922,50.82636],[5.65183,50.82753],[5.65623,50.82434],[5.6555,50.8238],[5.65645,50.82317],[5.65432,50.82127],[5.6552,50.82096],[5.65401,50.82009],[5.659,50.81849],[5.66323,50.81804],[5.66363,50.81777],[5.66386,50.81726],[5.66524,50.81703],[5.66553,50.81723],[5.66669,50.81726],[5.6661,50.81695],[5.66768,50.81655],[5.66796,50.81694],[5.66807,50.81774],[5.66944,50.81783],[5.66966,50.81725],[5.67273,50.81695],[5.67315,50.81601],[5.67828,50.81647],[5.67845,50.81506],[5.67949,50.81434],[5.67994,50.81256],[5.68059,50.81203],[5.68175,50.81221],[5.68264,50.81295],[5.68435,50.81342],[5.68497,50.81281],[5.68591,50.81249],[5.68599,50.81223],[5.68691,50.81232],[5.68681,50.81212],[5.6886,50.81187],[5.68877,50.81163],[5.69151,50.81184],[5.69168,50.81213],[5.69271,50.81137],[5.69265,50.81114],[5.69318,50.81058],[5.69418,50.81024],[5.6972,50.80808],[5.6985,50.80663],[5.69892,50.80532],[5.69867,50.80412],[5.69833,50.80348],[5.69736,50.80235],[5.69215,50.79832],[5.69138,50.79708],[5.69136,50.79645],[5.69193,50.79517],[5.69606,50.79009],[5.63757,50.81429],[5.64922,50.82636]]]},"properties":{"identifier":"LVNL:CTR:EHBK3","name":"MAASTRICHT CTR","type":"CTR_NL","lowerLimit":"GND","upperLimit":"3000 FT MSL","authority":"LVNL / IenW","siteUrl":"https://geoportaal.lvnl.nl/datasets/f70d761a86654aea8a7f1764c83d183a_15","conditions":"Deel van de Maastricht CTR volgens LVNL (AIP). Vliegverbod open categorie: Regeling onbemande luchtvaartuigen art. 7 lid 1 (Maastricht CTR, bedoeld in art. 5 Regeling luchtverkeersdienstverlening). Niet opgenomen in de IenW ED-269-zone (stand 2026-09).","dataSource":"LVNL Airspaces_data (ArcGIS Online)","licenseId":"CC BY 4.0"}},{"type":"Feature","geometry":{"type":"Polygon","coordinates":[[[5.87727,51.0335],[5.92708,51.01303],[5.96043,51.01275],[5.96043,50.9834],[5.95739,50.98501],[5.95518,50.98842],[5.95013,50.98721],[5.93389,50.98536],[5.92765,50.98229],[5.92299,50.97955],[5.91855,50.97775],[5.91717,50.97809],[5.91559,50.97783],[5.91173,50.97641],[5.9056,50.97472],[5.90469,50.97455],[5.90243,50.97458],[5.89709,50.97487],[5.89681,50.97649],[5.89618,50.9771],[5.89567,50.97731],[5.89378,50.97956],[5.89259,50.98031],[5.8938,50.9811],[5.89567,50.98135],[5.8995,50.98435],[5.90374,50.98721],[5.90435,50.99614],[5.90552,51.00217],[5.89548,51.00453],[5.89564,51.01102],[5.89271,51.0123],[5.88835,51.01347],[5.88545,51.01382],[5.88426,51.01339],[5.87887,51.01784],[5.87853,51.01866],[5.87898,51.01988],[5.87891,51.02062],[5.87665,51.02388],[5.87666,51.02462],[5.87538,51.02677],[5.87459,51.02922],[5.87688,51.03157],[5.87727,51.0335]]]},"properties":{"identifier":"LVNL:CTR:EHBK2","name":"MAASTRICHT CTR","type":"CTR_NL","lowerLimit":"GND","upperLimit":"3000 FT MSL","authority":"LVNL / IenW","siteUrl":"https://geoportaal.lvnl.nl/datasets/f70d761a86654aea8a7f1764c83d183a_15","conditions":"Deel van de Maastricht CTR volgens LVNL (AIP). Vliegverbod open categorie: Regeling onbemande luchtvaartuigen art. 7 lid 1 (Maastricht CTR, bedoeld in art. 5 Regeling luchtverkeersdienstverlening). Niet opgenomen in de IenW ED-269-zone (stand 2026-09).","dataSource":"LVNL Airspaces_data (ArcGIS Online)","licenseId":"CC BY 4.0"}},{"type":"Feature","geometry":{"type":"Polygon","coordinates":[[[5.76054,50.80812],[5.7286,50.77693],[5.69606,50.79009],[5.69481,50.7924],[5.69193,50.79517],[5.69136,50.79645],[5.69138,50.79708],[5.69215,50.79832],[5.69736,50.80235],[5.69833,50.80348],[5.69867,50.80412],[5.69892,50.80532],[5.6985,50.80663],[5.6972,50.80808],[5.69418,50.81024],[5.69318,50.81058],[5.69265,50.81114],[5.69271,50.81137],[5.69168,50.81213],[5.69151,50.81184],[5.68877,50.81163],[5.6886,50.81187],[5.68681,50.81212],[5.68691,50.81232],[5.68599,50.81223],[5.68591,50.81249],[5.68497,50.81281],[5.68435,50.81342],[5.68264,50.81295],[5.68175,50.81221],[5.68059,50.81203],[5.67994,50.81256],[5.67949,50.81434],[5.67845,50.81506],[5.67828,50.81647],[5.67315,50.81601],[5.67273,50.81695],[5.66966,50.81725],[5.66944,50.81783],[5.66807,50.81774],[5.66796,50.81694],[5.66768,50.81655],[5.6661,50.81695],[5.66669,50.81726],[5.66553,50.81723],[5.66524,50.81703],[5.66386,50.81726],[5.66363,50.81777],[5.66323,50.81804],[5.659,50.81849],[5.65401,50.82009],[5.6552,50.82096],[5.65432,50.82127],[5.65645,50.82317],[5.6555,50.8238],[5.65623,50.82434],[5.65183,50.82753],[5.64922,50.82636],[5.64884,50.82672],[5.64887,50.82705],[5.65021,50.82883],[5.6503,50.82986],[5.65114,50.83115],[5.65136,50.83201],[5.651,50.83277],[5.65002,50.83391],[5.64829,50.8332],[5.64801,50.83491],[5.64721,50.83584],[5.64747,50.83593],[5.64375,50.83793],[5.64535,50.8394],[5.64187,50.8408],[5.6428,50.84146],[5.64119,50.84293],[5.64228,50.84311],[5.64057,50.84471],[5.6392,50.84639],[5.6389,50.84772],[5.64071,50.84774],[5.64027,50.84949],[5.64266,50.8501],[5.64191,50.85114],[5.64176,50.85258],[5.64033,50.85374],[5.64351,50.85679],[5.64165,50.85757],[5.64382,50.85888],[5.64186,50.85918],[5.64196,50.85955],[5.64357,50.86048],[5.64224,50.86139],[5.64403,50.86295],[5.64165,50.86415],[5.64734,50.86695],[5.6495,50.86835],[5.64908,50.86867],[5.64781,50.86909],[5.64543,50.87076],[5.64416,50.87136],[5.64679,50.87316],[5.64789,50.87373],[5.64858,50.87331],[5.65135,50.87507],[5.65334,50.87395],[5.65669,50.87637],[5.65742,50.87629],[5.65793,50.87659],[5.65869,50.87619],[5.66103,50.87742],[5.66066,50.87773],[5.66151,50.87808],[5.6617,50.87866],[5.66397,50.87903],[5.66672,50.88006],[5.66883,50.88108],[5.66963,50.88182],[5.67196,50.88111],[5.67638,50.88088],[5.67671,50.8804],[5.67954,50.88054],[5.67931,50.88213],[5.67938,50.88345],[5.68028,50.88542],[5.68161,50.88745],[5.68339,50.88893],[5.68544,50.89027],[5.6908,50.89289],[5.69238,50.89391],[5.69497,50.89683],[5.69587,50.89868],[5.69647,50.90074],[5.69666,50.90216],[5.69623,50.90669],[5.69639,50.90748],[5.69684,50.90831],[5.69767,50.90925],[5.69941,50.91033],[5.70424,50.91158],[5.70753,50.91169],[5.7103,50.91094],[5.71351,50.90906],[5.71536,50.90848],[5.71797,50.90804],[5.72021,50.90836],[5.72158,50.90888],[5.7229,50.90963],[5.72445,50.91101],[5.72565,50.91249],[5.72659,50.91437],[5.72673,50.91607],[5.72611,50.91883],[5.72613,50.92034],[5.72703,50.92306],[5.72836,50.92527],[5.73307,50.93009],[5.73985,50.93444],[5.74098,50.93541],[5.74573,50.94271],[5.74589,50.94563],[5.74697,50.94706],[5.74804,50.9477],[5.75141,50.94891],[5.75678,50.95009],[5.75777,50.95072],[5.75845,50.95152],[5.75875,50.95231],[5.7587,50.95371],[5.7579,50.95517],[5.75689,50.95632],[5.75483,50.9581],[5.75282,50.9593],[5.75085,50.9602],[5.74871,50.96084],[5.74609,50.96128],[5.74399,50.96105],[5.74167,50.96003],[5.73909,50.95786],[5.73646,50.95636],[5.73252,50.95551],[5.72938,50.95528],[5.72628,50.95562],[5.72421,50.95626],[5.72293,50.95691],[5.72194,50.95768],[5.72074,50.95943],[5.72048,50.96014],[5.72061,50.96173],[5.7214,50.96317],[5.72634,50.96769],[5.72904,50.96989],[5.73231,50.97162],[5.73404,50.97304],[5.73506,50.97447],[5.73565,50.97648],[5.73662,50.97799],[5.7387,50.97922],[5.74523,50.98055],[5.74716,50.98119],[5.74875,50.9821],[5.75023,50.98327],[5.75537,50.98996],[5.75656,50.99116],[5.75831,50.99241],[5.76333,50.99532],[5.76557,50.99706],[5.76645,50.99812],[5.76685,50.9989],[5.76697,50.99883],[5.82558,51.05472],[5.87728,51.03352],[5.87688,51.03157],[5.87459,51.02922],[5.87538,51.02677],[5.87666,51.02462],[5.87665,51.02388],[5.87891,51.02062],[5.87898,51.01988],[5.87853,51.01866],[5.87887,51.01784],[5.88426,51.01339],[5.88545,51.01382],[5.88835,51.01347],[5.89271,51.0123],[5.89564,51.01102],[5.89548,51.00453],[5.90552,51.00217],[5.90435,50.99614],[5.90374,50.98721],[5.8995,50.98435],[5.89567,50.98135],[5.8938,50.9811],[5.89259,50.98031],[5.89378,50.97956],[5.89567,50.97731],[5.89618,50.9771],[5.89681,50.97649],[5.89709,50.97487],[5.90243,50.97458],[5.90469,50.97455],[5.9056,50.97472],[5.91173,50.97641],[5.91559,50.97783],[5.91717,50.97809],[5.91855,50.97775],[5.92299,50.97955],[5.92765,50.98229],[5.93389,50.98536],[5.95013,50.98721],[5.95518,50.98842],[5.95739,50.98501],[5.96088,50.98316],[5.96079,50.98306],[5.96501,50.98094],[5.96633,50.97977],[5.96758,50.9794],[5.96851,50.97943],[5.97394,50.98056],[5.97958,50.98292],[5.98136,50.98322],[5.98224,50.98307],[5.98422,50.98212],[6.01736,50.9834],[6.01723,50.98368],[6.0187,50.98382],[6.02293,50.98327],[6.02651,50.98327],[6.02689,50.98164],[6.0268,50.98131],[6.02264,50.97402],[6.02116,50.97101],[6.01946,50.96895],[6.01731,50.96528],[6.01521,50.96237],[6.013,50.9604],[6.01069,50.96003],[6.00908,50.95949],[6.00664,50.95806],[6.0052,50.95678],[6.0118,50.9543],[6.01685,50.95264],[6.01508,50.94788],[6.0182,50.9347],[6.03859,50.93086],[6.03979,50.93085],[6.04441,50.92934],[6.045,50.92896],[6.04558,50.92808],[6.04719,50.92843],[6.04915,50.92939],[6.05087,50.92991],[6.05616,50.92716],[6.05402,50.92225],[6.06181,50.92124],[6.06297,50.92204],[6.06577,50.92101],[6.06818,50.92066],[6.07178,50.92313],[6.07746,50.92259],[6.08213,50.92154],[6.08384,50.92093],[6.08683,50.91937],[6.08944,50.91853],[6.09017,50.91957],[6.09373,50.92123],[6.09416,50.92071],[6.09417,50.92031],[6.09347,50.91908],[6.09209,50.91744],[6.08933,50.91623],[6.08684,50.9141],[6.08677,50.913],[6.08644,50.91228],[6.08503,50.91153],[5.97786,50.91257],[5.91987,50.85628],[5.91452,50.85144],[5.9065,50.84511],[5.89857,50.83969],[5.8892,50.83414],[5.88014,50.8295],[5.87446,50.8269],[5.86764,50.82406],[5.86061,50.82143],[5.85339,50.81901],[5.84599,50.81682],[5.83953,50.81512],[5.83186,50.81334],[5.82406,50.8118],[5.81615,50.8105],[5.80816,50.80944],[5.80125,50.80872],[5.79313,50.80811],[5.78498,50.80774],[5.77681,50.80762],[5.76865,50.80775],[5.76054,50.80812]],[[5.7605,50.80812],[5.7605,50.80812],[5.7605,50.80812],[5.7605,50.80812]]]},"properties":{"identifier":"LVNL:CTR:EHBK1","name":"MAASTRICHT CTR","type":"CTR_NL","lowerLimit":"GND","upperLimit":"3000 FT MSL","authority":"LVNL / IenW","siteUrl":"https://geoportaal.lvnl.nl/datasets/f70d761a86654aea8a7f1764c83d183a_15","conditions":"Deel van de Maastricht CTR volgens LVNL (AIP). Vliegverbod open categorie: Regeling onbemande luchtvaartuigen art. 7 lid 1 (Maastricht CTR, bedoeld in art. 5 Regeling luchtverkeersdienstverlening). Niet opgenomen in de IenW ED-269-zone (stand 2026-09).","dataSource":"LVNL Airspaces_data (ArcGIS Online)","licenseId":"CC BY 4.0"}},{"type":"Feature","geometry":{"type":"Polygon","coordinates":[[[4.39865,53.49925],[4.48488,53.49928],[4.58548,53.49925],[4.50194,53.41594],[4.41873,53.33258],[4.39865,53.33258],[4.39865,53.49925]]]},"properties":{"identifier":"LVNL:HTZ:EHHPZPEND","name":"PENTACON D (HPZ)","type":"HTZ","lowerLimit":"0 FT MSL","upperLimit":"2000 FT MSL","authority":"LVNL","siteUrl":"https://geoportaal.lvnl.nl/datasets/f70d761a86654aea8a7f1764c83d183a_9","conditions":"HPZ — helikopterzone boven zee volgens de AIP-data van LVNL. Vliegveiligheidsinformatie voor bemand verkeer: helikopters vliegen tussen platforms en windparken zonder vaste routes. Geen UAS-geografische zone — niet opgenomen in de ED-269-zonelijst van IenW (gemeten 2026-09-06: 0 treffers op 743 zones).","dataSource":"LVNL Airspaces_data (ArcGIS Online)","licenseId":"CC BY 4.0"}},{"type":"Feature","geometry":{"type":"Polygon","coordinates":[[[3.93051,52.36606],[3.93743,52.37177],[3.94499,52.37704],[3.95325,52.3819],[3.96214,52.38632],[3.97162,52.39027],[3.9816,52.39371],[3.99202,52.39662],[4.00281,52.39899],[4.01388,52.40079],[4.02516,52.40201],[4.03657,52.40265],[4.04802,52.40269],[4.05944,52.40214],[4.07074,52.40101],[4.08185,52.39929],[4.09268,52.39701],[4.10316,52.39417],[4.11321,52.39081],[4.12277,52.38694],[4.13175,52.38258],[4.14011,52.37778],[4.14778,52.37257],[4.1541,52.3675],[4.16031,52.3616],[4.16285,52.35881],[4.16567,52.3554],[4.16783,52.35249],[4.17017,52.34894],[4.17192,52.34594],[4.17377,52.34228],[4.17509,52.33919],[4.17643,52.33545],[4.17748,52.33168],[4.17815,52.32851],[4.17868,52.32469],[4.1789,52.32151],[4.17892,52.31831],[4.17869,52.31449],[4.17828,52.31131],[4.17751,52.30751],[4.17647,52.30373],[4.17489,52.29937],[4.17294,52.29506],[4.17061,52.29083],[4.16791,52.28668],[4.16532,52.2832],[4.16196,52.27923],[4.15826,52.27538],[4.15423,52.27166],[4.15051,52.26858],[4.1459,52.26512],[4.14099,52.26182],[4.13579,52.25869],[4.13033,52.25573],[4.12545,52.25334],[4.11953,52.25072],[4.1134,52.24831],[4.10706,52.2461],[4.10148,52.24438],[4.09481,52.24257],[4.088,52.24098],[4.08106,52.23962],[4.074,52.23849],[4.06789,52.2377],[4.06069,52.23701],[4.05343,52.23655],[4.04615,52.23633],[4.0399,52.23633],[4.03366,52.23651],[4.0264,52.23694],[4.01919,52.23761],[4.01206,52.23852],[3.93051,52.36606]]]},"properties":{"identifier":"LVNL:HTZ:EHQS","name":"HOLLANDSE KUST ZUID ALPHA","type":"HTZ","lowerLimit":"0 FT MSL","upperLimit":"2000 FT MSL","authority":"LVNL","siteUrl":"https://geoportaal.lvnl.nl/datasets/f70d761a86654aea8a7f1764c83d183a_9","conditions":"HTZ — helikopterzone boven zee volgens de AIP-data van LVNL. Vliegveiligheidsinformatie voor bemand verkeer: helikopters vliegen tussen platforms en windparken zonder vaste routes. Geen UAS-geografische zone — niet opgenomen in de ED-269-zonelijst van IenW (gemeten 2026-09-06: 0 treffers op 743 zones).","dataSource":"LVNL Airspaces_data (ArcGIS Online)","licenseId":"CC BY 4.0"}},{"type":"Feature","geometry":{"type":"Polygon","coordinates":[[[4.0637,52.15741],[4.0172,52.23055],[4.0204,52.23395],[4.02374,52.23718],[4.02733,52.24033],[4.03115,52.24336],[4.03519,52.24629],[4.03944,52.24909],[4.0439,52.25178],[4.04856,52.25433],[4.05341,52.25675],[4.05843,52.25903],[4.06895,52.26315],[4.08005,52.26666],[4.09163,52.26953],[4.09857,52.27089],[4.10561,52.27203],[4.11377,52.27303],[4.12099,52.27366],[4.12928,52.27409],[4.13656,52.2742],[4.14384,52.27407],[4.1511,52.27371],[4.15831,52.2731],[4.16547,52.27226],[4.17254,52.27118],[4.1795,52.26987],[4.1873,52.26809],[4.19398,52.26629],[4.20048,52.26428],[4.2068,52.26206],[4.21292,52.25963],[4.21963,52.25661],[4.22525,52.25376],[4.23062,52.25073],[4.23641,52.24706],[4.24117,52.24367],[4.24563,52.24013],[4.24977,52.23645],[4.25359,52.23264],[4.25706,52.22871],[4.26061,52.22408],[4.26332,52.21992],[4.26567,52.21569],[4.26765,52.21138],[4.26924,52.20701],[4.27059,52.20196],[4.27127,52.19815],[4.27162,52.19496],[4.27178,52.19112],[4.27168,52.18793],[4.27139,52.18473],[4.27078,52.18092],[4.26988,52.17712],[4.26892,52.17398],[4.26776,52.17086],[4.26611,52.16716],[4.26453,52.16412],[4.26237,52.16051],[4.25996,52.15698],[4.25774,52.15408],[4.25484,52.15068],[4.2517,52.14737],[4.24529,52.14154],[4.23811,52.13607],[4.23021,52.13098],[4.22163,52.12633],[4.21669,52.12398],[4.21158,52.12178],[4.2018,52.11812],[4.19156,52.11499],[4.18093,52.1124],[4.17399,52.11104],[4.16694,52.10991],[4.1598,52.10902],[4.15363,52.10844],[4.14638,52.10799],[4.14015,52.10779],[4.13287,52.10779],[4.12559,52.10802],[4.11938,52.10842],[4.11218,52.1091],[4.10506,52.11002],[4.09802,52.11117],[4.09207,52.11234],[4.08526,52.11392],[4.07859,52.11572],[4.07209,52.11773],[4.07223,52.1178],[4.07277,52.12156],[4.07306,52.12723],[4.07278,52.13227],[4.07188,52.13792],[4.07056,52.1429],[4.06875,52.14782],[4.06646,52.15266],[4.0637,52.15741]]]},"properties":{"identifier":"LVNL:HTZ:EHQT","name":"Q13-A","type":"HTZ","lowerLimit":"0 FT MSL","upperLimit":"2000 FT MSL","authority":"LVNL","siteUrl":"https://geoportaal.lvnl.nl/datasets/f70d761a86654aea8a7f1764c83d183a_9","conditions":"HTZ — helikopterzone boven zee volgens de AIP-data van LVNL. Vliegveiligheidsinformatie voor bemand verkeer: helikopters vliegen tussen platforms en windparken zonder vaste routes. Geen UAS-geografische zone — niet opgenomen in de ED-269-zonelijst van IenW (gemeten 2026-09-06: 0 treffers op 743 zones).","dataSource":"LVNL Airspaces_data (ArcGIS Online)","licenseId":"CC BY 4.0"}},{"type":"Feature","geometry":{"type":"Polygon","coordinates":[[[3.80294,51.9253],[3.8028,51.92124],[3.80233,51.91718],[3.80155,51.91314],[3.80045,51.90913],[3.79903,51.90516],[3.7973,51.90124],[3.79527,51.89737],[3.79293,51.89357],[3.79029,51.88985],[3.78737,51.8862],[3.78416,51.88265],[3.78067,51.87921],[3.77692,51.87587],[3.77291,51.87265],[3.76865,51.86955],[3.76382,51.86638],[3.75908,51.86357],[3.75412,51.8609],[3.74896,51.85839],[3.74361,51.85603],[3.73808,51.85384],[3.73238,51.85182],[3.7261,51.84984],[3.72011,51.84819],[3.71399,51.84672],[3.70776,51.84543],[3.70143,51.84434],[3.69457,51.84337],[3.68159,51.84218],[3.66848,51.84178],[3.65536,51.84216],[3.64238,51.84334],[3.63597,51.84422],[3.62918,51.84538],[3.62295,51.84666],[3.61682,51.84812],[3.6104,51.84989],[3.60454,51.85173],[3.59884,51.85375],[3.5933,51.85593],[3.58793,51.85828],[3.58276,51.86079],[3.5778,51.86345],[3.57305,51.86626],[3.56821,51.86942],[3.56394,51.87251],[3.55991,51.87573],[3.55615,51.87906],[3.55265,51.8825],[3.54943,51.88605],[3.54649,51.88968],[3.54385,51.89341],[3.54149,51.8972],[3.53945,51.90107],[3.5377,51.90499],[3.53627,51.90896],[3.53516,51.91297],[3.53436,51.917],[3.53388,51.92106],[3.53373,51.92512],[3.53391,51.92948],[3.53442,51.93353],[3.53525,51.93757],[3.5364,51.94157],[3.53786,51.94554],[3.53963,51.94945],[3.54172,51.95331],[3.5441,51.9571],[3.54678,51.96082],[3.54975,51.96445],[3.55301,51.96798],[3.55654,51.97141],[3.56034,51.97473],[3.5644,51.97793],[3.56871,51.98101],[3.57326,51.98395],[3.57803,51.98675],[3.58302,51.98941],[3.58822,51.99191],[3.59361,51.99425],[3.59918,51.99642],[3.60491,51.99842],[3.61079,52.00025],[3.61682,52.0019],[3.62296,52.00336],[3.62922,52.00464],[3.63557,52.00573],[3.642,52.00662],[3.64849,52.00732],[3.65503,52.00782],[3.66819,52.00822],[3.68135,52.00783],[3.68789,52.00734],[3.69438,52.00665],[3.70082,52.00577],[3.70717,52.00469],[3.71343,52.00342],[3.71958,52.00197],[3.72561,52.00033],[3.7315,51.99851],[3.73724,51.99651],[3.74282,51.99434],[3.74821,51.99201],[3.75342,51.98952],[3.75842,51.98687],[3.7632,51.98408],[3.76776,51.98114],[3.77208,51.97807],[3.77615,51.97487],[3.77996,51.97156],[3.78351,51.96813],[3.78678,51.9646],[3.78976,51.96098],[3.79246,51.95727],[3.79485,51.95348],[3.79695,51.94962],[3.79874,51.94571],[3.80021,51.94175],[3.80137,51.93774],[3.80221,51.93371],[3.80274,51.92966],[3.80294,51.9253]]]},"properties":{"identifier":"LVNL:HTZ:EHSC","name":"GOEREE","type":"HTZ","lowerLimit":"0 FT MSL","upperLimit":"2000 FT MSL","authority":"LVNL","siteUrl":"https://geoportaal.lvnl.nl/datasets/f70d761a86654aea8a7f1764c83d183a_9","conditions":"HTZ — helikopterzone boven zee volgens de AIP-data van LVNL. Vliegveiligheidsinformatie voor bemand verkeer: helikopters vliegen tussen platforms en windparken zonder vaste routes. Geen UAS-geografische zone — niet opgenomen in de ED-269-zonelijst van IenW (gemeten 2026-09-06: 0 treffers op 743 zones).","dataSource":"LVNL Airspaces_data (ArcGIS Online)","licenseId":"CC BY 4.0"}},{"type":"Feature","geometry":{"type":"Polygon","coordinates":[[[4.96987,53.32965],[4.96971,53.32558],[4.96921,53.32153],[4.96839,53.31749],[4.96724,53.31348],[4.96576,53.30952],[4.96396,53.3056],[4.96184,53.30173],[4.95941,53.29794],[4.95668,53.29422],[4.95364,53.29058],[4.95032,53.28704],[4.94671,53.28359],[4.94282,53.28026],[4.93867,53.27705],[4.93393,53.27374],[4.92926,53.27079],[4.92435,53.26799],[4.91922,53.26533],[4.91388,53.26282],[4.90835,53.26047],[4.90263,53.25829],[4.89674,53.25628],[4.89069,53.25444],[4.8845,53.25278],[4.87773,53.2512],[4.87129,53.24993],[4.86476,53.24884],[4.85815,53.24795],[4.84475,53.24674],[4.83121,53.24633],[4.81767,53.2467],[4.80426,53.24787],[4.79764,53.24875],[4.7911,53.24981],[4.78465,53.25107],[4.77787,53.25263],[4.77123,53.25439],[4.76518,53.25623],[4.75929,53.25824],[4.75356,53.26042],[4.74802,53.26276],[4.74268,53.26526],[4.73754,53.26792],[4.73263,53.27072],[4.72763,53.27388],[4.72321,53.27697],[4.71905,53.28018],[4.71516,53.28351],[4.71154,53.28695],[4.7082,53.29049],[4.70516,53.29412],[4.70242,53.29784],[4.69998,53.30164],[4.69786,53.3055],[4.69605,53.30942],[4.69457,53.31338],[4.6934,53.31739],[4.69257,53.32142],[4.69207,53.32548],[4.6919,53.32954],[4.69208,53.3339],[4.6926,53.33795],[4.69344,53.34199],[4.69462,53.34599],[4.69612,53.34996],[4.69794,53.35387],[4.70008,53.35773],[4.70253,53.36152],[4.70529,53.36524],[4.70836,53.36887],[4.71171,53.3724],[4.71535,53.37584],[4.71927,53.37916],[4.72345,53.38237],[4.72789,53.38545],[4.73258,53.38839],[4.7375,53.39119],[4.74265,53.39385],[4.74801,53.39636],[4.75357,53.3987],[4.75932,53.40088],[4.76523,53.40288],[4.7713,53.40472],[4.77752,53.40637],[4.78386,53.40784],[4.79032,53.40912],[4.79688,53.41021],[4.80351,53.41111],[4.81021,53.41181],[4.81697,53.41232],[4.83055,53.41273],[4.84414,53.41236],[4.8509,53.41187],[4.85761,53.41118],[4.86425,53.41031],[4.87081,53.40923],[4.87728,53.40797],[4.88364,53.40652],[4.88987,53.40488],[4.89595,53.40307],[4.90189,53.40108],[4.90765,53.39892],[4.91322,53.39659],[4.9186,53.3941],[4.92377,53.39146],[4.92906,53.38846],[4.93376,53.38552],[4.93821,53.38245],[4.9424,53.37924],[4.94632,53.37592],[4.94997,53.37249],[4.95333,53.36896],[4.9564,53.36533],[4.95917,53.36162],[4.96163,53.35783],[4.96378,53.35397],[4.96561,53.35006],[4.96711,53.34609],[4.9683,53.34209],[4.96915,53.33805],[4.96968,53.334],[4.96987,53.32965]]]},"properties":{"identifier":"LVNL:HTZ:EHMR","name":"L15-FA-1","type":"HTZ","lowerLimit":"0 FT MSL","upperLimit":"2000 FT MSL","authority":"LVNL","siteUrl":"https://geoportaal.lvnl.nl/datasets/f70d761a86654aea8a7f1764c83d183a_9","conditions":"HTZ — helikopterzone boven zee volgens de AIP-data van LVNL. Vliegveiligheidsinformatie voor bemand verkeer: helikopters vliegen tussen platforms en windparken zonder vaste routes. Geen UAS-geografische zone — niet opgenomen in de ED-269-zonelijst van IenW (gemeten 2026-09-06: 0 treffers op 743 zones).","dataSource":"LVNL Airspaces_data (ArcGIS Online)","licenseId":"CC BY 4.0"}},{"type":"Feature","geometry":{"type":"Polygon","coordinates":[[[6.07987,53.49204],[6.07969,53.48797],[6.07919,53.48392],[6.07835,53.47988],[6.07718,53.47588],[6.07569,53.47191],[6.07387,53.46799],[6.07174,53.46413],[6.06929,53.46034],[6.06653,53.45662],[6.06348,53.45298],[6.06013,53.44944],[6.05649,53.44601],[6.05258,53.44268],[6.04841,53.43947],[6.04397,53.43638],[6.03895,53.43322],[6.03402,53.43042],[6.02886,53.42777],[6.0235,53.42526],[6.01793,53.42292],[6.01177,53.42059],[6.00584,53.4186],[5.99975,53.41678],[5.99353,53.41514],[5.98717,53.41368],[5.98071,53.41241],[5.97415,53.41133],[5.96751,53.41044],[5.95405,53.40925],[5.94678,53.40893],[5.93998,53.40885],[5.92639,53.40926],[5.91294,53.41047],[5.9063,53.41137],[5.89975,53.41245],[5.89329,53.41373],[5.88649,53.41531],[5.88028,53.41697],[5.87421,53.41881],[5.8683,53.42082],[5.86256,53.42301],[5.857,53.42535],[5.85164,53.42786],[5.8465,53.43052],[5.84157,53.43333],[5.83656,53.43649],[5.83213,53.43958],[5.82796,53.4428],[5.82406,53.44613],[5.82044,53.44957],[5.8171,53.45312],[5.81406,53.45676],[5.81132,53.46048],[5.80888,53.46427],[5.80676,53.46814],[5.80495,53.47206],[5.80347,53.47603],[5.80232,53.48003],[5.80149,53.48407],[5.801,53.48812],[5.80083,53.49219],[5.80103,53.49654],[5.80156,53.5006],[5.80242,53.50463],[5.80361,53.50863],[5.80512,53.5126],[5.80696,53.51651],[5.80912,53.52037],[5.81159,53.52416],[5.81437,53.52787],[5.81746,53.5315],[5.82083,53.53503],[5.82449,53.53846],[5.82843,53.54178],[5.83264,53.54498],[5.83711,53.54805],[5.84182,53.551],[5.84677,53.5538],[5.85195,53.55645],[5.85733,53.55895],[5.86292,53.56128],[5.86869,53.56346],[5.87464,53.56546],[5.88074,53.56729],[5.88698,53.56893],[5.89335,53.5704],[5.89984,53.57167],[5.90642,53.57276],[5.91308,53.57365],[5.91981,53.57434],[5.92659,53.57484],[5.94023,53.57525],[5.95387,53.57486],[5.96065,53.57436],[5.96739,53.57367],[5.97405,53.57279],[5.98064,53.57171],[5.98713,53.57044],[5.9935,53.56899],[5.99975,53.56734],[6.00586,53.56552],[6.01181,53.56353],[6.01759,53.56136],[6.02318,53.55903],[6.02857,53.55654],[6.03412,53.55369],[6.03906,53.55089],[6.04376,53.54794],[6.04822,53.54486],[6.05242,53.54166],[6.05635,53.53833],[6.06,53.5349],[6.06336,53.53136],[6.06644,53.52773],[6.0692,53.52402],[6.07167,53.52022],[6.07381,53.51637],[6.07564,53.51245],[6.07714,53.50848],[6.07832,53.50448],[6.07917,53.50044],[6.07968,53.49639],[6.07987,53.49204]]]},"properties":{"identifier":"LVNL:HTZ:EHMA","name":"AWG-1","type":"HTZ","lowerLimit":"0 FT MSL","upperLimit":"2000 FT MSL","authority":"LVNL","siteUrl":"https://geoportaal.lvnl.nl/datasets/f70d761a86654aea8a7f1764c83d183a_9","conditions":"HTZ — helikopterzone boven zee volgens de AIP-data van LVNL. Vliegveiligheidsinformatie voor bemand verkeer: helikopters vliegen tussen platforms en windparken zonder vaste routes. Geen UAS-geografische zone — niet opgenomen in de ED-269-zonelijst van IenW (gemeten 2026-09-06: 0 treffers op 743 zones).","dataSource":"LVNL Airspaces_data (ArcGIS Online)","licenseId":"CC BY 4.0"}},{"type":"Feature","geometry":{"type":"Polygon","coordinates":[[[4.05906,52.79408],[4.22478,52.86188],[4.35,52.86188],[4.35,52.81667],[4.43333,52.775],[4.4438,52.77239],[4.4364,52.71],[4.43534,52.70432],[4.43408,52.69994],[4.43244,52.69561],[4.43042,52.69134],[4.42765,52.68654],[4.42484,52.68244],[4.42119,52.67787],[4.41763,52.67399],[4.41314,52.6697],[4.40887,52.66609],[4.40361,52.66214],[4.39868,52.65886],[4.39348,52.65573],[4.38801,52.65278],[4.38144,52.64963],[4.37458,52.64673],[4.36834,52.6444],[4.36191,52.64228],[4.35434,52.64012],[4.34755,52.63846],[4.34063,52.63702],[4.33359,52.63581],[4.32542,52.63471],[4.31716,52.63391],[4.30988,52.63346],[4.30152,52.63324],[4.29421,52.63331],[4.2869,52.63361],[4.27964,52.63414],[4.27243,52.63491],[4.26429,52.63608],[4.25727,52.63734],[4.2494,52.63906],[4.23984,52.64162],[4.23152,52.6443],[4.22353,52.64731],[4.21589,52.65065],[4.20866,52.6543],[4.20185,52.65825],[4.1955,52.66246],[4.18965,52.66694],[4.18375,52.67218],[4.05906,52.79408]]]},"properties":{"identifier":"LVNL:HTZ:EHHPZUNIA","name":"UNICORN A (HPZ)","type":"HTZ","lowerLimit":"0 FT MSL","upperLimit":"2000 FT MSL","authority":"LVNL","siteUrl":"https://geoportaal.lvnl.nl/datasets/f70d761a86654aea8a7f1764c83d183a_9","conditions":"HPZ — helikopterzone boven zee volgens de AIP-data van LVNL. Vliegveiligheidsinformatie voor bemand verkeer: helikopters vliegen tussen platforms en windparken zonder vaste routes. Geen UAS-geografische zone — niet opgenomen in de ED-269-zonelijst van IenW (gemeten 2026-09-06: 0 treffers op 743 zones).","dataSource":"LVNL Airspaces_data (ArcGIS Online)","licenseId":"CC BY 4.0"}},{"type":"Feature","geometry":{"type":"Polygon","coordinates":[[[3.59586,52.72703],[3.59578,52.72696],[3.62619,52.78171],[3.62919,52.78653],[3.6335,52.7923],[3.63852,52.79785],[3.64423,52.80315],[3.65058,52.80817],[3.65539,52.81151],[3.66049,52.81468],[3.66507,52.81727],[3.67066,52.82012],[3.67649,52.82279],[3.68255,52.82527],[3.68882,52.82755],[3.69434,52.82934],[3.70095,52.83123],[3.70771,52.83291],[3.71362,52.83417],[3.72062,52.83543],[3.72773,52.83646],[3.73491,52.83726],[3.74112,52.83777],[3.7484,52.83813],[3.75675,52.83827],[3.76509,52.83809],[3.77237,52.83768],[3.78062,52.83693],[3.78879,52.83588],[3.79584,52.83471],[3.80375,52.8331],[3.81053,52.83145],[3.81902,52.82901],[3.82823,52.82588],[3.87578,52.80807],[3.87566,52.80809],[3.88432,52.80456],[3.89251,52.80065],[3.89794,52.79769],[3.9031,52.79456],[3.90798,52.79126],[3.91257,52.78782],[3.91685,52.78423],[3.9208,52.7805],[3.92443,52.77666],[3.92771,52.7727],[3.93064,52.76864],[3.93321,52.7645],[3.93541,52.76027],[3.93724,52.75599],[3.93869,52.75164],[3.93976,52.74726],[3.94044,52.74285],[3.94072,52.73906],[3.94064,52.73399],[3.94016,52.72957],[3.93929,52.72517],[3.93804,52.72081],[3.91402,52.65873],[3.91103,52.65265],[3.90887,52.64907],[3.90686,52.64614],[3.90468,52.64325],[3.90182,52.63986],[3.8965,52.6344],[3.89237,52.63073],[3.88727,52.62671],[3.88178,52.62288],[3.8759,52.61927],[3.87048,52.61629],[3.86397,52.6131],[3.85715,52.61017],[3.85095,52.60781],[3.84362,52.60536],[3.83607,52.6032],[3.82929,52.60153],[3.82137,52.5999],[3.81432,52.59872],[3.80615,52.59765],[3.79789,52.59689],[3.78956,52.59643],[3.78121,52.59628],[3.77286,52.59645],[3.76454,52.59692],[3.75525,52.59782],[3.7471,52.59894],[3.73908,52.60037],[3.73024,52.60232],[3.72259,52.60436],[3.717,52.60608],[3.71064,52.60827],[3.64957,52.63111],[3.64278,52.63405],[3.63551,52.63765],[3.6294,52.64109],[3.62364,52.64476],[3.61762,52.64913],[3.6121,52.65374],[3.60765,52.65802],[3.60316,52.66302],[3.59924,52.6682],[3.59626,52.67293],[3.59347,52.67837],[3.59152,52.6833],[3.58991,52.68891],[3.58894,52.69458],[3.58862,52.69964],[3.58887,52.70534],[3.58962,52.71038],[3.59107,52.71601],[3.59315,52.72157],[3.59586,52.72703]]]},"properties":{"identifier":"LVNL:HTZ:EHHPZMEBO","name":"MEBOT (HPZ)","type":"HTZ","lowerLimit":"0 FT MSL","upperLimit":"2000 FT MSL","authority":"LVNL","siteUrl":"https://geoportaal.lvnl.nl/datasets/f70d761a86654aea8a7f1764c83d183a_9","conditions":"HPZ — helikopterzone boven zee volgens de AIP-data van LVNL. Vliegveiligheidsinformatie voor bemand verkeer: helikopters vliegen tussen platforms en windparken zonder vaste routes. Geen UAS-geografische zone — niet opgenomen in de ED-269-zonelijst van IenW (gemeten 2026-09-06: 0 treffers op 743 zones).","dataSource":"LVNL Airspaces_data (ArcGIS Online)","licenseId":"CC BY 4.0"}},{"type":"Feature","geometry":{"type":"Polygon","coordinates":[[[4.29289,53.08339],[4.29885,53.08084],[4.30378,53.07851],[4.30853,53.07604],[4.31308,53.07345],[4.31744,53.07074],[4.32159,53.06791],[4.32552,53.06497],[4.32922,53.06192],[4.33269,53.05878],[4.33593,53.05554],[4.33891,53.05222],[4.34164,53.04882],[4.34412,53.04535],[4.34633,53.04182],[4.34827,53.03823],[4.34994,53.03459],[4.35,52.86188],[4.22478,52.86188],[4.05906,52.79408],[4.02436,52.82779],[4.02001,52.83243],[3.93375,52.93462],[3.84022,53.04472],[3.83715,53.04873],[3.83409,53.05343],[3.8318,53.05763],[3.82964,53.06251],[3.82798,53.06746],[3.82694,53.07184],[3.82623,53.07687],[3.82602,53.08129],[3.82615,53.08508],[3.82666,53.08949],[3.82756,53.09387],[3.82864,53.0976],[3.83,53.1013],[3.83194,53.10557],[3.8339,53.10917],[3.83653,53.11329],[3.83907,53.11676],[3.84236,53.12071],[3.84545,53.12401],[3.84879,53.12722],[3.85299,53.13084],[3.85684,53.13384],[3.86161,53.1372],[3.86593,53.13995],[3.87045,53.14259],[3.87517,53.14509],[3.88091,53.14785],[3.88601,53.15006],[3.89217,53.15247],[3.89762,53.15437],[3.9032,53.15612],[3.90987,53.15796],[3.91571,53.15937],[3.92265,53.16081],[3.92869,53.16187],[3.93583,53.16289],[3.94305,53.16368],[3.94929,53.16418],[3.95556,53.1645],[3.96289,53.16466],[3.97023,53.16458],[3.9786,53.16421],[3.98691,53.16353],[3.99411,53.16269],[4.00224,53.16145],[4.00924,53.16012],[4.01612,53.15857],[4.02389,53.15651],[4.16667,53.08333],[4.29289,53.08339]]]},"properties":{"identifier":"LVNL:HTZ:EHHPZUNIB","name":"UNICORN B (HPZ)","type":"HTZ","lowerLimit":"0 FT MSL","upperLimit":"2000 FT MSL","authority":"LVNL","siteUrl":"https://geoportaal.lvnl.nl/datasets/f70d761a86654aea8a7f1764c83d183a_9","conditions":"HPZ — helikopterzone boven zee volgens de AIP-data van LVNL. Vliegveiligheidsinformatie voor bemand verkeer: helikopters vliegen tussen platforms en windparken zonder vaste routes. Geen UAS-geografische zone — niet opgenomen in de ED-269-zonelijst van IenW (gemeten 2026-09-06: 0 treffers op 743 zones).","dataSource":"LVNL Airspaces_data (ArcGIS Online)","licenseId":"CC BY 4.0"}},{"type":"Feature","geometry":{"type":"Polygon","coordinates":[[[4.0637,52.1574],[4.06712,52.15137],[4.06978,52.1452],[4.07166,52.13891],[4.07275,52.13256],[4.07305,52.12617],[4.07255,52.11979],[4.07126,52.11345],[4.06942,52.10781],[4.06664,52.10166],[4.06311,52.09565],[4.05883,52.08983],[4.05384,52.08422],[4.04817,52.07887],[4.04185,52.0738],[4.03491,52.06905],[4.02818,52.06506],[4.02019,52.06098],[4.01172,52.05728],[4.00282,52.054],[3.99447,52.05141],[3.98489,52.04896],[3.97502,52.04697],[3.96494,52.04545],[3.95469,52.04441],[3.94435,52.04386],[3.93501,52.04378],[3.92464,52.04416],[3.91436,52.04503],[3.90421,52.04638],[3.89426,52.0482],[3.88457,52.05049],[3.87519,52.05323],[3.86531,52.05675],[3.85511,52.06116],[3.75541,52.10927],[3.65526,52.15736],[3.64817,52.16106],[3.64223,52.1646],[3.63599,52.16884],[3.63085,52.17281],[3.62668,52.17645],[3.62231,52.18076],[3.61838,52.18523],[3.6149,52.18984],[3.55906,52.27488],[3.55588,52.28028],[3.55331,52.28579],[3.55155,52.29078],[3.55029,52.29582],[3.54954,52.3009],[3.54929,52.306],[3.54956,52.3111],[3.55047,52.31681],[3.55182,52.32184],[3.55366,52.32682],[3.55568,52.3311],[3.55807,52.33532],[3.56126,52.34003],[3.56116,52.33997],[3.63455,52.44004],[3.63782,52.44412],[3.64081,52.44747],[3.64406,52.45074],[3.64754,52.4539],[3.65126,52.45697],[3.65589,52.46041],[3.66009,52.46324],[3.6645,52.46595],[3.67228,52.47017],[3.68057,52.47402],[3.69021,52.4778],[3.6994,52.48079],[3.70893,52.48334],[3.71875,52.48543],[3.72881,52.48707],[3.73905,52.48823],[3.74939,52.4889],[3.7598,52.48909],[3.77019,52.4888],[3.78155,52.48791],[3.79173,52.4866],[3.80172,52.48482],[3.81242,52.48233],[3.82181,52.47959],[3.83084,52.47642],[3.84028,52.47246],[3.84914,52.46803],[3.85736,52.46316],[3.86489,52.45788],[3.87166,52.45224],[3.87763,52.44627],[3.88233,52.44059],[3.88528,52.43642],[3.95905,52.32154],[4.06378,52.15734],[4.0637,52.1574]]]},"properties":{"identifier":"LVNL:HTZ:EHHPZRYNV","name":"RYNVELD (HPZ)","type":"HTZ","lowerLimit":"0 FT MSL","upperLimit":"2000 FT MSL","authority":"LVNL","siteUrl":"https://geoportaal.lvnl.nl/datasets/f70d761a86654aea8a7f1764c83d183a_9","conditions":"HPZ — helikopterzone boven zee volgens de AIP-data van LVNL. Vliegveiligheidsinformatie voor bemand verkeer: helikopters vliegen tussen platforms en windparken zonder vaste routes. Geen UAS-geografische zone — niet opgenomen in de ED-269-zonelijst van IenW (gemeten 2026-09-06: 0 treffers op 743 zones).","dataSource":"LVNL Airspaces_data (ArcGIS Online)","licenseId":"CC BY 4.0"}},{"type":"Feature","geometry":{"type":"Polygon","coordinates":[[[3.60549,53.10903],[3.59825,53.10828],[3.59095,53.10776],[3.58362,53.10748],[3.57627,53.10743],[3.56893,53.10761],[3.56162,53.10803],[3.55435,53.10867],[3.54716,53.10955],[3.54105,53.11049],[3.53403,53.11179],[3.52714,53.11331],[3.52039,53.11505],[3.5138,53.117],[3.50739,53.11916],[3.50118,53.12152],[3.49519,53.12408],[3.48944,53.12682],[3.48393,53.12974],[3.47869,53.13283],[3.47373,53.13609],[3.46906,53.13949],[3.4647,53.14304],[3.46122,53.1462],[3.45746,53.14999],[3.45405,53.15389],[3.45098,53.1579],[3.44827,53.162],[3.44593,53.16619],[3.44422,53.16983],[3.44257,53.17413],[3.44131,53.17847],[3.44043,53.18285],[3.43998,53.18663],[3.43982,53.19104],[3.44,53.19482],[3.44046,53.19859],[3.44135,53.20297],[3.44243,53.2067],[3.44404,53.211],[3.44572,53.21465],[3.4483,53.21936],[3.49615,53.29747],[3.49856,53.30106],[3.50115,53.30451],[3.5035,53.30733],[3.50656,53.31064],[3.50987,53.31387],[3.51342,53.317],[3.52053,53.32247],[3.52472,53.3253],[3.52912,53.32802],[3.5377,53.33267],[3.54777,53.33724],[3.55757,53.34093],[3.5688,53.34438],[3.57755,53.34656],[3.58652,53.34837],[3.5967,53.34996],[3.60602,53.35098],[3.61543,53.35162],[3.62489,53.35188],[3.63435,53.35175],[3.64483,53.35115],[3.65416,53.35021],[3.66438,53.34871],[3.6734,53.34697],[3.6822,53.34487],[3.69073,53.34241],[3.69897,53.33961],[3.70687,53.33648],[3.71534,53.3326],[3.89359,53.33297],[4.05699,53.33308],[4.2204,53.33296],[4.41873,53.33258],[4.3273,53.24048],[4.32391,53.23728],[4.32029,53.23418],[4.31511,53.2302],[4.30953,53.22642],[4.30358,53.22285],[4.29647,53.21911],[4.28895,53.21566],[4.28195,53.21285],[4.27375,53.21001],[4.26621,53.20777],[4.2545,53.20493],[4.24242,53.20275],[4.23005,53.20123],[4.2175,53.20039],[4.20488,53.20023],[4.19228,53.20077],[4.17982,53.20198],[4.17367,53.20285],[4.16665,53.20405],[4.02389,53.15651],[4.01319,53.15926],[4.00326,53.16127],[3.9931,53.16282],[3.98278,53.16391],[3.97235,53.16452],[3.96083,53.16464],[3.94933,53.16418],[3.93896,53.16326],[3.92874,53.16188],[3.91872,53.16003],[3.90896,53.15773],[3.89952,53.15499],[3.89045,53.15182],[3.88181,53.14826],[3.87364,53.1443],[3.86586,53.13995],[3.60549,53.10903]]]},"properties":{"identifier":"LVNL:HTZ:EHHPZPENA","name":"PENTACON A (HPZ)","type":"HTZ","lowerLimit":"0 FT MSL","upperLimit":"2000 FT MSL","authority":"LVNL","siteUrl":"https://geoportaal.lvnl.nl/datasets/f70d761a86654aea8a7f1764c83d183a_9","conditions":"HPZ — helikopterzone boven zee volgens de AIP-data van LVNL. Vliegveiligheidsinformatie voor bemand verkeer: helikopters vliegen tussen platforms en windparken zonder vaste routes. Geen UAS-geografische zone — niet opgenomen in de ED-269-zonelijst van IenW (gemeten 2026-09-06: 0 treffers op 743 zones).","dataSource":"LVNL Airspaces_data (ArcGIS Online)","licenseId":"CC BY 4.0"}},{"type":"Feature","geometry":{"type":"Polygon","coordinates":[[[3.66011,53.66587],[3.83673,53.66601],[3.99864,53.66592],[4.06667,53.49925],[4.23266,53.49936],[4.39865,53.49925],[4.39865,53.33258],[4.23525,53.33294],[4.05699,53.33308],[3.89359,53.33297],[3.71534,53.3326],[3.70686,53.33648],[3.69806,53.33994],[3.68884,53.34299],[3.67927,53.34562],[3.66939,53.3478],[3.66028,53.34937],[3.64998,53.35068],[3.63955,53.35151],[3.66011,53.66587]]]},"properties":{"identifier":"LVNL:HTZ:EHHPZPENC","name":"PENTACON C (HPZ)","type":"HTZ","lowerLimit":"0 FT MSL","upperLimit":"2000 FT MSL","authority":"LVNL","siteUrl":"https://geoportaal.lvnl.nl/datasets/f70d761a86654aea8a7f1764c83d183a_9","conditions":"HPZ — helikopterzone boven zee volgens de AIP-data van LVNL. Vliegveiligheidsinformatie voor bemand verkeer: helikopters vliegen tussen platforms en windparken zonder vaste routes. Geen UAS-geografische zone — niet opgenomen in de ED-269-zonelijst van IenW (gemeten 2026-09-06: 0 treffers op 743 zones).","dataSource":"LVNL Airspaces_data (ArcGIS Online)","licenseId":"CC BY 4.0"}}]}