{"type":"FeatureCollection","generated":"2026-09-02T15:37:37Z","source":"LFV DAIM WFS mais:EXES, mais:EXEA — LFV:s drönarkartas CTR/TMA-urval; självläkt mot mais:CTR","rule":"TSFS 2017:110 3 kap. 3 § (CTR; 10 m vid de elva uppräknade militära flygplatserna — Jokkmokk är en av dem)","note":"SE-A1-05: spegel av det LFV tänder ur EXES/EXEA. Tom fil = LFV har flyttat zonen till mais:CTR (läkt).","sourceCounts":{"mais:EXES":127,"mais:EXEA":41,"mais:CTR":43},"healed":[],"droppedParentOutlines":["ESNJ JOKKMOKK TMA"],"features":[{"type":"Feature","geometry":{"type":"Polygon","coordinates":[[[20.01916667,66.62361111],[20.32916667,66.54944444],[20.40777778,66.40777778],[20.27305556,66.36916667],[19.96472222,66.44472222],[19.88388889,66.58444444],[20.01916667,66.62361111]]]},"properties":{"_zoneType":"CTR","name":"ESNJ JOKKMOKK CTR","identifier":"ESNJ","lowerLimit":"GND","upperLimit":"2600","uom":"FT","airspaceClass":"C","wef":"2026-08-06","location":"JOKKMOKK CTR","sourceLayer":"mais:EXES","sourceIdnr":25533,"authority":"LFV","siteUrl":"https://daim.lfv.se/echarts/dronechart/"}},{"type":"Feature","geometry":{"type":"Polygon","coordinates":[[[20.05,66.87416667],[20.53416667,66.60777778],[20.32916667,66.54944444],[20.40777778,66.40777778],[20.27305556,66.36916667],[20.06472222,66.30888889],[19.38305556,66.68111111],[20.05,66.87416667]]]},"properties":{"_zoneType":"TMA","name":"ESNJ JOKKMOKK TMAA","identifier":"ESNJ","lowerLimit":"2600","upperLimit":"FL 95","uom":"FT","airspaceClass":"C","wef":"2026-08-06","location":"Jokkmokk TMA a","sourceLayer":"mais:EXES","sourceIdnr":25569,"authority":"LFV","siteUrl":"https://daim.lfv.se/echarts/dronechart/"}},{"type":"Feature","geometry":{"type":"Polygon","coordinates":[[[20.53416667,66.60777778],[20.98333333,66.35388889],[20.32194444,66.16472222],[20.06472222,66.30888889],[20.27305556,66.36916667],[20.40777778,66.40777778],[20.32916667,66.54944444],[20.53416667,66.60777778]]]},"properties":{"_zoneType":"TMA","name":"ESNJ JOKKMOKK TMAB","identifier":"ESNJ","lowerLimit":"2300","upperLimit":"FL 95","uom":"FT","airspaceClass":"C","wef":"2026-08-06","location":"Jokkmokk TMA b","sourceLayer":"mais:EXES","sourceIdnr":25570,"authority":"LFV","siteUrl":"https://daim.lfv.se/echarts/dronechart/"}},{"type":"Feature","geometry":{"type":"Polygon","coordinates":[[[20.25147,66.515546],[20.254605,66.513718],[20.257512,66.51183],[20.260186,66.509887],[20.262618,66.507894],[20.264804,66.505856],[20.266738,66.503777],[20.268416,66.501662],[20.269834,66.499517],[20.270987,66.497346],[20.271874,66.495155],[20.272492,66.49295],[20.27284,66.490735],[20.272917,66.488516],[20.272722,66.486297],[20.272257,66.484086],[20.271522,66.481886],[20.270518,66.479704],[20.26925,66.477543],[20.267719,66.475411],[20.265929,66.473311],[20.263884,66.471249],[20.26159,66.46923],[20.259053,66.467258],[20.256277,66.465338],[20.25327,66.463476],[20.250039,66.461675],[20.246591,66.45994],[20.242936,66.458275],[20.239082,66.456684],[20.235038,66.455171],[20.230814,66.453739],[20.22642,66.452393],[20.221867,66.451134],[20.217165,66.449967],[20.212327,66.448894],[20.207363,66.447917],[20.202286,66.447039],[20.197107,66.446263],[20.19184,66.445589],[20.186497,66.44502],[20.181091,66.444557],[20.175635,66.444201],[20.170142,66.443952],[20.164625,66.443813],[20.159097,66.443782],[20.153573,66.44386],[20.148065,66.444047],[20.142586,66.444342],[20.13715,66.444745],[20.131769,66.445254],[20.126458,66.445869],[20.121228,66.446588],[20.116092,66.447408],[20.111062,66.448329],[20.106152,66.449348],[20.101371,66.450463],[20.096733,66.45167],[20.092247,66.452968],[20.087926,66.454352],[20.083779,66.455819],[20.079816,66.457367],[20.076048,66.45899],[20.072482,66.460686],[20.069128,66.46245],[20.042929,66.476954],[20.039794,66.478782],[20.036887,66.48067],[20.034213,66.482613],[20.031781,66.484606],[20.029595,66.486644],[20.027661,66.488723],[20.025983,66.490838],[20.024565,66.492983],[20.023412,66.495154],[20.022525,66.497345],[20.021907,66.49955],[20.021559,66.501765],[20.021482,66.503984],[20.021677,66.506203],[20.022142,66.508414],[20.022877,66.510614],[20.023881,66.512796],[20.025149,66.514957],[20.02668,66.517089],[20.02847,66.519189],[20.030515,66.521251],[20.032809,66.52327],[20.035346,66.525242],[20.038122,66.527162],[20.041129,66.529024],[20.04436,66.530825],[20.047808,66.53256],[20.051463,66.534225],[20.055317,66.535816],[20.059361,66.537329],[20.063585,66.538761],[20.067979,66.540107],[20.072532,66.541366],[20.077234,66.542533],[20.082072,66.543606],[20.087036,66.544583],[20.092113,66.545461],[20.097292,66.546237],[20.102559,66.546911],[20.107902,66.54748],[20.113308,66.547943],[20.118764,66.548299],[20.124257,66.548548],[20.129774,66.548687],[20.135302,66.548718],[20.140826,66.54864],[20.146334,66.548453],[20.151813,66.548158],[20.157249,66.547755],[20.16263,66.547246],[20.167941,66.546631],[20.173171,66.545912],[20.178307,66.545092],[20.183337,66.544171],[20.188247,66.543152],[20.193028,66.542037],[20.197666,66.54083],[20.202152,66.539532],[20.206473,66.538148],[20.21062,66.536681],[20.214583,66.535133],[20.218351,66.53351],[20.221917,66.531814],[20.225271,66.53005],[20.25147,66.515546]]]},"properties":{"_zoneType":"RWY5K","name":"ESNJ RWY 14/32 — 5 km från bana","identifier":"ESNJ","runwaySource":"OurAirports runways.csv 2026-09-02 (id 239052)","rule":"TSFS 2017:110 3 kap. 3 § fjärde stycket (minst 5 km från bana)","authority":"LFV","siteUrl":"https://daim.lfv.se/echarts/dronechart/"}}]}
