{"type":"FeatureCollection","_meta":{"source":"https://aro.lfv.se/content/eaip/AIP%20AMDT%201-2026_2026_08_07/eAIP/ES-AD%201.1-sv-SE.html","fetched_at":"2026-09-09T14:34:27+00:00","aip_edition_source":"index","aip_edition":{"amdt":"1/2026","valid_from":"2026-08-07","published":"2026-07-09","dir":"AIP AMDT 1-2026_2026_08_07","reason":"AIP AMDT 1/2026","next_valid_from":null,"index_section":"current","index_agrees":true,"age_days":33,"max_age_days":140,"max_age_source":"hus","stale":false},"aip_edition_warning":null},"generated":"2026-09-09T14:34:27+00:00","source":"https://aro.lfv.se/content/eaip/AIP%20AMDT%201-2026_2026_08_07/eAIP/ES-AD%201.1-sv-SE.html","rule":"TSFS 2017:110 3 kap. 1 § första stycket p13 — flygning närmare än 1 000 m från de helikopterflygplatser som anges i AIP AD1.1 mom 11 får endast ske i samråd med berörd helikopterflygplats.","note":"Endast de heliportar i AIP AD 1.1 mom 11 som SAKNAR zon i DAIM_TOPO:HKP1K. Diffen räknas om vid varje körning och blir tom när LFV kompletterat sitt lager.","features":[{"type":"Feature","geometry":{"type":"Point","coordinates":[12.96417,57.72417]},"properties":{"_zoneType":"HKP1K","name":"BORÅS/BORÅS SJUKHUS","identifier":"ESEB","authority":"LFV / Transportstyrelsen (AIP AD 1.1 mom 11)","dataSource":"lfv-aip-ad11","message":"Non-licensed helicopter AD County council +46 33 616 50 00 PPR 15 min PN SOS Rescue Coordination Centre +46 31 703 15 80 Ambulance and rescue flights only. Regulations see Heliport chart, www.vgregion.se/heliport"}},{"type":"Feature","geometry":{"type":"Point","coordinates":[12.26806,58.31917]},"properties":{"_zoneType":"HKP1K","name":"TROLLHÄTTAN/NÄL SJUKHUS","identifier":"ESEN","authority":"LFV / Transportstyrelsen (AIP AD 1.1 mom 11)","dataSource":"lfv-aip-ad11","message":"Licensed helicopter AD County council +46 521 910 00 PPR 15 min PN SOS Rescue Coordination Centre +46 31 703 15 80 Ambulance and rescue flights only. Regulations see Heliport chart, www.vgregion.se/heliport"}},{"type":"Feature","geometry":{"type":"Point","coordinates":[13.84806,58.42528]},"properties":{"_zoneType":"HKP1K","name":"SKÖVDE/KÄRNSJUKHUSET","identifier":"ESHO","authority":"LFV / Transportstyrelsen (AIP AD 1.1 mom 11)","dataSource":"lfv-aip-ad11","message":"Non-licensed helicopter AD County council +46 500 43 10 00 PPR 15 min PN SOS Rescue Coordination Centre +46 31 703 15 80 Ambulance and rescue flights only. Regulations see Heliport chart, www.vgregion.se/heliport"}},{"type":"Feature","geometry":{"type":"Point","coordinates":[11.95639,57.68333]},"properties":{"_zoneType":"HKP1K","name":"GÖTEBORG/SAHLGRENSKA SJUKHUSET","identifier":"ESHS","authority":"LFV / Transportstyrelsen (AIP AD 1.1 mom 11)","dataSource":"lfv-aip-ad11","message":"Licensed helicopter AD County council +46 31 342 10 00 PPR 15 min PN SOS Rescue Coordination Centre +46 31 703 15 80 Ambulance and rescue flights only. Regulations see Heliport chart, www.vgregion.se/heliport"}},{"type":"Feature","geometry":{"type":"Point","coordinates":[12.16167,58.7975]},"properties":{"_zoneType":"HKP1K","name":"BÄCKEFORS/DALSLANDS SJUKHUS","identifier":"ESJD","authority":"LFV / Transportstyrelsen (AIP AD 1.1 mom 11)","dataSource":"lfv-aip-ad11","message":"Non-licensed helicopter AD County council PPR 15 min PN SOS Rescue Coordination Centre +46 31 703 15 80 Ambulance and rescue flights only. Regulations see Heliport chart, www.vgregion.se/heliport"}}]}