{"type":"FeatureCollection","_meta":{"source":"OurAirports (public domain) + Krško (publikt faktum)","license":"OurAirports public domain; ingen CAA-data","note":"ATZ = medvetenhetscirklar, EJ officiella CTR-gränser. Exakta CTR + militära LJR/LJD i overlayInfo.notShown tills full AIP-kurering.","feature_count":47},"features":[{"type":"Feature","properties":{"_zoneType":"ATZ","name":"Ajdovščina Airfield","message":"Medvetenhetsradie ~3 km runt Ajdovščina Airfield (LJAJ). Kontakta flygplatsoperatören; exakt CTR-gräns – se officiella kartan/AIP.","authority":"OurAirports (PD) — awareness radius","dataSource":"ourairports"},"geometry":{"type":"Polygon","coordinates":[[[13.8869,45.91618],[13.89196,45.91595],[13.89694,45.91526],[13.90174,45.91412],[13.90629,45.91256],[13.91051,45.9106],[13.91432,45.90827],[13.91766,45.90562],[13.92048,45.90268],[13.92272,45.89952],[13.92435,45.89617],[13.92533,45.89271],[13.92566,45.88919],[13.92533,45.88567],[13.92434,45.88221],[13.9227,45.87887],[13.92046,45.8757],[13.91764,45.87277],[13.9143,45.87012],[13.91049,45.86779],[13.90627,45.86583],[13.90173,45.86427],[13.89693,45.86314],[13.89196,45.86245],[13.8869,45.86222],[13.88184,45.86245],[13.87687,45.86314],[13.87207,45.86427],[13.86753,45.86583],[13.86331,45.86779],[13.8595,45.87012],[13.85616,45.87277],[13.85334,45.8757],[13.8511,45.87887],[13.84946,45.88221],[13.84847,45.88567],[13.84814,45.88919],[13.84847,45.89271],[13.84945,45.89617],[13.85108,45.89952],[13.85332,45.90268],[13.85614,45.90562],[13.85948,45.90827],[13.86329,45.9106],[13.86751,45.91256],[13.87206,45.91412],[13.87686,45.91526],[13.88184,45.91595],[13.8869,45.91618]]]}},{"type":"Feature","properties":{"_zoneType":"ATZ","name":"Lesce Airfield","message":"Medvetenhetsradie ~3 km runt Lesce Airfield (LJBL). Kontakta flygplatsoperatören; exakt CTR-gräns – se officiella kartan/AIP.","authority":"OurAirports (PD) — awareness radius","dataSource":"ourairports"},"geometry":{"type":"Polygon","coordinates":[[[14.1739,46.38418],[14.17901,46.38395],[14.18402,46.38326],[14.18887,46.38213],[14.19345,46.38056],[14.19771,46.3786],[14.20155,46.37628],[14.20492,46.37362],[14.20776,46.37069],[14.21002,46.36752],[14.21166,46.36418],[14.21266,46.36072],[14.21299,46.35719],[14.21265,46.35367],[14.21166,46.35021],[14.21001,46.34687],[14.20775,46.34371],[14.2049,46.34077],[14.20153,46.33812],[14.19769,46.33579],[14.19344,46.33383],[14.18885,46.33227],[14.18401,46.33114],[14.179,46.33045],[14.1739,46.33022],[14.1688,46.33045],[14.16379,46.33114],[14.15895,46.33227],[14.15436,46.33383],[14.15011,46.33579],[14.14627,46.33812],[14.1429,46.34077],[14.14005,46.34371],[14.13779,46.34687],[14.13614,46.35021],[14.13515,46.35367],[14.13481,46.35719],[14.13514,46.36072],[14.13614,46.36418],[14.13778,46.36752],[14.14004,46.37069],[14.14288,46.37362],[14.14625,46.37628],[14.15009,46.3786],[14.15435,46.38056],[14.15893,46.38213],[14.16378,46.38326],[14.16879,46.38395],[14.1739,46.38418]]]}},{"type":"Feature","properties":{"_zoneType":"ATZ","name":"Bovec Airfield","message":"Medvetenhetsradie ~3 km runt Bovec Airfield (LJBO). Kontakta flygplatsoperatören; exakt CTR-gräns – se officiella kartan/AIP.","authority":"OurAirports (PD) — awareness radius","dataSource":"ourairports"},"geometry":{"type":"Polygon","coordinates":[[[13.55023,46.356],[13.55533,46.35577],[13.56035,46.35508],[13.56519,46.35394],[13.56978,46.35238],[13.57403,46.35042],[13.57787,46.34809],[13.58124,46.34544],[13.58408,46.3425],[13.58634,46.33934],[13.58798,46.33599],[13.58897,46.33253],[13.5893,46.32901],[13.58897,46.32549],[13.58797,46.32203],[13.58632,46.31869],[13.58406,46.31552],[13.58122,46.31259],[13.57785,46.30994],[13.57401,46.30761],[13.56976,46.30565],[13.56518,46.30409],[13.56034,46.30296],[13.55533,46.30227],[13.55023,46.30204],[13.54513,46.30227],[13.54012,46.30296],[13.53529,46.30409],[13.5307,46.30565],[13.52645,46.30761],[13.52261,46.30994],[13.51924,46.31259],[13.5164,46.31552],[13.51414,46.31869],[13.5125,46.32203],[13.5115,46.32549],[13.51116,46.32901],[13.51149,46.33253],[13.51249,46.33599],[13.51413,46.33934],[13.51639,46.3425],[13.51922,46.34544],[13.52259,46.34809],[13.52644,46.35042],[13.53069,46.35238],[13.53527,46.35394],[13.54011,46.35508],[13.54513,46.35577],[13.55023,46.356]]]}},{"type":"Feature","properties":{"_zoneType":"ATZ","name":"Cerklje ob Krki Air Base","message":"Medvetenhetsradie ~5 km runt Cerklje ob Krki Air Base (LJCE). Kontakta flygplatsoperatören; exakt CTR-gräns – se officiella kartan/AIP.","authority":"OurAirports (PD) — awareness radius","dataSource":"ourairports"},"geometry":{"type":"Polygon","coordinates":[[[15.5302,45.94497],[15.53864,45.94458],[15.54694,45.94343],[15.55495,45.94154],[15.56253,45.93894],[15.56956,45.93567],[15.57592,45.93179],[15.58149,45.92736],[15.58618,45.92247],[15.58991,45.91719],[15.59263,45.91162],[15.59427,45.90585],[15.59481,45.89998],[15.59425,45.89411],[15.5926,45.88835],[15.58988,45.88278],[15.58614,45.87751],[15.58144,45.87262],[15.57586,45.8682],[15.56951,45.86432],[15.56248,45.86106],[15.55491,45.85846],[15.54691,45.85657],[15.53863,45.85542],[15.5302,45.85504],[15.52177,45.85542],[15.51349,45.85657],[15.50549,45.85846],[15.49792,45.86106],[15.49089,45.86432],[15.48454,45.8682],[15.47896,45.87262],[15.47426,45.87751],[15.47052,45.88278],[15.4678,45.88835],[15.46615,45.89411],[15.46559,45.89998],[15.46613,45.90585],[15.46777,45.91162],[15.47049,45.91719],[15.47422,45.92247],[15.47891,45.92736],[15.48448,45.93179],[15.49084,45.93567],[15.49787,45.93894],[15.50545,45.94154],[15.51346,45.94343],[15.52176,45.94458],[15.5302,45.94497]]]}},{"type":"Feature","properties":{"_zoneType":"ATZ","name":"Celje Airfield","message":"Medvetenhetsradie ~3 km runt Celje Airfield (LJCL). Kontakta flygplatsoperatören; exakt CTR-gräns – se officiella kartan/AIP.","authority":"OurAirports (PD) — awareness radius","dataSource":"ourairports"},"geometry":{"type":"Polygon","coordinates":[[[15.2231,46.27258],[15.22819,46.27235],[15.2332,46.27166],[15.23804,46.27053],[15.24261,46.26897],[15.24686,46.267],[15.2507,46.26468],[15.25406,46.26202],[15.25689,46.25909],[15.25915,46.25592],[15.26079,46.25258],[15.26178,46.24912],[15.26211,46.2456],[15.26178,46.24207],[15.26078,46.23861],[15.25914,46.23527],[15.25688,46.23211],[15.25404,46.22917],[15.25068,46.22652],[15.24684,46.2242],[15.2426,46.22224],[15.23802,46.22068],[15.23319,46.21954],[15.22819,46.21885],[15.2231,46.21862],[15.21801,46.21885],[15.21301,46.21954],[15.20818,46.22068],[15.2036,46.22224],[15.19936,46.2242],[15.19552,46.22652],[15.19216,46.22917],[15.18932,46.23211],[15.18706,46.23527],[15.18542,46.23861],[15.18442,46.24207],[15.18409,46.2456],[15.18442,46.24912],[15.18541,46.25258],[15.18705,46.25592],[15.18931,46.25909],[15.19214,46.26202],[15.1955,46.26468],[15.19934,46.267],[15.20359,46.26897],[15.20816,46.27053],[15.213,46.27166],[15.21801,46.27235],[15.2231,46.27258]]]}},{"type":"Feature","properties":{"_zoneType":"ATZ","name":"Divača Airfield","message":"Medvetenhetsradie ~3 km runt Divača Airfield (LJDI). Kontakta flygplatsoperatören; exakt CTR-gräns – se officiella kartan/AIP.","authority":"OurAirports (PD) — awareness radius","dataSource":"ourairports"},"geometry":{"type":"Polygon","coordinates":[[[14.00323,45.70976],[14.00828,45.70953],[14.01323,45.70884],[14.01802,45.7077],[14.02255,45.70614],[14.02675,45.70418],[14.03055,45.70185],[14.03388,45.6992],[14.03669,45.69626],[14.03892,45.6931],[14.04054,45.68975],[14.04152,45.68629],[14.04185,45.68277],[14.04152,45.67925],[14.04053,45.67579],[14.03891,45.67245],[14.03667,45.66928],[14.03386,45.66635],[14.03053,45.6637],[14.02673,45.66137],[14.02253,45.65941],[14.01801,45.65785],[14.01322,45.65672],[14.00827,45.65603],[14.00323,45.6558],[13.9982,45.65603],[13.99324,45.65672],[13.98846,45.65785],[13.98393,45.65941],[13.97973,45.66137],[13.97594,45.6637],[13.97261,45.66635],[13.9698,45.66928],[13.96756,45.67245],[13.96594,45.67579],[13.96495,45.67925],[13.96462,45.68277],[13.96494,45.68629],[13.96593,45.68975],[13.96755,45.6931],[13.96978,45.69626],[13.97259,45.6992],[13.97592,45.70185],[13.97972,45.70418],[13.98392,45.70614],[13.98845,45.7077],[13.99323,45.70884],[13.99819,45.70953],[14.00323,45.70976]]]}},{"type":"Feature","properties":{"_zoneType":"ATZ","name":"Ljubljana Jože Pučnik Airport","message":"Medvetenhetsradie ~5 km runt Ljubljana Jože Pučnik Airport (LJLJ). Kontakta flygplatsoperatören; exakt CTR-gräns – se officiella kartan/AIP.","authority":"OurAirports (PD) — awareness radius","dataSource":"ourairports"},"geometry":{"type":"Polygon","coordinates":[[[14.4576,46.26867],[14.46609,46.26828],[14.47444,46.26713],[14.48249,46.26524],[14.49012,46.26264],[14.49719,46.25937],[14.50358,46.25549],[14.50919,46.25106],[14.51391,46.24617],[14.51767,46.24089],[14.52039,46.23532],[14.52205,46.22955],[14.52259,46.22368],[14.52203,46.21781],[14.52037,46.21205],[14.51763,46.20648],[14.51386,46.2012],[14.50914,46.19632],[14.50353,46.1919],[14.49714,46.18802],[14.49007,46.18475],[14.48245,46.18216],[14.47441,46.18027],[14.46608,46.17912],[14.4576,46.17873],[14.44912,46.17912],[14.44079,46.18027],[14.43275,46.18216],[14.42513,46.18475],[14.41806,46.18802],[14.41167,46.1919],[14.40606,46.19632],[14.40134,46.2012],[14.39757,46.20648],[14.39483,46.21205],[14.39317,46.21781],[14.39261,46.22368],[14.39315,46.22955],[14.39481,46.23532],[14.39753,46.24089],[14.40129,46.24617],[14.40601,46.25106],[14.41162,46.25549],[14.41801,46.25937],[14.42508,46.26264],[14.43271,46.26524],[14.44076,46.26713],[14.44911,46.26828],[14.4576,46.26867]]]}},{"type":"Feature","properties":{"_zoneType":"ATZ","name":"Maribor Edvard Rusjan Airport","message":"Medvetenhetsradie ~5 km runt Maribor Edvard Rusjan Airport (LJMB). Kontakta flygplatsoperatören; exakt CTR-gräns – se officiella kartan/AIP.","authority":"OurAirports (PD) — awareness radius","dataSource":"ourairports"},"geometry":{"type":"Polygon","coordinates":[[[15.6861,46.52487],[15.69463,46.52448],[15.70301,46.52333],[15.71111,46.52144],[15.71877,46.51884],[15.72588,46.51557],[15.7323,46.51169],[15.73793,46.50726],[15.74267,46.50237],[15.74645,46.49709],[15.74919,46.49152],[15.75085,46.48575],[15.7514,46.47988],[15.75083,46.47401],[15.74916,46.46824],[15.74641,46.46268],[15.74263,46.4574],[15.73788,46.45251],[15.73225,46.44809],[15.72583,46.44422],[15.71873,46.44095],[15.71107,46.43835],[15.70299,46.43646],[15.69462,46.43532],[15.6861,46.43493],[15.67758,46.43532],[15.66921,46.43646],[15.66113,46.43835],[15.65347,46.44095],[15.64637,46.44422],[15.63995,46.44809],[15.63432,46.45251],[15.62957,46.4574],[15.62579,46.46268],[15.62304,46.46824],[15.62137,46.47401],[15.6208,46.47988],[15.62135,46.48575],[15.62301,46.49152],[15.62575,46.49709],[15.62953,46.50237],[15.63427,46.50726],[15.6399,46.51169],[15.64632,46.51557],[15.65343,46.51884],[15.66109,46.52144],[15.66919,46.52333],[15.67757,46.52448],[15.6861,46.52487]]]}},{"type":"Feature","properties":{"_zoneType":"ATZ","name":"Murska Sobota Airfield","message":"Medvetenhetsradie ~3 km runt Murska Sobota Airfield (LJMS). Kontakta flygplatsoperatören; exakt CTR-gräns – se officiella kartan/AIP.","authority":"OurAirports (PD) — awareness radius","dataSource":"ourairports"},"geometry":{"type":"Polygon","coordinates":[[[16.175,46.65638],[16.18013,46.65615],[16.18517,46.65546],[16.19004,46.65432],[16.19465,46.65276],[16.19893,46.6508],[16.20279,46.64847],[16.20618,46.64582],[16.20903,46.64288],[16.2113,46.63972],[16.21295,46.63637],[16.21395,46.63291],[16.21429,46.62939],[16.21395,46.62587],[16.21294,46.62241],[16.21129,46.61907],[16.20901,46.6159],[16.20616,46.61297],[16.20277,46.61032],[16.19891,46.60799],[16.19463,46.60603],[16.19003,46.60447],[16.18516,46.60334],[16.18012,46.60265],[16.175,46.60242],[16.16987,46.60265],[16.16484,46.60334],[16.15997,46.60447],[16.15536,46.60603],[16.15109,46.60799],[16.14723,46.61032],[16.14384,46.61297],[16.14098,46.6159],[16.13871,46.61907],[16.13705,46.62241],[16.13605,46.62587],[16.13571,46.62939],[16.13604,46.63291],[16.13704,46.63637],[16.13869,46.63972],[16.14097,46.64288],[16.14382,46.64582],[16.14721,46.64847],[16.15107,46.6508],[16.15535,46.65276],[16.15996,46.65432],[16.16483,46.65546],[16.16987,46.65615],[16.175,46.65638]]]}},{"type":"Feature","properties":{"_zoneType":"ATZ","name":"Novo Mesto Airfield","message":"Medvetenhetsradie ~3 km runt Novo Mesto Airfield (LJNM). Kontakta flygplatsoperatören; exakt CTR-gräns – se officiella kartan/AIP.","authority":"OurAirports (PD) — awareness radius","dataSource":"ourairports"},"geometry":{"type":"Polygon","coordinates":[[[15.10454,45.82872],[15.1096,45.82849],[15.11457,45.8278],[15.11936,45.82667],[15.1239,45.82511],[15.12811,45.82314],[15.13192,45.82082],[15.13526,45.81816],[15.13807,45.81523],[15.14031,45.81206],[15.14193,45.80872],[15.14292,45.80526],[15.14324,45.80174],[15.14291,45.79822],[15.14192,45.79475],[15.14029,45.79141],[15.13805,45.78825],[15.13524,45.78531],[15.1319,45.78266],[15.12809,45.78034],[15.12389,45.77838],[15.11935,45.77682],[15.11456,45.77568],[15.10959,45.77499],[15.10454,45.77476],[15.0995,45.77499],[15.09453,45.77568],[15.08974,45.77682],[15.0852,45.77838],[15.08099,45.78034],[15.07719,45.78266],[15.07385,45.78531],[15.07104,45.78825],[15.0688,45.79141],[15.06717,45.79475],[15.06618,45.79822],[15.06584,45.80174],[15.06617,45.80526],[15.06716,45.80872],[15.06878,45.81206],[15.07102,45.81523],[15.07383,45.81816],[15.07717,45.82082],[15.08098,45.82314],[15.08519,45.82511],[15.08973,45.82667],[15.09452,45.8278],[15.09949,45.82849],[15.10454,45.82872]]]}},{"type":"Feature","properties":{"_zoneType":"ATZ","name":"Postojna Airfield","message":"Medvetenhetsradie ~3 km runt Postojna Airfield (LJPO). Kontakta flygplatsoperatören; exakt CTR-gräns – se officiella kartan/AIP.","authority":"OurAirports (PD) — awareness radius","dataSource":"ourairports"},"geometry":{"type":"Polygon","coordinates":[[[14.1947,45.77918],[14.19975,45.77895],[14.20471,45.77826],[14.2095,45.77713],[14.21404,45.77556],[14.21825,45.7736],[14.22205,45.77128],[14.22538,45.76862],[14.22819,45.76569],[14.23043,45.76252],[14.23205,45.75918],[14.23304,45.75572],[14.23337,45.75219],[14.23303,45.74867],[14.23204,45.74521],[14.23042,45.74187],[14.22818,45.73871],[14.22537,45.73577],[14.22203,45.73312],[14.21823,45.73079],[14.21402,45.72883],[14.20949,45.72727],[14.2047,45.72614],[14.19974,45.72545],[14.1947,45.72522],[14.18966,45.72545],[14.1847,45.72614],[14.17991,45.72727],[14.17538,45.72883],[14.17117,45.73079],[14.16737,45.73312],[14.16403,45.73577],[14.16122,45.73871],[14.15898,45.74187],[14.15736,45.74521],[14.15637,45.74867],[14.15603,45.75219],[14.15636,45.75572],[14.15735,45.75918],[14.15897,45.76252],[14.16121,45.76569],[14.16402,45.76862],[14.16735,45.77128],[14.17115,45.7736],[14.17536,45.77556],[14.1799,45.77713],[14.18469,45.77826],[14.18965,45.77895],[14.1947,45.77918]]]}},{"type":"Feature","properties":{"_zoneType":"ATZ","name":"Ptuj Airfield","message":"Medvetenhetsradie ~3 km runt Ptuj Airfield (LJPT). Kontakta flygplatsoperatören; exakt CTR-gräns – se officiella kartan/AIP.","authority":"OurAirports (PD) — awareness radius","dataSource":"ourairports"},"geometry":{"type":"Polygon","coordinates":[[[15.98609,46.45407],[15.9912,46.45384],[15.99623,46.45315],[16.00108,46.45201],[16.00567,46.45045],[16.00993,46.44849],[16.01378,46.44616],[16.01715,46.44351],[16.02,46.44057],[16.02226,46.43741],[16.0239,46.43407],[16.0249,46.4306],[16.02523,46.42708],[16.02489,46.42356],[16.02389,46.4201],[16.02225,46.41676],[16.01998,46.4136],[16.01713,46.41066],[16.01376,46.40801],[16.00991,46.40568],[16.00565,46.40372],[16.00106,46.40216],[15.99622,46.40103],[15.9912,46.40034],[15.98609,46.40011],[15.98098,46.40034],[15.97596,46.40103],[15.97112,46.40216],[15.96653,46.40372],[15.96227,46.40568],[15.95842,46.40801],[15.95505,46.41066],[15.9522,46.4136],[15.94993,46.41676],[15.94829,46.4201],[15.94729,46.42356],[15.94695,46.42708],[15.94728,46.4306],[15.94828,46.43407],[15.94992,46.43741],[15.95218,46.44057],[15.95503,46.44351],[15.9584,46.44616],[15.96225,46.44849],[15.96651,46.45045],[15.9711,46.45201],[15.97595,46.45315],[15.98098,46.45384],[15.98609,46.45407]]]}},{"type":"Feature","properties":{"_zoneType":"ATZ","name":"Portorož Airport","message":"Medvetenhetsradie ~5 km runt Portorož Airport (LJPZ). Kontakta flygplatsoperatören; exakt CTR-gräns – se officiella kartan/AIP.","authority":"OurAirports (PD) — awareness radius","dataSource":"ourairports"},"geometry":{"type":"Polygon","coordinates":[[[13.61595,45.51698],[13.62433,45.51659],[13.63256,45.51544],[13.64051,45.51355],[13.64803,45.51095],[13.65501,45.50768],[13.66132,45.5038],[13.66685,45.49937],[13.6715,45.49448],[13.67521,45.4892],[13.6779,45.48363],[13.67953,45.47786],[13.68007,45.47199],[13.67952,45.46612],[13.67788,45.46036],[13.67517,45.45479],[13.67146,45.44951],[13.6668,45.44463],[13.66127,45.44021],[13.65496,45.43633],[13.64799,45.43306],[13.64047,45.43046],[13.63253,45.42857],[13.62431,45.42743],[13.61595,45.42704],[13.60759,45.42743],[13.59937,45.42857],[13.59143,45.43046],[13.58391,45.43306],[13.57694,45.43633],[13.57064,45.44021],[13.5651,45.44463],[13.56044,45.44951],[13.55673,45.45479],[13.55403,45.46036],[13.55238,45.46612],[13.55183,45.47199],[13.55237,45.47786],[13.554,45.48363],[13.55669,45.4892],[13.5604,45.49448],[13.56505,45.49937],[13.57058,45.5038],[13.57689,45.50768],[13.58387,45.51095],[13.59139,45.51355],[13.59934,45.51544],[13.60757,45.51659],[13.61595,45.51698]]]}},{"type":"Feature","properties":{"_zoneType":"ATZ","name":"Slovenj Gradec Airfield","message":"Medvetenhetsradie ~3 km runt Slovenj Gradec Airfield (LJSG). Kontakta flygplatsoperatören; exakt CTR-gräns – se officiella kartan/AIP.","authority":"OurAirports (PD) — awareness radius","dataSource":"ourairports"},"geometry":{"type":"Polygon","coordinates":[[[15.117,46.49898],[15.12212,46.49875],[15.12714,46.49806],[15.132,46.49692],[15.1366,46.49536],[15.14086,46.4934],[15.14471,46.49107],[15.14809,46.48842],[15.15093,46.48548],[15.1532,46.48232],[15.15484,46.47898],[15.15584,46.47551],[15.15617,46.47199],[15.15584,46.46847],[15.15483,46.46501],[15.15319,46.46167],[15.15092,46.45851],[15.14807,46.45557],[15.14469,46.45292],[15.14084,46.45059],[15.13658,46.44863],[15.13198,46.44707],[15.12713,46.44594],[15.12211,46.44525],[15.117,46.44502],[15.11189,46.44525],[15.10687,46.44594],[15.10202,46.44707],[15.09742,46.44863],[15.09316,46.45059],[15.08931,46.45292],[15.08593,46.45557],[15.08308,46.45851],[15.08081,46.46167],[15.07917,46.46501],[15.07816,46.46847],[15.07783,46.47199],[15.07816,46.47551],[15.07916,46.47898],[15.0808,46.48232],[15.08307,46.48548],[15.08591,46.48842],[15.08929,46.49107],[15.09314,46.4934],[15.0974,46.49536],[15.102,46.49692],[15.10686,46.49806],[15.11188,46.49875],[15.117,46.49898]]]}},{"type":"Feature","properties":{"_zoneType":"ATZ","name":"Slovenske Konjice Airfield","message":"Medvetenhetsradie ~3 km runt Slovenske Konjice Airfield (LJSK). Kontakta flygplatsoperatören; exakt CTR-gräns – se officiella kartan/AIP.","authority":"OurAirports (PD) — awareness radius","dataSource":"ourairports"},"geometry":{"type":"Polygon","coordinates":[[[15.49202,46.33731],[15.49712,46.33708],[15.50214,46.33639],[15.50698,46.33525],[15.51156,46.33369],[15.51581,46.33173],[15.51965,46.3294],[15.52302,46.32675],[15.52586,46.32381],[15.52812,46.32065],[15.52976,46.31731],[15.53075,46.31385],[15.53108,46.31032],[15.53075,46.3068],[15.52975,46.30334],[15.5281,46.3],[15.52584,46.29684],[15.523,46.2939],[15.51963,46.29125],[15.51579,46.28892],[15.51154,46.28696],[15.50696,46.2854],[15.50213,46.28427],[15.49712,46.28358],[15.49202,46.28335],[15.48693,46.28358],[15.48192,46.28427],[15.47708,46.2854],[15.4725,46.28696],[15.46826,46.28892],[15.46442,46.29125],[15.46105,46.2939],[15.45821,46.29684],[15.45595,46.3],[15.4543,46.30334],[15.4533,46.3068],[15.45297,46.31032],[15.4533,46.31385],[15.45429,46.31731],[15.45593,46.32065],[15.45819,46.32381],[15.46103,46.32675],[15.4644,46.3294],[15.46824,46.33173],[15.47249,46.33369],[15.47707,46.33525],[15.48191,46.33639],[15.48692,46.33708],[15.49202,46.33731]]]}},{"type":"Feature","properties":{"_zoneType":"ATZ","name":"Šoštanj Airfield","message":"Medvetenhetsradie ~3 km runt Šoštanj Airfield (LJVE). Kontakta flygplatsoperatören; exakt CTR-gräns – se officiella kartan/AIP.","authority":"OurAirports (PD) — awareness radius","dataSource":"ourairports"},"geometry":{"type":"Polygon","coordinates":[[[15.0453,46.42448],[15.05041,46.42425],[15.05543,46.42356],[15.06028,46.42242],[15.06487,46.42086],[15.06912,46.4189],[15.07297,46.41657],[15.07635,46.41392],[15.07919,46.41098],[15.08145,46.40782],[15.08309,46.40448],[15.08409,46.40101],[15.08442,46.39749],[15.08408,46.39397],[15.08308,46.39051],[15.08144,46.38717],[15.07917,46.384],[15.07633,46.38107],[15.07295,46.37842],[15.06911,46.37609],[15.06485,46.37413],[15.06026,46.37257],[15.05542,46.37144],[15.0504,46.37075],[15.0453,46.37052],[15.0402,46.37075],[15.03518,46.37144],[15.03034,46.37257],[15.02575,46.37413],[15.02149,46.37609],[15.01765,46.37842],[15.01427,46.38107],[15.01143,46.384],[15.00916,46.38717],[15.00752,46.39051],[15.00652,46.39397],[15.00618,46.39749],[15.00651,46.40101],[15.00751,46.40448],[15.00915,46.40782],[15.01141,46.41098],[15.01425,46.41392],[15.01763,46.41657],[15.02148,46.4189],[15.02573,46.42086],[15.03032,46.42242],[15.03517,46.42356],[15.04019,46.42425],[15.0453,46.42448]]]}},{"type":"Feature","properties":{"_zoneType":"ATZ","name":"Dobova Airfield","message":"Medvetenhetsradie ~3 km runt Dobova Airfield (SI-0001). Kontakta flygplatsoperatören; exakt CTR-gräns – se officiella kartan/AIP.","authority":"OurAirports (PD) — awareness radius","dataSource":"ourairports"},"geometry":{"type":"Polygon","coordinates":[[[15.65092,45.91403],[15.65599,45.91379],[15.66096,45.91311],[15.66576,45.91197],[15.67031,45.91041],[15.67453,45.90845],[15.67834,45.90612],[15.68168,45.90347],[15.6845,45.90053],[15.68674,45.89737],[15.68837,45.89402],[15.68936,45.89056],[15.68968,45.88704],[15.68935,45.88352],[15.68836,45.88006],[15.68673,45.87672],[15.68448,45.87355],[15.68167,45.87062],[15.67832,45.86797],[15.67451,45.86564],[15.6703,45.86368],[15.66575,45.86212],[15.66095,45.86099],[15.65598,45.8603],[15.65092,45.86007],[15.64587,45.8603],[15.6409,45.86099],[15.6361,45.86212],[15.63155,45.86368],[15.62734,45.86564],[15.62353,45.86797],[15.62018,45.87062],[15.61737,45.87355],[15.61512,45.87672],[15.61349,45.88006],[15.6125,45.88352],[15.61217,45.88704],[15.61249,45.89056],[15.61348,45.89402],[15.61511,45.89737],[15.61735,45.90053],[15.62017,45.90347],[15.62351,45.90612],[15.62732,45.90845],[15.63154,45.91041],[15.63609,45.91197],[15.64089,45.91311],[15.64586,45.91379],[15.65092,45.91403]]]}},{"type":"Feature","properties":{"_zoneType":"ATZ","name":"Mostje Lendava Airfield","message":"Medvetenhetsradie ~3 km runt Mostje Lendava Airfield (SI-0002). Kontakta flygplatsoperatören; exakt CTR-gräns – se officiella kartan/AIP.","authority":"OurAirports (PD) — awareness radius","dataSource":"ourairports"},"geometry":{"type":"Polygon","coordinates":[[[16.43207,46.62664],[16.4372,46.6264],[16.44224,46.62572],[16.4471,46.62458],[16.45171,46.62302],[16.45598,46.62106],[16.45985,46.61873],[16.46323,46.61608],[16.46609,46.61314],[16.46836,46.60997],[16.47,46.60663],[16.471,46.60317],[16.47134,46.59965],[16.471,46.59613],[16.46999,46.59267],[16.46834,46.58933],[16.46607,46.58616],[16.46321,46.58323],[16.45983,46.58058],[16.45597,46.57825],[16.4517,46.57629],[16.44709,46.57473],[16.44223,46.5736],[16.43719,46.57291],[16.43207,46.57268],[16.42695,46.57291],[16.42191,46.5736],[16.41705,46.57473],[16.41245,46.57629],[16.40818,46.57825],[16.40432,46.58058],[16.40093,46.58323],[16.39807,46.58616],[16.3958,46.58933],[16.39415,46.59267],[16.39314,46.59613],[16.3928,46.59965],[16.39314,46.60317],[16.39414,46.60663],[16.39579,46.60997],[16.39806,46.61314],[16.40091,46.61608],[16.4043,46.61873],[16.40816,46.62106],[16.41243,46.62302],[16.41704,46.62458],[16.4219,46.62572],[16.42694,46.6264],[16.43207,46.62664]]]}},{"type":"Feature","properties":{"_zoneType":"ATZ","name":"Krapje Veržej Airfield","message":"Medvetenhetsradie ~3 km runt Krapje Veržej Airfield (SI-0003). Kontakta flygplatsoperatören; exakt CTR-gräns – se officiella kartan/AIP.","authority":"OurAirports (PD) — awareness radius","dataSource":"ourairports"},"geometry":{"type":"Polygon","coordinates":[[[16.19097,46.59966],[16.1961,46.59943],[16.20114,46.59874],[16.206,46.59761],[16.2106,46.59605],[16.21487,46.59409],[16.21873,46.59176],[16.22212,46.5891],[16.22497,46.58617],[16.22724,46.583],[16.22889,46.57966],[16.22989,46.5762],[16.23022,46.57268],[16.22988,46.56916],[16.22888,46.5657],[16.22723,46.56235],[16.22495,46.55919],[16.2221,46.55626],[16.21871,46.5536],[16.21486,46.55128],[16.21059,46.54932],[16.20599,46.54776],[16.20113,46.54662],[16.19609,46.54594],[16.19097,46.54571],[16.18585,46.54594],[16.18082,46.54662],[16.17596,46.54776],[16.17136,46.54932],[16.16709,46.55128],[16.16323,46.5536],[16.15985,46.55626],[16.15699,46.55919],[16.15472,46.56235],[16.15307,46.5657],[16.15206,46.56916],[16.15173,46.57268],[16.15206,46.5762],[16.15306,46.57966],[16.15471,46.583],[16.15698,46.58617],[16.15983,46.5891],[16.16321,46.59176],[16.16707,46.59409],[16.17134,46.59605],[16.17595,46.59761],[16.18081,46.59874],[16.18585,46.59943],[16.19097,46.59966]]]}},{"type":"Feature","properties":{"_zoneType":"ATZ","name":"Marič Airfield","message":"Medvetenhetsradie ~3 km runt Marič Airfield (SI-0004). Kontakta flygplatsoperatören; exakt CTR-gräns – se officiella kartan/AIP.","authority":"OurAirports (PD) — awareness radius","dataSource":"ourairports"},"geometry":{"type":"Polygon","coordinates":[[[16.20375,46.70914],[16.20888,46.7089],[16.21393,46.70822],[16.2188,46.70708],[16.22342,46.70552],[16.22769,46.70356],[16.23156,46.70123],[16.23495,46.69858],[16.23781,46.69564],[16.24008,46.69247],[16.24174,46.68913],[16.24274,46.68567],[16.24307,46.68215],[16.24273,46.67863],[16.24173,46.67517],[16.24007,46.67183],[16.23779,46.66866],[16.23494,46.66573],[16.23154,46.66308],[16.22768,46.66075],[16.2234,46.65879],[16.21879,46.65723],[16.21392,46.6561],[16.20888,46.65541],[16.20375,46.65518],[16.19861,46.65541],[16.19357,46.6561],[16.1887,46.65723],[16.18409,46.65879],[16.17981,46.66075],[16.17595,46.66308],[16.17255,46.66573],[16.1697,46.66866],[16.16742,46.67183],[16.16576,46.67517],[16.16476,46.67863],[16.16442,46.68215],[16.16475,46.68567],[16.16575,46.68913],[16.16741,46.69247],[16.16968,46.69564],[16.17254,46.69858],[16.17593,46.70123],[16.1798,46.70356],[16.18407,46.70552],[16.18869,46.70708],[16.19356,46.70822],[16.19861,46.7089],[16.20375,46.70914]]]}},{"type":"Feature","properties":{"_zoneType":"ATZ","name":"Metlika Prilozje Airfield","message":"Medvetenhetsradie ~3 km runt Metlika Prilozje Airfield (SI-0005). Kontakta flygplatsoperatören; exakt CTR-gräns – se officiella kartan/AIP.","authority":"OurAirports (PD) — awareness radius","dataSource":"ourairports"},"geometry":{"type":"Polygon","coordinates":[[[15.2597,45.61594],[15.26473,45.61571],[15.26968,45.61502],[15.27446,45.61388],[15.27898,45.61232],[15.28318,45.61036],[15.28697,45.60803],[15.2903,45.60538],[15.2931,45.60244],[15.29533,45.59928],[15.29694,45.59594],[15.29793,45.59248],[15.29825,45.58895],[15.29792,45.58543],[15.29694,45.58197],[15.29531,45.57863],[15.29308,45.57547],[15.29028,45.57253],[15.28695,45.56988],[15.28316,45.56755],[15.27897,45.56559],[15.27445,45.56403],[15.26967,45.5629],[15.26473,45.56221],[15.2597,45.56198],[15.25467,45.56221],[15.24973,45.5629],[15.24495,45.56403],[15.24043,45.56559],[15.23624,45.56755],[15.23245,45.56988],[15.22912,45.57253],[15.22632,45.57547],[15.22409,45.57863],[15.22246,45.58197],[15.22148,45.58543],[15.22115,45.58895],[15.22147,45.59248],[15.22246,45.59594],[15.22407,45.59928],[15.2263,45.60244],[15.2291,45.60538],[15.23243,45.60803],[15.23622,45.61036],[15.24042,45.61232],[15.24494,45.61388],[15.24972,45.61502],[15.25467,45.61571],[15.2597,45.61594]]]}},{"type":"Feature","properties":{"_zoneType":"ATZ","name":"Novi Lazi Airstrip","message":"Medvetenhetsradie ~3 km runt Novi Lazi Airstrip (SI-0006). Kontakta flygplatsoperatören; exakt CTR-gräns – se officiella kartan/AIP.","authority":"OurAirports (PD) — awareness radius","dataSource":"ourairports"},"geometry":{"type":"Polygon","coordinates":[[[14.85716,45.59843],[14.8622,45.5982],[14.86714,45.59751],[14.87192,45.59638],[14.87644,45.59482],[14.88063,45.59286],[14.88443,45.59053],[14.88775,45.58788],[14.89055,45.58494],[14.89278,45.58177],[14.8944,45.57843],[14.89538,45.57497],[14.8957,45.57145],[14.89537,45.56793],[14.89439,45.56447],[14.89276,45.56112],[14.89053,45.55796],[14.88773,45.55503],[14.88441,45.55237],[14.88062,45.55005],[14.87643,45.54809],[14.87191,45.54653],[14.86713,45.54539],[14.86219,45.54471],[14.85716,45.54448],[14.85213,45.54471],[14.84719,45.54539],[14.84242,45.54653],[14.8379,45.54809],[14.83371,45.55005],[14.82992,45.55237],[14.8266,45.55503],[14.82379,45.55796],[14.82156,45.56112],[14.81994,45.56447],[14.81895,45.56793],[14.81862,45.57145],[14.81895,45.57497],[14.81993,45.57843],[14.82155,45.58177],[14.82378,45.58494],[14.82658,45.58788],[14.8299,45.59053],[14.83369,45.59286],[14.83788,45.59482],[14.84241,45.59638],[14.84718,45.59751],[14.85213,45.5982],[14.85716,45.59843]]]}},{"type":"Feature","properties":{"_zoneType":"ATZ","name":"Cerkvenjak-Čagona Airfield","message":"Medvetenhetsradie ~3 km runt Cerkvenjak-Čagona Airfield (SI-0007). Kontakta flygplatsoperatören; exakt CTR-gräns – se officiella kartan/AIP.","authority":"OurAirports (PD) — awareness radius","dataSource":"ourairports"},"geometry":{"type":"Polygon","coordinates":[[[15.91521,46.5747],[15.92034,46.57447],[15.92537,46.57378],[15.93023,46.57265],[15.93484,46.57109],[15.9391,46.56913],[15.94296,46.5668],[15.94634,46.56414],[15.94919,46.56121],[15.95146,46.55804],[15.95311,46.5547],[15.95411,46.55124],[15.95444,46.54772],[15.9541,46.5442],[15.9531,46.54074],[15.95145,46.53739],[15.94918,46.53423],[15.94633,46.5313],[15.94294,46.52864],[15.93908,46.52632],[15.93482,46.52436],[15.93022,46.5228],[15.92536,46.52166],[15.92033,46.52098],[15.91521,46.52075],[15.9101,46.52098],[15.90506,46.52166],[15.90021,46.5228],[15.89561,46.52436],[15.89134,46.52632],[15.88748,46.52864],[15.8841,46.5313],[15.88125,46.53423],[15.87898,46.53739],[15.87733,46.54074],[15.87632,46.5442],[15.87598,46.54772],[15.87632,46.55124],[15.87732,46.5547],[15.87896,46.55804],[15.88123,46.56121],[15.88408,46.56414],[15.88746,46.5668],[15.89132,46.56913],[15.89559,46.57109],[15.90019,46.57265],[15.90505,46.57378],[15.91009,46.57447],[15.91521,46.5747]]]}},{"type":"Feature","properties":{"_zoneType":"ATZ","name":"Imeno Field","message":"Medvetenhetsradie ~3 km runt Imeno Field (SI-0009). Kontakta flygplatsoperatören; exakt CTR-gräns – se officiella kartan/AIP.","authority":"OurAirports (PD) — awareness radius","dataSource":"ourairports"},"geometry":{"type":"Polygon","coordinates":[[[15.60371,46.15367],[15.60879,46.15344],[15.61379,46.15275],[15.61861,46.15161],[15.62318,46.15005],[15.62742,46.14809],[15.63124,46.14576],[15.6346,46.14311],[15.63743,46.14017],[15.63968,46.13701],[15.64131,46.13367],[15.64231,46.13021],[15.64264,46.12668],[15.6423,46.12316],[15.6413,46.1197],[15.63967,46.11636],[15.63741,46.1132],[15.63458,46.11026],[15.63122,46.10761],[15.6274,46.10528],[15.62316,46.10332],[15.6186,46.10176],[15.61378,46.10063],[15.60879,46.09994],[15.60371,46.09971],[15.59863,46.09994],[15.59364,46.10063],[15.58882,46.10176],[15.58425,46.10332],[15.58002,46.10528],[15.57619,46.10761],[15.57283,46.11026],[15.57,46.1132],[15.56775,46.11636],[15.56611,46.1197],[15.56512,46.12316],[15.56478,46.12668],[15.56511,46.13021],[15.5661,46.13367],[15.56774,46.13701],[15.56999,46.14017],[15.57282,46.14311],[15.57617,46.14576],[15.58,46.14809],[15.58424,46.15005],[15.5888,46.15161],[15.59363,46.15275],[15.59862,46.15344],[15.60371,46.15367]]]}},{"type":"Feature","properties":{"_zoneType":"ATZ","name":"Kamnik - Dulnica Airfield","message":"Medvetenhetsradie ~3 km runt Kamnik - Dulnica Airfield (SI-0010). Kontakta flygplatsoperatören; exakt CTR-gräns – se officiella kartan/AIP.","authority":"OurAirports (PD) — awareness radius","dataSource":"ourairports"},"geometry":{"type":"Polygon","coordinates":[[[14.58098,46.22402],[14.58607,46.22379],[14.59107,46.2231],[14.5959,46.22196],[14.60048,46.2204],[14.60472,46.21844],[14.60855,46.21611],[14.61191,46.21346],[14.61475,46.21052],[14.617,46.20736],[14.61864,46.20401],[14.61963,46.20055],[14.61996,46.19703],[14.61962,46.19351],[14.61863,46.19005],[14.61699,46.18671],[14.61473,46.18354],[14.6119,46.18061],[14.60853,46.17796],[14.6047,46.17563],[14.60046,46.17367],[14.59589,46.17211],[14.59107,46.17098],[14.58607,46.17029],[14.58098,46.17006],[14.5759,46.17029],[14.5709,46.17098],[14.56607,46.17211],[14.5615,46.17367],[14.55726,46.17563],[14.55343,46.17796],[14.55007,46.18061],[14.54723,46.18354],[14.54498,46.18671],[14.54334,46.19005],[14.54234,46.19351],[14.542,46.19703],[14.54234,46.20055],[14.54333,46.20401],[14.54496,46.20736],[14.54722,46.21052],[14.55005,46.21346],[14.55341,46.21611],[14.55724,46.21844],[14.56148,46.2204],[14.56606,46.22196],[14.57089,46.2231],[14.57589,46.22379],[14.58098,46.22402]]]}},{"type":"Feature","properties":{"_zoneType":"ATZ","name":"Šentvid pri Stični Airfield","message":"Medvetenhetsradie ~3 km runt Šentvid pri Stični Airfield (SI-0011). Kontakta flygplatsoperatören; exakt CTR-gräns – se officiella kartan/AIP.","authority":"OurAirports (PD) — awareness radius","dataSource":"ourairports"},"geometry":{"type":"Polygon","coordinates":[[[14.85058,45.97109],[14.85565,45.97086],[14.86063,45.97017],[14.86544,45.96904],[14.86999,45.96748],[14.87421,45.96551],[14.87803,45.96319],[14.88137,45.96053],[14.88419,45.9576],[14.88644,45.95443],[14.88807,45.95109],[14.88905,45.94763],[14.88938,45.94411],[14.88905,45.94058],[14.88806,45.93712],[14.88642,45.93378],[14.88418,45.93062],[14.88136,45.92768],[14.87801,45.92503],[14.87419,45.92271],[14.86997,45.92075],[14.86542,45.91919],[14.86062,45.91805],[14.85564,45.91736],[14.85058,45.91713],[14.84552,45.91736],[14.84055,45.91805],[14.83574,45.91919],[14.83119,45.92075],[14.82697,45.92271],[14.82316,45.92503],[14.81981,45.92768],[14.81699,45.93062],[14.81474,45.93378],[14.81311,45.93712],[14.81212,45.94058],[14.81178,45.94411],[14.81211,45.94763],[14.8131,45.95109],[14.81473,45.95443],[14.81697,45.9576],[14.81979,45.96053],[14.82314,45.96319],[14.82695,45.96551],[14.83118,45.96748],[14.83573,45.96904],[14.84054,45.97017],[14.84552,45.97086],[14.85058,45.97109]]]}},{"type":"Feature","properties":{"_zoneType":"ATZ","name":"Pobrežje Airfield","message":"Medvetenhetsradie ~3 km runt Pobrežje Airfield (SI-0012). Kontakta flygplatsoperatören; exakt CTR-gräns – se officiella kartan/AIP.","authority":"OurAirports (PD) — awareness radius","dataSource":"ourairports"},"geometry":{"type":"Polygon","coordinates":[[[14.90452,46.33128],[14.90963,46.33104],[14.91464,46.33036],[14.91948,46.32922],[14.92406,46.32766],[14.92831,46.3257],[14.93215,46.32337],[14.93552,46.32072],[14.93836,46.31778],[14.94061,46.31461],[14.94225,46.31127],[14.94325,46.30781],[14.94358,46.30429],[14.94324,46.30077],[14.94224,46.29731],[14.9406,46.29397],[14.93834,46.2908],[14.9355,46.28787],[14.93213,46.28522],[14.92829,46.28289],[14.92404,46.28093],[14.91946,46.27937],[14.91463,46.27824],[14.90962,46.27755],[14.90452,46.27732],[14.89943,46.27755],[14.89442,46.27824],[14.88959,46.27937],[14.88501,46.28093],[14.88076,46.28289],[14.87692,46.28522],[14.87355,46.28787],[14.87071,46.2908],[14.86845,46.29397],[14.86681,46.29731],[14.86581,46.30077],[14.86547,46.30429],[14.8658,46.30781],[14.8668,46.31127],[14.86844,46.31461],[14.87069,46.31778],[14.87353,46.32072],[14.8769,46.32337],[14.88074,46.3257],[14.88499,46.32766],[14.88957,46.32922],[14.89441,46.33036],[14.89942,46.33104],[14.90452,46.33128]]]}},{"type":"Feature","properties":{"_zoneType":"ATZ","name":"Kaplja Vas ULM","message":"Medvetenhetsradie ~3 km runt Kaplja Vas ULM (SI-0013). Kontakta flygplatsoperatören; exakt CTR-gräns – se officiella kartan/AIP.","authority":"OurAirports (PD) — awareness radius","dataSource":"ourairports"},"geometry":{"type":"Polygon","coordinates":[[[15.07335,46.26936],[15.07844,46.26913],[15.08345,46.26844],[15.08829,46.2673],[15.09286,46.26574],[15.09711,46.26378],[15.10094,46.26145],[15.10431,46.2588],[15.10714,46.25586],[15.1094,46.2527],[15.11104,46.24936],[15.11203,46.24589],[15.11236,46.24237],[15.11202,46.23885],[15.11103,46.23539],[15.10938,46.23205],[15.10713,46.22888],[15.10429,46.22595],[15.10092,46.2233],[15.09709,46.22097],[15.09285,46.21901],[15.08827,46.21745],[15.08344,46.21632],[15.07844,46.21563],[15.07335,46.2154],[15.06826,46.21563],[15.06326,46.21632],[15.05843,46.21745],[15.05385,46.21901],[15.04961,46.22097],[15.04578,46.2233],[15.04241,46.22595],[15.03957,46.22888],[15.03732,46.23205],[15.03567,46.23539],[15.03468,46.23885],[15.03434,46.24237],[15.03467,46.24589],[15.03566,46.24936],[15.0373,46.2527],[15.03956,46.25586],[15.04239,46.2588],[15.04576,46.26145],[15.04959,46.26378],[15.05384,46.26574],[15.05841,46.2673],[15.06325,46.26844],[15.06826,46.26913],[15.07335,46.26936]]]}},{"type":"Feature","properties":{"_zoneType":"ATZ","name":"Andoljšek - Ribnica Ultralight Field","message":"Medvetenhetsradie ~3 km runt Andoljšek - Ribnica Ultralight Field (SI-0014). Kontakta flygplatsoperatören; exakt CTR-gräns – se officiella kartan/AIP.","authority":"OurAirports (PD) — awareness radius","dataSource":"ourairports"},"geometry":{"type":"Polygon","coordinates":[[[14.713,45.77091],[14.71805,45.77068],[14.72301,45.76999],[14.7278,45.76886],[14.73234,45.7673],[14.73654,45.76534],[14.74035,45.76301],[14.74368,45.76036],[14.74649,45.75742],[14.74872,45.75425],[14.75035,45.75091],[14.75133,45.74745],[14.75166,45.74393],[14.75133,45.74041],[14.75034,45.73695],[14.74871,45.7336],[14.74647,45.73044],[14.74366,45.72751],[14.74033,45.72485],[14.73653,45.72253],[14.73232,45.72057],[14.72779,45.71901],[14.723,45.71787],[14.71804,45.71719],[14.713,45.71696],[14.70796,45.71719],[14.703,45.71787],[14.69821,45.71901],[14.69368,45.72057],[14.68947,45.72253],[14.68567,45.72485],[14.68234,45.72751],[14.67953,45.73044],[14.67729,45.7336],[14.67566,45.73695],[14.67467,45.74041],[14.67434,45.74393],[14.67467,45.74745],[14.67565,45.75091],[14.67728,45.75425],[14.67951,45.75742],[14.68232,45.76036],[14.68565,45.76301],[14.68946,45.76534],[14.69366,45.7673],[14.6982,45.76886],[14.70299,45.76999],[14.70795,45.77068],[14.713,45.77091]]]}},{"type":"Feature","properties":{"_zoneType":"ATZ","name":"Radenci Airfield","message":"Medvetenhetsradie ~3 km runt Radenci Airfield (SI-0015). Kontakta flygplatsoperatören; exakt CTR-gräns – se officiella kartan/AIP.","authority":"OurAirports (PD) — awareness radius","dataSource":"ourairports"},"geometry":{"type":"Polygon","coordinates":[[[16.04624,46.65558],[16.05137,46.65535],[16.05642,46.65466],[16.06129,46.65353],[16.0659,46.65197],[16.07017,46.65001],[16.07403,46.64768],[16.07742,46.64502],[16.08028,46.64209],[16.08255,46.63892],[16.0842,46.63558],[16.0852,46.63212],[16.08553,46.6286],[16.08519,46.62508],[16.08419,46.62162],[16.08253,46.61827],[16.08026,46.61511],[16.0774,46.61218],[16.07401,46.60952],[16.07015,46.6072],[16.06588,46.60524],[16.06127,46.60368],[16.05641,46.60254],[16.05137,46.60186],[16.04624,46.60163],[16.04112,46.60186],[16.03608,46.60254],[16.03122,46.60368],[16.02661,46.60524],[16.02234,46.6072],[16.01847,46.60952],[16.01508,46.61218],[16.01223,46.61511],[16.00995,46.61827],[16.0083,46.62162],[16.0073,46.62508],[16.00696,46.6286],[16.00729,46.63212],[16.00829,46.63558],[16.00994,46.63892],[16.01221,46.64209],[16.01507,46.64502],[16.01845,46.64768],[16.02232,46.65001],[16.02659,46.65197],[16.0312,46.65353],[16.03607,46.65466],[16.04111,46.65535],[16.04624,46.65558]]]}},{"type":"Feature","properties":{"_zoneType":"ATZ","name":"Gorica pri Šmartnem Airstrip","message":"Medvetenhetsradie ~3 km runt Gorica pri Šmartnem Airstrip (SI-0016). Kontakta flygplatsoperatören; exakt CTR-gräns – se officiella kartan/AIP.","authority":"OurAirports (PD) — awareness radius","dataSource":"ourairports"},"geometry":{"type":"Polygon","coordinates":[[[15.23875,46.29777],[15.24385,46.29754],[15.24886,46.29685],[15.25369,46.29571],[15.25827,46.29415],[15.26252,46.29219],[15.26636,46.28986],[15.26972,46.28721],[15.27256,46.28427],[15.27482,46.28111],[15.27646,46.27777],[15.27745,46.27431],[15.27778,46.27078],[15.27744,46.26726],[15.27645,46.2638],[15.2748,46.26046],[15.27254,46.2573],[15.26971,46.25436],[15.26634,46.25171],[15.2625,46.24938],[15.25826,46.24742],[15.25368,46.24586],[15.24885,46.24473],[15.24384,46.24404],[15.23875,46.24381],[15.23366,46.24404],[15.22865,46.24473],[15.22382,46.24586],[15.21924,46.24742],[15.215,46.24938],[15.21116,46.25171],[15.20779,46.25436],[15.20496,46.2573],[15.2027,46.26046],[15.20105,46.2638],[15.20006,46.26726],[15.19972,46.27078],[15.20005,46.27431],[15.20104,46.27777],[15.20268,46.28111],[15.20494,46.28427],[15.20778,46.28721],[15.21114,46.28986],[15.21498,46.29219],[15.21923,46.29415],[15.22381,46.29571],[15.22864,46.29685],[15.23365,46.29754],[15.23875,46.29777]]]}},{"type":"Feature","properties":{"_zoneType":"ATZ","name":"Zgornja Kostrivnica ULM","message":"Medvetenhetsradie ~3 km runt Zgornja Kostrivnica ULM (SI-0017). Kontakta flygplatsoperatören; exakt CTR-gräns – se officiella kartan/AIP.","authority":"OurAirports (PD) — awareness radius","dataSource":"ourairports"},"geometry":{"type":"Polygon","coordinates":[[[15.58468,46.28539],[15.58977,46.28516],[15.59478,46.28447],[15.59962,46.28334],[15.6042,46.28177],[15.60844,46.27981],[15.61228,46.27749],[15.61564,46.27483],[15.61848,46.2719],[15.62073,46.26873],[15.62237,46.26539],[15.62337,46.26193],[15.6237,46.2584],[15.62336,46.25488],[15.62236,46.25142],[15.62072,46.24808],[15.61846,46.24492],[15.61562,46.24198],[15.61226,46.23933],[15.60842,46.237],[15.60418,46.23504],[15.5996,46.23348],[15.59477,46.23235],[15.58977,46.23166],[15.58468,46.23143],[15.57959,46.23166],[15.57458,46.23235],[15.56975,46.23348],[15.56517,46.23504],[15.56093,46.237],[15.55709,46.23933],[15.55373,46.24198],[15.55089,46.24492],[15.54863,46.24808],[15.54699,46.25142],[15.54599,46.25488],[15.54565,46.2584],[15.54599,46.26193],[15.54698,46.26539],[15.54862,46.26873],[15.55087,46.2719],[15.55371,46.27483],[15.55707,46.27749],[15.56091,46.27981],[15.56516,46.28177],[15.56974,46.28334],[15.57457,46.28447],[15.57958,46.28516],[15.58468,46.28539]]]}},{"type":"Feature","properties":{"_zoneType":"ATZ","name":"Podpeč Airfield","message":"Medvetenhetsradie ~3 km runt Podpeč Airfield (SI-0018). Kontakta flygplatsoperatören; exakt CTR-gräns – se officiella kartan/AIP.","authority":"OurAirports (PD) — awareness radius","dataSource":"ourairports"},"geometry":{"type":"Polygon","coordinates":[[[14.41235,46.00043],[14.41741,46.0002],[14.4224,45.99951],[14.42721,45.99837],[14.43176,45.99681],[14.43599,45.99485],[14.4398,45.99252],[14.44315,45.98987],[14.44597,45.98693],[14.44822,45.98377],[14.44985,45.98042],[14.45084,45.97696],[14.45117,45.97344],[14.45083,45.96992],[14.44984,45.96646],[14.4482,45.96312],[14.44596,45.95995],[14.44313,45.95702],[14.43979,45.95437],[14.43597,45.95204],[14.43175,45.95008],[14.42719,45.94852],[14.42239,45.94739],[14.41741,45.9467],[14.41235,45.94647],[14.40728,45.9467],[14.4023,45.94739],[14.3975,45.94852],[14.39294,45.95008],[14.38872,45.95204],[14.3849,45.95437],[14.38156,45.95702],[14.37873,45.95995],[14.37649,45.96312],[14.37485,45.96646],[14.37386,45.96992],[14.37352,45.97344],[14.37385,45.97696],[14.37484,45.98042],[14.37647,45.98377],[14.37872,45.98693],[14.38154,45.98987],[14.38489,45.99252],[14.3887,45.99485],[14.39293,45.99681],[14.39748,45.99837],[14.40229,45.99951],[14.40728,46.0002],[14.41235,46.00043]]]}},{"type":"Feature","properties":{"_zoneType":"ATZ","name":"Črnotiče Airfield","message":"Medvetenhetsradie ~3 km runt Črnotiče Airfield (SI-0019). Kontakta flygplatsoperatören; exakt CTR-gräns – se officiella kartan/AIP.","authority":"OurAirports (PD) — awareness radius","dataSource":"ourairports"},"geometry":{"type":"Polygon","coordinates":[[[13.91304,45.58417],[13.91807,45.58394],[13.92302,45.58325],[13.92779,45.58212],[13.93231,45.58056],[13.93651,45.57859],[13.9403,45.57627],[13.94362,45.57361],[13.94642,45.57068],[13.94865,45.56751],[13.95026,45.56417],[13.95124,45.56071],[13.95157,45.55719],[13.95124,45.55367],[13.95025,45.5502],[13.94863,45.54686],[13.9464,45.5437],[13.9436,45.54076],[13.94028,45.53811],[13.93649,45.53579],[13.9323,45.53383],[13.92778,45.53227],[13.92301,45.53113],[13.91807,45.53044],[13.91304,45.53021],[13.90801,45.53044],[13.90307,45.53113],[13.8983,45.53227],[13.89378,45.53383],[13.88959,45.53579],[13.8858,45.53811],[13.88248,45.54076],[13.87968,45.5437],[13.87745,45.54686],[13.87583,45.5502],[13.87484,45.55367],[13.87451,45.55719],[13.87484,45.56071],[13.87582,45.56417],[13.87743,45.56751],[13.87966,45.57068],[13.88246,45.57361],[13.88578,45.57627],[13.88957,45.57859],[13.89377,45.58056],[13.89829,45.58212],[13.90306,45.58325],[13.90801,45.58394],[13.91304,45.58417]]]}},{"type":"Feature","properties":{"_zoneType":"ATZ","name":"Sostro Private Airstrip","message":"Medvetenhetsradie ~3 km runt Sostro Private Airstrip (SI-0020). Kontakta flygplatsoperatören; exakt CTR-gräns – se officiella kartan/AIP.","authority":"OurAirports (PD) — awareness radius","dataSource":"ourairports"},"geometry":{"type":"Polygon","coordinates":[[[14.61531,46.07013],[14.62038,46.0699],[14.62537,46.06921],[14.63019,46.06807],[14.63475,46.06651],[14.63898,46.06455],[14.6428,46.06222],[14.64615,46.05957],[14.64898,46.05663],[14.65123,46.05347],[14.65286,46.05013],[14.65385,46.04667],[14.65418,46.04314],[14.65384,46.03962],[14.65285,46.03616],[14.65121,46.03282],[14.64896,46.02966],[14.64614,46.02672],[14.64278,46.02407],[14.63896,46.02174],[14.63473,46.01978],[14.63018,46.01822],[14.62536,46.01709],[14.62038,46.0164],[14.61531,46.01617],[14.61024,46.0164],[14.60525,46.01709],[14.60044,46.01822],[14.59588,46.01978],[14.59166,46.02174],[14.58783,46.02407],[14.58448,46.02672],[14.58165,46.02966],[14.5794,46.03282],[14.57777,46.03616],[14.57677,46.03962],[14.57644,46.04314],[14.57677,46.04667],[14.57776,46.05013],[14.57939,46.05347],[14.58164,46.05663],[14.58446,46.05957],[14.58781,46.06222],[14.59164,46.06455],[14.59587,46.06651],[14.60043,46.06807],[14.60524,46.06921],[14.61023,46.0699],[14.61531,46.07013]]]}},{"type":"Feature","properties":{"_zoneType":"ATZ","name":"Cerknica-Marof Airfield","message":"Medvetenhetsradie ~3 km runt Cerknica-Marof Airfield (SI-0021). Kontakta flygplatsoperatören; exakt CTR-gräns – se officiella kartan/AIP.","authority":"OurAirports (PD) — awareness radius","dataSource":"ourairports"},"geometry":{"type":"Polygon","coordinates":[[[14.38817,45.80463],[14.39322,45.8044],[14.39819,45.80371],[14.40298,45.80257],[14.40752,45.80101],[14.41173,45.79905],[14.41553,45.79672],[14.41887,45.79407],[14.42168,45.79113],[14.42392,45.78797],[14.42554,45.78462],[14.42653,45.78116],[14.42686,45.77764],[14.42652,45.77412],[14.42553,45.77066],[14.4239,45.76732],[14.42166,45.76415],[14.41885,45.76122],[14.41552,45.75857],[14.41171,45.75624],[14.40751,45.75428],[14.40297,45.75272],[14.39818,45.75159],[14.39322,45.7509],[14.38817,45.75067],[14.38313,45.7509],[14.37816,45.75159],[14.37338,45.75272],[14.36884,45.75428],[14.36463,45.75624],[14.36083,45.75857],[14.35749,45.76122],[14.35468,45.76415],[14.35244,45.76732],[14.35081,45.77066],[14.34982,45.77412],[14.34949,45.77764],[14.34982,45.78116],[14.3508,45.78462],[14.35243,45.78797],[14.35466,45.79113],[14.35747,45.79407],[14.36081,45.79672],[14.36461,45.79905],[14.36882,45.80101],[14.37336,45.80257],[14.37816,45.80371],[14.38312,45.8044],[14.38817,45.80463]]]}},{"type":"Feature","properties":{"_zoneType":"ATZ","name":"Hude Ravne - Dole pri Litiji Airfield","message":"Medvetenhetsradie ~3 km runt Hude Ravne - Dole pri Litiji Airfield (SI-0022). Kontakta flygplatsoperatören; exakt CTR-gräns – se officiella kartan/AIP.","authority":"OurAirports (PD) — awareness radius","dataSource":"ourairports"},"geometry":{"type":"Polygon","coordinates":[[[15.03802,46.03569],[15.04309,46.03546],[15.04808,46.03477],[15.05289,46.03363],[15.05745,46.03207],[15.06168,46.03011],[15.0655,46.02778],[15.06885,46.02513],[15.07167,46.02219],[15.07391,46.01903],[15.07554,46.01568],[15.07653,46.01222],[15.07686,46.0087],[15.07653,46.00518],[15.07554,46.00172],[15.0739,45.99838],[15.07165,45.99521],[15.06883,45.99228],[15.06548,45.98963],[15.06166,45.9873],[15.05743,45.98534],[15.05288,45.98378],[15.04807,45.98265],[15.04309,45.98196],[15.03802,45.98173],[15.03295,45.98196],[15.02797,45.98265],[15.02316,45.98378],[15.0186,45.98534],[15.01438,45.9873],[15.01056,45.98963],[15.00721,45.99228],[15.00439,45.99521],[15.00214,45.99838],[15.0005,46.00172],[14.99951,46.00518],[14.99917,46.0087],[14.9995,46.01222],[15.00049,46.01568],[15.00212,46.01903],[15.00437,46.02219],[15.00719,46.02513],[15.01054,46.02778],[15.01436,46.03011],[15.01859,46.03207],[15.02315,46.03363],[15.02796,46.03477],[15.03295,46.03546],[15.03802,46.03569]]]}},{"type":"Feature","properties":{"_zoneType":"ATZ","name":"Libeliče Airfield","message":"Medvetenhetsradie ~3 km runt Libeliče Airfield (SI-0023). Kontakta flygplatsoperatören; exakt CTR-gräns – se officiella kartan/AIP.","authority":"OurAirports (PD) — awareness radius","dataSource":"ourairports"},"geometry":{"type":"Polygon","coordinates":[[[14.95495,46.65077],[14.96008,46.65054],[14.96512,46.64985],[14.96999,46.64872],[14.9746,46.64716],[14.97887,46.6452],[14.98273,46.64287],[14.98612,46.64021],[14.98898,46.63728],[14.99125,46.63411],[14.9929,46.63077],[14.9939,46.62731],[14.99423,46.62379],[14.99389,46.62027],[14.99289,46.61681],[14.99123,46.61346],[14.98896,46.6103],[14.9861,46.60737],[14.98271,46.60471],[14.97885,46.60239],[14.97458,46.60043],[14.96997,46.59887],[14.96511,46.59773],[14.96007,46.59705],[14.95495,46.59682],[14.94982,46.59705],[14.94478,46.59773],[14.93992,46.59887],[14.93531,46.60043],[14.93104,46.60239],[14.92718,46.60471],[14.92379,46.60737],[14.92093,46.6103],[14.91866,46.61346],[14.91701,46.61681],[14.916,46.62027],[14.91566,46.62379],[14.916,46.62731],[14.917,46.63077],[14.91865,46.63411],[14.92092,46.63728],[14.92377,46.64021],[14.92716,46.64287],[14.93102,46.6452],[14.9353,46.64716],[14.93991,46.64872],[14.94477,46.64985],[14.94982,46.65054],[14.95495,46.65077]]]}},{"type":"Feature","properties":{"_zoneType":"ATZ","name":"Zagorje ob Savi Airfield","message":"Medvetenhetsradie ~3 km runt Zagorje ob Savi Airfield (SI-0024). Kontakta flygplatsoperatören; exakt CTR-gräns – se officiella kartan/AIP.","authority":"OurAirports (PD) — awareness radius","dataSource":"ourairports"},"geometry":{"type":"Polygon","coordinates":[[[14.99854,46.16939],[15.00363,46.16916],[15.00862,46.16847],[15.01345,46.16734],[15.01802,46.16578],[15.02225,46.16381],[15.02608,46.16149],[15.02944,46.15883],[15.03227,46.1559],[15.03452,46.15273],[15.03616,46.14939],[15.03715,46.14593],[15.03748,46.14241],[15.03714,46.13888],[15.03615,46.13542],[15.03451,46.13208],[15.03225,46.12892],[15.02942,46.12598],[15.02607,46.12333],[15.02224,46.12101],[15.018,46.11905],[15.01344,46.11749],[15.00861,46.11635],[15.00362,46.11566],[14.99854,46.11543],[14.99346,46.11566],[14.98847,46.11635],[14.98365,46.11749],[14.97908,46.11905],[14.97485,46.12101],[14.97102,46.12333],[14.96766,46.12598],[14.96483,46.12892],[14.96257,46.13208],[14.96093,46.13542],[14.95994,46.13888],[14.9596,46.14241],[14.95993,46.14593],[14.96092,46.14939],[14.96256,46.15273],[14.96481,46.1559],[14.96764,46.15883],[14.971,46.16149],[14.97483,46.16381],[14.97906,46.16578],[14.98363,46.16734],[14.98846,46.16847],[14.99346,46.16916],[14.99854,46.16939]]]}},{"type":"Feature","properties":{"_zoneType":"ATZ","name":"Prekopa Airstrip","message":"Medvetenhetsradie ~3 km runt Prekopa Airstrip (SI-0025). Kontakta flygplatsoperatören; exakt CTR-gräns – se officiella kartan/AIP.","authority":"OurAirports (PD) — awareness radius","dataSource":"ourairports"},"geometry":{"type":"Polygon","coordinates":[[[14.99706,46.27715],[15.00216,46.27692],[15.00716,46.27623],[15.012,46.27509],[15.01658,46.27353],[15.02082,46.27157],[15.02466,46.26924],[15.02802,46.26659],[15.03086,46.26365],[15.03311,46.26049],[15.03475,46.25715],[15.03574,46.25369],[15.03608,46.25016],[15.03574,46.24664],[15.03474,46.24318],[15.0331,46.23984],[15.03084,46.23668],[15.028,46.23374],[15.02464,46.23109],[15.0208,46.22876],[15.01656,46.2268],[15.01198,46.22524],[15.00715,46.22411],[15.00215,46.22342],[14.99706,46.22319],[14.99197,46.22342],[14.98697,46.22411],[14.98214,46.22524],[14.97756,46.2268],[14.97332,46.22876],[14.96948,46.23109],[14.96612,46.23374],[14.96328,46.23668],[14.96102,46.23984],[14.95938,46.24318],[14.95838,46.24664],[14.95804,46.25016],[14.95838,46.25369],[14.95937,46.25715],[14.96101,46.26049],[14.96326,46.26365],[14.9661,46.26659],[14.96946,46.26924],[14.9733,46.27157],[14.97754,46.27353],[14.98212,46.27509],[14.98696,46.27623],[14.99196,46.27692],[14.99706,46.27715]]]}},{"type":"Feature","properties":{"_zoneType":"ATZ","name":"Dol pri Ljubljani Ultralight Airfield","message":"Medvetenhetsradie ~3 km runt Dol pri Ljubljani Ultralight Airfield (SI-0026). Kontakta flygplatsoperatören; exakt CTR-gräns – se officiella kartan/AIP.","authority":"OurAirports (PD) — awareness radius","dataSource":"ourairports"},"geometry":{"type":"Polygon","coordinates":[[[14.64709,46.11658],[14.65217,46.11635],[14.65716,46.11566],[14.66198,46.11453],[14.66655,46.11296],[14.67078,46.111],[14.6746,46.10868],[14.67796,46.10602],[14.68078,46.10309],[14.68303,46.09992],[14.68467,46.09658],[14.68566,46.09312],[14.68599,46.08959],[14.68565,46.08607],[14.68466,46.08261],[14.68302,46.07927],[14.68077,46.07611],[14.67794,46.07317],[14.67458,46.07052],[14.67076,46.06819],[14.66653,46.06623],[14.66197,46.06467],[14.65715,46.06354],[14.65216,46.06285],[14.64709,46.06262],[14.64201,46.06285],[14.63702,46.06354],[14.63221,46.06467],[14.62764,46.06623],[14.62341,46.06819],[14.61959,46.07052],[14.61623,46.07317],[14.6134,46.07611],[14.61115,46.07927],[14.60951,46.08261],[14.60852,46.08607],[14.60818,46.08959],[14.60851,46.09312],[14.60951,46.09658],[14.61114,46.09992],[14.61339,46.10309],[14.61621,46.10602],[14.61957,46.10868],[14.62339,46.111],[14.62763,46.11296],[14.63219,46.11453],[14.63701,46.11566],[14.64201,46.11635],[14.64709,46.11658]]]}},{"type":"Feature","properties":{"_zoneType":"ATZ","name":"Trebnje Airfield","message":"Medvetenhetsradie ~3 km runt Trebnje Airfield (SI-0027). Kontakta flygplatsoperatören; exakt CTR-gräns – se officiella kartan/AIP.","authority":"OurAirports (PD) — awareness radius","dataSource":"ourairports"},"geometry":{"type":"Polygon","coordinates":[[[15.00256,45.93918],[15.00762,45.93895],[15.0126,45.93826],[15.01741,45.93712],[15.02196,45.93556],[15.02618,45.9336],[15.02999,45.93127],[15.03333,45.92862],[15.03615,45.92568],[15.03839,45.92252],[15.04002,45.91918],[15.04101,45.91572],[15.04134,45.91219],[15.041,45.90867],[15.04001,45.90521],[15.03838,45.90187],[15.03613,45.89871],[15.03331,45.89577],[15.02997,45.89312],[15.02616,45.89079],[15.02194,45.88883],[15.01739,45.88727],[15.01259,45.88614],[15.00762,45.88545],[15.00256,45.88522],[14.9975,45.88545],[14.99253,45.88614],[14.98773,45.88727],[14.98318,45.88883],[14.97896,45.89079],[14.97515,45.89312],[14.97181,45.89577],[14.96899,45.89871],[14.96674,45.90187],[14.96511,45.90521],[14.96412,45.90867],[14.96378,45.91219],[14.96411,45.91572],[14.9651,45.91918],[14.96673,45.92252],[14.96897,45.92568],[14.97179,45.92862],[14.97513,45.93127],[14.97894,45.9336],[14.98316,45.93556],[14.98771,45.93712],[14.99252,45.93826],[14.9975,45.93895],[15.00256,45.93918]]]}},{"type":"Feature","properties":{"_zoneType":"ATZ","name":"Ljubljana University Hospital Heliport","message":"Medvetenhetsradie ~1 km runt Ljubljana University Hospital Heliport (SI-0028). Kontakta flygplatsoperatören; exakt CTR-gräns – se officiella kartan/AIP.","authority":"OurAirports (PD) — awareness radius","dataSource":"ourairports"},"geometry":{"type":"Polygon","coordinates":[[[14.52073,46.06861],[14.52327,46.06849],[14.52576,46.06815],[14.52817,46.06758],[14.53045,46.0668],[14.53257,46.06582],[14.53448,46.06466],[14.53615,46.06333],[14.53757,46.06186],[14.53869,46.06028],[14.53951,46.05861],[14.54,46.05688],[14.54017,46.05512],[14.54,46.05336],[14.53951,46.05163],[14.53869,46.04996],[14.53756,46.04837],[14.53615,46.04691],[14.53447,46.04558],[14.53256,46.04442],[14.53045,46.04344],[14.52817,46.04266],[14.52576,46.04209],[14.52327,46.04175],[14.52073,46.04163],[14.51819,46.04175],[14.5157,46.04209],[14.51329,46.04266],[14.51101,46.04344],[14.5089,46.04442],[14.50699,46.04558],[14.50531,46.04691],[14.5039,46.04837],[14.50277,46.04996],[14.50195,46.05163],[14.50146,46.05336],[14.50129,46.05512],[14.50146,46.05688],[14.50195,46.05861],[14.50277,46.06028],[14.50389,46.06186],[14.50531,46.06333],[14.50698,46.06466],[14.50889,46.06582],[14.51101,46.0668],[14.51329,46.06758],[14.5157,46.06815],[14.51819,46.06849],[14.52073,46.06861]]]}},{"type":"Feature","properties":{"_zoneType":"ATZ","name":"Maribor University Hospital Heliport","message":"Medvetenhetsradie ~1 km runt Maribor University Hospital Heliport (SI-0029). Kontakta flygplatsoperatören; exakt CTR-gräns – se officiella kartan/AIP.","authority":"OurAirports (PD) — awareness radius","dataSource":"ourairports"},"geometry":{"type":"Polygon","coordinates":[[[15.64911,46.56466],[15.65167,46.56454],[15.65419,46.5642],[15.65662,46.56363],[15.65892,46.56285],[15.66105,46.56187],[15.66298,46.56071],[15.66467,46.55938],[15.6661,46.55791],[15.66723,46.55633],[15.66806,46.55466],[15.66856,46.55293],[15.66873,46.55117],[15.66856,46.54941],[15.66806,46.54768],[15.66723,46.54601],[15.6661,46.54442],[15.66467,46.54296],[15.66298,46.54163],[15.66105,46.54047],[15.65892,46.53949],[15.65661,46.53871],[15.65419,46.53814],[15.65167,46.5378],[15.64911,46.53768],[15.64655,46.5378],[15.64403,46.53814],[15.64161,46.53871],[15.6393,46.53949],[15.63717,46.54047],[15.63524,46.54163],[15.63355,46.54296],[15.63212,46.54442],[15.63099,46.54601],[15.63016,46.54768],[15.62966,46.54941],[15.62949,46.55117],[15.62966,46.55293],[15.63016,46.55466],[15.63099,46.55633],[15.63212,46.55791],[15.63355,46.55938],[15.63524,46.56071],[15.63717,46.56187],[15.6393,46.56285],[15.6416,46.56363],[15.64403,46.5642],[15.64655,46.56454],[15.64911,46.56466]]]}},{"type":"Feature","properties":{"_zoneType":"ATZ","name":"Celje General Hospital Heliport","message":"Medvetenhetsradie ~1 km runt Celje General Hospital Heliport (SI-0030). Kontakta flygplatsoperatören; exakt CTR-gräns – se officiella kartan/AIP.","authority":"OurAirports (PD) — awareness radius","dataSource":"ourairports"},"geometry":{"type":"Polygon","coordinates":[[[15.26119,46.24764],[15.26374,46.24752],[15.26624,46.24718],[15.26865,46.24661],[15.27094,46.24583],[15.27306,46.24485],[15.27498,46.24369],[15.27666,46.24236],[15.27808,46.24089],[15.27921,46.23931],[15.28003,46.23764],[15.28053,46.23591],[15.28069,46.23415],[15.28052,46.23239],[15.28003,46.23066],[15.27921,46.22899],[15.27808,46.2274],[15.27666,46.22594],[15.27498,46.22461],[15.27306,46.22345],[15.27094,46.22247],[15.26865,46.22169],[15.26624,46.22112],[15.26373,46.22078],[15.26119,46.22066],[15.25865,46.22078],[15.25614,46.22112],[15.25373,46.22169],[15.25144,46.22247],[15.24932,46.22345],[15.2474,46.22461],[15.24572,46.22594],[15.2443,46.2274],[15.24317,46.22899],[15.24235,46.23066],[15.24186,46.23239],[15.24169,46.23415],[15.24185,46.23591],[15.24235,46.23764],[15.24317,46.23931],[15.2443,46.24089],[15.24572,46.24236],[15.2474,46.24369],[15.24932,46.24485],[15.25144,46.24583],[15.25373,46.24661],[15.25614,46.24718],[15.25864,46.24752],[15.26119,46.24764]]]}},{"type":"Feature","properties":{"_zoneType":"ATZ","name":"Izola General Hospital Heliport","message":"Medvetenhetsradie ~1 km runt Izola General Hospital Heliport (SI-0031). Kontakta flygplatsoperatören; exakt CTR-gräns – se officiella kartan/AIP.","authority":"OurAirports (PD) — awareness radius","dataSource":"ourairports"},"geometry":{"type":"Polygon","coordinates":[[[13.68867,45.55769],[13.69118,45.55757],[13.69366,45.55723],[13.69604,45.55666],[13.6983,45.55588],[13.7004,45.5549],[13.70229,45.55374],[13.70395,45.55241],[13.70535,45.55094],[13.70647,45.54936],[13.70728,45.54769],[13.70777,45.54596],[13.70793,45.5442],[13.70777,45.54244],[13.70727,45.54071],[13.70646,45.53904],[13.70535,45.53745],[13.70395,45.53599],[13.70229,45.53466],[13.70039,45.5335],[13.6983,45.53252],[13.69604,45.53174],[13.69365,45.53117],[13.69118,45.53083],[13.68867,45.53071],[13.68616,45.53083],[13.68369,45.53117],[13.6813,45.53174],[13.67904,45.53252],[13.67695,45.5335],[13.67505,45.53466],[13.67339,45.53599],[13.67199,45.53745],[13.67088,45.53904],[13.67007,45.54071],[13.66957,45.54244],[13.66941,45.5442],[13.66957,45.54596],[13.67006,45.54769],[13.67087,45.54936],[13.67199,45.55094],[13.67339,45.55241],[13.67505,45.55374],[13.67694,45.5549],[13.67904,45.55588],[13.6813,45.55666],[13.68368,45.55723],[13.68616,45.55757],[13.68867,45.55769]]]}},{"type":"Feature","properties":{"_zoneType":"P","name":"Prepovedana cona — NEK Krško (kärnkraftverk)","message":"Prepovedana cona (förbjuden zon) runt kärnkraftverket Krško.","authority":"Publikt faktum (NEK)","dataSource":"public-fact"},"geometry":{"type":"Polygon","coordinates":[[[15.5156,45.95159],[15.51813,45.95147],[15.52062,45.95113],[15.52302,45.95056],[15.5253,45.94978],[15.52741,45.9488],[15.52932,45.94764],[15.53099,45.94631],[15.5324,45.94484],[15.53352,45.94326],[15.53434,45.94159],[15.53483,45.93986],[15.535,45.9381],[15.53483,45.93634],[15.53434,45.93461],[15.53352,45.93294],[15.5324,45.93135],[15.53099,45.92989],[15.52931,45.92856],[15.52741,45.9274],[15.5253,45.92642],[15.52302,45.92564],[15.52062,45.92507],[15.51813,45.92473],[15.5156,45.92461],[15.51307,45.92473],[15.51058,45.92507],[15.50818,45.92564],[15.5059,45.92642],[15.50379,45.9274],[15.50189,45.92856],[15.50021,45.92989],[15.4988,45.93135],[15.49768,45.93294],[15.49686,45.93461],[15.49637,45.93634],[15.4962,45.9381],[15.49637,45.93986],[15.49686,45.94159],[15.49768,45.94326],[15.4988,45.94484],[15.50021,45.94631],[15.50188,45.94764],[15.50379,45.9488],[15.5059,45.94978],[15.50818,45.95056],[15.51058,45.95113],[15.51307,45.95147],[15.5156,45.95159]]]}}]}