{"type": "FeatureCollection", "_meta": {"source": "LPS SR, š. p. — Hosted/Reservation (LARA) + AIP SR ENR 5.1/5.2", "license": "Publik ArcGIS-tjänst från LPS SR, š. p.; anmärkningstexterna ur AIP SR ENR 5.1/5.2. «Any part of AIP SR may be used for informative or operational purposes» — kreditering «© LPS SR, š. p.» (aim.lps.sk Terms of use).", "attribution": "© LPS SR, š. p.", "fetched_at": "2026-09-16T11:34:28Z", "aip_edition": {"amdt": "09/26", "valid_from": "2026-09-03", "published": "2026-07-23", "dir": "AIP_SR_EFF_03SEP2026", "reason": "AIRAC NR 09/26", "next_valid_from": "2026-10-01", "index_section": "current", "index_agrees": true, "age_days": 13, "max_age_days": 84, "max_age_source": "index", "stale": false}, "source_rows": 25, "feature_count": 6, "families": {"AMA/R": 4, "AMA/TRA": 2, "NAM/D": 3, "NAM/P": 3, "NAM/R": 11, "NAM/RAS": 2}, "excluded": [{"ident": "LZD1", "skal": "status='COMPLETED'"}, {"ident": "LZNPZ1", "skal": "ingen zonnyckel i utgivna 1.3 + golv FL 245"}, {"ident": "LZNPZ3", "skal": "ingen zonnyckel i utgivna 1.3 + golv FL 245"}, {"ident": "LZP1", "skal": "100.0 % av ytan ritas redan av sk-zones (LZP1) — dubbelritning"}, {"ident": "LZP23", "skal": "100.0 % av ytan ritas redan av sk-zones (LZP23) — dubbelritning"}, {"ident": "LZP29", "skal": "100.0 % av ytan ritas redan av sk-zones (LZP29) — dubbelritning"}, {"ident": "LZR1", "skal": "golv 610 m > 120 m — kan inte begränsa öppen kategori"}, {"ident": "LZR10", "skal": "golv 2134 m > 120 m — kan inte begränsa öppen kategori"}, {"ident": "LZR2", "skal": "golv 1067 m > 120 m — kan inte begränsa öppen kategori"}, {"ident": "LZR225A", "skal": "golv 1219 m > 120 m — kan inte begränsa öppen kategori"}, {"ident": "LZR225B", "skal": "golv 1524 m > 120 m — kan inte begränsa öppen kategori"}, {"ident": "LZR225C", "skal": "golv 1829 m > 120 m — kan inte begränsa öppen kategori"}, {"ident": "LZR24", "skal": "100.0 % av ytan ritas redan av sk-zones (RUAS097M) — dubbelritning"}, {"ident": "LZR24", "skal": "status='ALLOCATED'"}, {"ident": "LZR241", "skal": "100.0 % av ytan ritas redan av sk-zones (RUAS097M) — dubbelritning"}, {"ident": "LZR40", "skal": "status='PENDING'"}, {"ident": "LZR415", "skal": "golv 1524 m > 120 m — kan inte begränsa öppen kategori"}, {"ident": "LZTRA3", "skal": "golv 1524 m > 120 m — kan inte begränsa öppen kategori"}, {"ident": "LZTRA4A", "skal": "status='PENDING'"}], "unknown_type_codes": {}, "skipped_covered": [{"ident": "LZP1", "key": "P", "covered_pct": 100.0, "by": ["LZP1"]}, {"ident": "LZP23", "key": "P", "covered_pct": 100.0, "by": ["LZP23"]}, {"ident": "LZP29", "key": "P", "covered_pct": 100.0, "by": ["LZP29"]}, {"ident": "LZR24", "key": "RSTA", "covered_pct": 100.0, "by": ["RUAS097M"]}, {"ident": "LZR241", "key": "RSTA", "covered_pct": 100.0, "by": ["RUAS097M"]}], "coverage_source": "pappilappi:sk-zones.geojson", "coverage_threshold_pct": 99.5, "permanent_h24": ["LZD2", "LZR225", "LZR314", "LZR315", "LZR55"], "limit_mismatch": [], "floor_unreadable": [], "emit_only_gnd_floor": true, "emit_d_family": true, "source_variant": "Reservation_(Public)2", "aip_effective_from": "2026-09-03", "aip_edition_source": "index", "aip_edition_warning": null, "aip_sections": ["ENR-5.1", "ENR-5.2"], "lara_status": {"AMA": {"status": "success", "latestupdate": "2026-09-16T11:32:58Z"}, "NAM": {"status": "success", "latestupdate": "2026-09-16T11:33:03Z"}}}, "features": [{"type": "Feature", "properties": {"_zoneType": "D", "identifier": "LZD1", "name": "Sklené", "authority": "LPS SR, š. p.", "siteUrl": "https://aim.lps.sk/web/index.php?fn=200&lng=en", "dataSource": "lps-sr-lara-reservation", "base_raw": "0 FEET", "top_raw": "6500 FEET", "aip_edition": "AIP_SR_EFF_03SEP2026", "lps_type_code": "D", "lps_airspace_type": "NAM", "lps_activity_code": "BLAST", "lps_mil_code": "MIL", "start_time": "2026-09-16T11:00:00Z", "end_time": "2026-09-16T16:00:00Z", "conditions": "Aktivovaný:\nMON-THU:\n0500-1100 (0400-1000)\n1200-1700 (1100-1600)\nFRI:\n0500-1100 (0400-1000)\n1200-1300 (1100-1200)\nEXC HOL\nLikvidácia vojenskej nevybuchnutej munície.\nOdporúčané opatrenie: vyhnúť sa", "message": "Aktivovaný:\nMON-THU:\n0500-1100 (0400-1000)\n1200-1700 (1100-1600)\nFRI:\n0500-1100 (0400-1000)\n1200-1300 (1100-1200)\nEXC HOL\nLikvidácia vojenskej nevybuchnutej munície.\nOdporúčané opatrenie: vyhnúť sa\nActive:\nMON-THU:\n0500-1100 (0400-1000)\n1200-1700 (1100-1600)\nFRI:\n0500-1100 (0400-1000)\n1200-1300 (1100-1200)\nEXC HOL\nDisposal of military unexploded munition.\nRecommended measure: avoid flying", "lowerLimit": "GND", "upperLimit": "6500", "upper_limit_unit": "FT", "upperRef": "AMSL"}, "geometry": {"type": "Polygon", "coordinates": [[[18.831111110568138, 48.74704797814152], [18.83087379812795, 48.74704660807011], [18.830636556654667, 48.747042499040404], [18.830399459810153, 48.74703565223641], [18.830162581256264, 48.74702606884159], [18.829925990163247, 48.74701375300081], [18.829689761091295, 48.74699870826607], [18.829453965007307, 48.746980938188905], [18.829218673776523, 48.74696044928213], [18.828983960162443, 48.74693724687347], [18.828749894233695, 48.74691133925183], [18.828516547855497, 48.74688273292877], [18.82828399199474, 48.746851436784745], [18.828052297618367, 48.74681746206918], [18.827821536591546, 48.74678081825399], [18.827591778084585, 48.74674151481079], [18.827363091267763, 48.74669956594954], [18.827135547107982, 48.74665498410266], [18.826909213877187, 48.74660778110998], [18.82668416164402, 48.746557972957305], [18.826460458680394, 48.74650557503784], [18.82623817325829, 48.746450602151995], [18.826017372751316, 48.74639307206158], [18.825798125431525, 48.746333001935845], [18.82558049597751, 48.746270410128304], [18.82536455266131, 48.7462053149922], [18.82515036016159, 48.74613773784237], [18.824937984953696, 48.74606769821619], [18.82472749081802, 48.74599521683551], [18.82451894243323, 48.745920317976065], [18.824312401783118, 48.74584302176691], [18.824107934444672, 48.74576335426044], [18.8239055997067, 48.74568133795473], [18.823705463146226, 48.74559699890175], [18.823507582255438, 48.74551036196866], [18.82331201811979, 48.745421453799516], [18.823118830926365, 48.74533030222301], [18.82292807906567, 48.7452369338829], [18.82273982092818, 48.745141377792436], [18.822554114006156, 48.74504366414941], [18.822371014893367, 48.74494382078216], [18.82219057928537, 48.74484187907316], [18.822012861979463, 48.74473786981247], [18.821837916874525, 48.74463182497487], [18.821665797869457, 48.744523777127604], [18.82149655706656, 48.74441375883785], [18.821330245669795, 48.744301803857645], [18.821166914883133, 48.74418794475433], [18.82100661501228, 48.744072218834305], [18.820849393667878, 48.74395465984984], [18.82069529935897, 48.74383530392285], [18.82054437879801, 48.74371418776776], [18.820396677798982, 48.743591346914364], [18.820252242176036, 48.743466821039384], [18.820111115048263, 48.743340646265345], [18.819973338636498, 48.74321286108455], [18.81983895785653, 48.743083505174376], [18.819708011335866, 48.742952618212335], [18.819580537702112, 48.742820239283894], [18.819456579176034, 48.74268640806718], [18.81933617079199, 48.742551167202514], [18.819219350279177, 48.74241455696105], [18.81910615267193, 48.742276618799075], [18.818996613004497, 48.74213739476547], [18.81889076541287, 48.741996928094444], [18.818788640439813, 48.74185526083574], [18.818690268627996, 48.74171243622421], [18.818595683215076, 48.74156849690279], [18.818504910252273, 48.74142348906924], [18.818417976688963, 48.741277454182566], [18.818334912169586, 48.741130439033746], [18.818255739152004, 48.74098248685995], [18.818180482789096, 48.74083364326834], [18.818109166436994, 48.7406839538665], [18.81804181075699, 48.74053346426273], [18.81797843641033, 48.740382218880804], [18.817919063159938, 48.74023026629198], [18.817863708972123, 48.74007765092118], [18.817812390914906, 48.739924418971036], [18.817765124259594, 48.73977061901447], [18.81772192158262, 48.73961629725524], [18.817682799951992, 48.73946149871283], [18.817647768350884, 48.73930627373905], [18.817616837559026, 48.73915066676213], [18.817590018356213, 48.738994726950125], [18.81756731703066, 48.73883850228706], [18.817548741667217, 48.73868203779519], [18.817534298554083, 48.738525383829305], [18.81752399128452, 48.738368586005336], [18.81751782165512, 48.73821169408686], [18.817515794157536, 48.7380547542834], [18.817517906096782, 48.737897815174875], [18.817524160167775, 48.737740924156846], [18.817534551878996, 48.73758412921797], [18.81754908033209, 48.73742747775505], [18.817567738340536, 48.7372710177579], [18.817590522311086, 48.737114797809426], [18.817617424158893, 48.73695886412327], [18.81764843579913, 48.736803265283534], [18.81768354914694, 48.736648048097436], [18.81772275162594, 48.73649325878036], [18.81776603155803, 48.73633894710311], [18.817813377265086, 48.736185156912285], [18.817864771679123, 48.736031937979774], [18.81792020222372, 48.73587933474578], [18.817979649135978, 48.73572739520594], [18.818043096246175, 48.73557616498648], [18.818110521994747, 48.735425689714134], [18.818181908415458, 48.735276016793605], [18.818257232152014, 48.735127190075325], [18.818336470746583, 48.73497925518748], [18.818419599944686, 48.73483225775894], [18.818506593695098, 48.73468624223394], [18.81859742684504, 48.73454125424218], [18.81869207064844, 48.73439733526655], [18.81879049815581, 48.73425453093758], [18.818892676129494, 48.7341128851089], [18.818998574925057, 48.73397244104201], [18.819108163101536, 48.733833240221294], [18.819221407421196, 48.73369532472417], [18.81933827105313, 48.7335587378132], [18.819458719861384, 48.73342352215901], [18.8195827179133, 48.73328971628487], [18.819710225683043, 48.73315736226957], [18.819841206339664, 48.73302649982203], [18.81997561766237, 48.73289716983661], [18.82011342102358, 48.73276941202285], [18.82025457330417, 48.73264326312798], [18.820399031385012, 48.73251876286217], [18.820546751248646, 48.732395949750575], [18.820697687081022, 48.732274861133696], [18.820851794864616, 48.73215553198212], [18.82100902698882, 48.7320380008217], [18.821169334944514, 48.731922302030775], [18.821332670222763, 48.731808471765405], [18.82149898161949, 48.73169654381174], [18.821668220625764, 48.73158655314101], [18.821840336037575, 48.73147853294694], [18.822015273955998, 48.73137251583085], [18.822192981380443, 48.73126853498661], [18.822373402615383, 48.731166620052974], [18.82255648555849, 48.731066804223815], [18.822742173615914, 48.730969117137846], [18.822930410193806, 48.730873587841295], [18.82312113690168, 48.730780247157846], [18.82331429624733, 48.73068912117094], [18.823509829840273, 48.73060023892648], [18.823707678391706, 48.73051362828532], [18.82390777991789, 48.730429314145496], [18.824110075129987, 48.73034732199746], [18.82431450204423, 48.73026767792402], [18.82452099777859, 48.73019040682275], [18.824729501247624, 48.73011553003581], [18.824939946874284, 48.7300430718679], [18.825152270878213, 48.72997305484585], [18.825366410377306, 48.72990549912617], [18.82558229799799, 48.729840424864996], [18.82579986906149, 48.729777852810834], [18.826019057092473, 48.729717803119385], [18.826239795615678, 48.72966029120575], [18.826462018155723, 48.72960533722499], [18.82668565464403, 48.72955295599906], [18.826910638605252, 48.729503164719695], [18.827136902665735, 48.729455978208115], [18.827364375858615, 48.729411411285334], [18.827592989911906, 48.72936947580908], [18.827822674757005, 48.729330187192176], [18.828053361223663, 48.72929355492146], [18.82828497924325, 48.729259592038744], [18.82851745605226, 48.729228306845116], [18.828750723378718, 48.729199711196415], [18.828984709357385, 48.729173812207854], [18.829219343021393, 48.729150618179176], [18.829454551607178, 48.72913013622471], [18.829690265046167, 48.72911237286581], [18.82992641057479, 48.72909733284572], [18.830162918124472, 48.72908502090723], [18.830399714033366, 48.729075441792745], [18.830636726436254, 48.72906859728142], [18.83087388167128, 48.72906448915207], [18.831111110568138, 48.72906311977555], [18.831348340363288, 48.72906448915207], [18.83158549559832, 48.72906859728142], [18.831822508001174, 48.729075441792745], [18.832059303910096, 48.72908502090723], [18.83229581056145, 48.72909733284572], [18.832531956988404, 48.72911237286581], [18.83276767042736, 48.72913013622471], [18.833002879013176, 48.729150618179176], [18.83323751267715, 48.729173812207854], [18.83347149865585, 48.729199711196415], [18.833704765982308, 48.729228306845116], [18.83393724279132, 48.729259592038744], [18.834168860810905, 48.72929355492146], [18.834399547277567, 48.729330187192176], [18.834629232122666, 48.72936947580908], [18.834857846175957, 48.729411411285334], [18.835085319368833, 48.729455978208115], [18.83531158342932, 48.729503164719695], [18.835536567390537, 48.72955295599906], [18.83576020387885, 48.72960533722499], [18.83598242641889, 48.72966029120575], [18.836203164942063, 48.729717803119385], [18.836422352973077, 48.729777852810834], [18.836639924036586, 48.729840424864996], [18.83685581165723, 48.72990549912617], [18.837069951156355, 48.72997305484585], [18.837282275160284, 48.7300430718679], [18.837492720786944, 48.73011553003581], [18.837701224255948, 48.73019040682275], [18.837907719990337, 48.73026767792402], [18.838112146904585, 48.73034732199746], [18.83831444211668, 48.730429314145496], [18.838514543642834, 48.73051362828532], [18.838712392194296, 48.73060023892648], [18.838907925787243, 48.73068912117094], [18.839101085132892, 48.730780247157846], [18.839291811840734, 48.730873587841295], [18.839480048418654, 48.730969117137846], [18.83966573557775, 48.731066804223815], [18.839848819419185, 48.731166620052974], [18.840029240654093, 48.73126853498661], [18.84020694807857, 48.73137251583085], [18.840381885996994, 48.73147853294694], [18.840554001408805, 48.73158655314101], [18.840723240415077, 48.73169654381174], [18.84088955181181, 48.731808471765405], [18.841052887090058, 48.731922302030775], [18.841213195045754, 48.7320380008217], [18.841370427169917, 48.73215553198212], [18.841524534953546, 48.732274861133696], [18.84167547078589, 48.732395949750575], [18.841823190649528, 48.73251876286217], [18.841967648730368, 48.73264326312798], [18.84210880101096, 48.73276941202285], [18.842246604372203, 48.73289716983661], [18.842381015694905, 48.73302649982203], [18.842511996351526, 48.73315736226957], [18.84263950412127, 48.73328971628487], [18.842763502173188, 48.73342352215901], [18.842883950981438, 48.7335587378132], [18.843000814613372, 48.73369532472417], [18.843114058933033, 48.733833240221294], [18.843223647109475, 48.73397244104201], [18.843329545905075, 48.7341128851089], [18.843431723878762, 48.73425453093758], [18.843530151386133, 48.73439733526655], [18.843624795189495, 48.73454125424218], [18.84371562833947, 48.73468624223394], [18.843802622089886, 48.73483225775894], [18.843885751287953, 48.73497925518748], [18.843964989882558, 48.735127190075325], [18.84404031361911, 48.735276016793605], [18.84411170003982, 48.735425689714134], [18.844179125788397, 48.73557616498648], [18.84424257289859, 48.73572739520594], [18.844302019810847, 48.73587933474578], [18.844357450355446, 48.736031937979774], [18.844408844769486, 48.736185156912285], [18.84445618957821, 48.73633894710311], [18.844499470408596, 48.73649325878036], [18.844538672887598, 48.736648048097436], [18.84457378623544, 48.736803265283534], [18.844604797875675, 48.73695886412327], [18.844631699723486, 48.737114797809426], [18.844654483694033, 48.7372710177579], [18.844673141702483, 48.73742747775505], [18.844687670155572, 48.73758412921797], [18.844698061866794, 48.737740924156846], [18.844704315937786, 48.737897815174875], [18.844706427877032, 48.7380547542834], [18.844704400379413, 48.73821169408686], [18.84469823075005, 48.738368586005336], [18.84468792258219, 48.738525383829305], [18.844673480367355, 48.73868203779519], [18.844654905003907, 48.73883850228706], [18.84463220367836, 48.738994726950125], [18.84460538357725, 48.73915066676213], [18.844574453683684, 48.73930627373905], [18.84453942208254, 48.73946149871283], [18.84450029955362, 48.73961629725524], [18.844457097774974, 48.73977061901447], [18.844409831119663, 48.739924418971036], [18.844358513062446, 48.74007765092118], [18.844303158874634, 48.74023026629198], [18.84424378562424, 48.740382218880804], [18.844180411277577, 48.74053346426273], [18.844113055597578, 48.7406839538665], [18.844041739245473, 48.74083364326834], [18.843966482882568, 48.74098248685995], [18.843887309864982, 48.741130439033746], [18.84380424534561, 48.741277454182566], [18.843717311782296, 48.74142348906924], [18.84362653881946, 48.74156849690279], [18.843531953406575, 48.74171243622421], [18.84343358159476, 48.74185526083574], [18.8433314566217, 48.741996928094444], [18.84322560903007, 48.74213739476547], [18.843116069362637, 48.742276618799075], [18.84300287175539, 48.74241455696105], [18.842886051242584, 48.742551167202514], [18.842765642858502, 48.74268640806718], [18.842641684332456, 48.742820239283894], [18.842514210698702, 48.742952618212335], [18.84238326417804, 48.743083505174376], [18.84224888339807, 48.74321286108455], [18.84211110698631, 48.743340646265345], [18.841969979858536, 48.743466821039384], [18.84182554423559, 48.743591346914364], [18.841677843236557, 48.74371418776776], [18.841526922675566, 48.74383530392285], [18.84137282836669, 48.74395465984984], [18.841215607022292, 48.744072218834305], [18.8410553071514, 48.74418794475433], [18.840891976364773, 48.744301803857645], [18.84072566496801, 48.74441375883785], [18.84055642416511, 48.744523777127604], [18.840384305160047, 48.74463182497487], [18.84020936005511, 48.74473786981247], [18.840031642749164, 48.74484187907316], [18.839851207141205, 48.74494382078216], [18.839668108028416, 48.74504366414941], [18.839482401106352, 48.745141377792436], [18.8392941429689, 48.7452369338829], [18.839103391108203, 48.74533030222301], [18.83891020391478, 48.745421453799516], [18.838714639779138, 48.74551036196866], [18.838516758888343, 48.74559699890175], [18.83831662232787, 48.74568133795473], [18.8381142875899, 48.74576335426044], [18.837909820251454, 48.74584302176691], [18.83770327960134, 48.745920317976065], [18.837494731216548, 48.74599521683551], [18.83728423708084, 48.74606769821619], [18.83707186187295, 48.74613773784237], [18.83685766937326, 48.7462053149922], [18.83664172605706, 48.746270410128304], [18.836424096603043, 48.746333001935845], [18.83620484928322, 48.74639307206158], [18.835984048776282, 48.746450602151995], [18.835761763354174, 48.74650557503784], [18.835538060390547, 48.746557972957305], [18.83531300815738, 48.74660778110998], [18.835086674926586, 48.74665498410266], [18.834859130766805, 48.74669956594954], [18.834630443949983, 48.74674151481079], [18.834400685443022, 48.74678081825399], [18.8341699244162, 48.74681746206918], [18.83393823003983, 48.746851436784745], [18.833705674179072, 48.74688273292877], [18.833472327800873, 48.74691133925183], [18.833238261872097, 48.74693724687347], [18.833003548258045, 48.74696044928213], [18.832768257027265, 48.746980938188905], [18.832532460943273, 48.74699870826607], [18.83229623187132, 48.74701375300081], [18.832059640778304, 48.74702606884159], [18.83182276222442, 48.74703565223641], [18.8315856653799, 48.747042499040404], [18.83134842390662, 48.74704660807011], [18.831111110568138, 48.74704797814152]]]}}, {"type": "Feature", "properties": {"_zoneType": "D", "identifier": "LZD2", "name": "Slovnaft", "authority": "LPS SR, š. p.", "siteUrl": "https://aim.lps.sk/web/index.php?fn=200&lng=en", "dataSource": "lps-sr-lara-reservation", "base_raw": "0 FEET", "top_raw": "1500 FEET", "aip_edition": "AIP_SR_EFF_03SEP2026", "lps_type_code": "D", "lps_airspace_type": "NAM", "lps_activity_code": "OTHER", "lps_mil_code": "CIVIL", "start_time": "2026-09-16T00:00:00Z", "end_time": "2026-09-17T00:00:00Z", "conditions": "Aktivovaný: H24\nRopná rafinéria. Vypúšťanie plynov. Nebezpečenstvo výbuchu.\nKvôli vyhnutiu sa nebezpečnému priestoru sa všetkým štandardným prístrojovým odletom z RWY 22 AD LZIB odporúča dodržiavať nominálnu trať.", "message": "Aktivovaný: H24\nRopná rafinéria. Vypúšťanie plynov. Nebezpečenstvo výbuchu.\nKvôli vyhnutiu sa nebezpečnému priestoru sa všetkým štandardným prístrojovým odletom z RWY 22 AD LZIB odporúča dodržiavať nominálnu trať.\nActive: H24\nPetroleum refinery. Gas releasing. Risk of explosion.\nClose conformance to the nominal track is recommended for all Standard Instrument Departures from RWY 22 AD LZIB to avoid Danger Area.", "lowerLimit": "GND", "upperLimit": "1500", "upper_limit_unit": "FT", "upperRef": "AMSL"}, "geometry": {"type": "Polygon", "coordinates": [[[17.193888889183203, 48.11075358120815], [17.19381857804592, 48.11075316974626], [17.193748289366532, 48.11075193715993], [17.193678042907937, 48.1107498828493], [17.19360786022974, 48.1107470080139], [17.193537763789795, 48.11074331385314], [17.19346777424937, 48.11073879976712], [17.193397913168067, 48.11073346875457], [17.193328201207045, 48.110727323214384], [17.193258659925974, 48.11072036194677], [17.193189310884346, 48.11071258974973], [17.193120174743466, 48.11070400782253], [17.193051273961157, 48.110694619763514], [17.192982627402095, 48.11068442677187], [17.192914256625805, 48.11067343424532], [17.192846183191893, 48.11066164278316], [17.192778427761585, 48.11064905898256], [17.192711010097852, 48.11063568404266], [17.19264395176019, 48.11062152276114], [17.192577271613274, 48.11060658113542], [17.19251099301333, 48.11059086216378], [17.192445133028258, 48.11057437004413], [17.192379713217708, 48.11055711077376], [17.192314752446233, 48.110539089750056], [17.19225027227344, 48.11052031297025], [17.192186289767342, 48.110500784032375], [17.192122827385795, 48.11048051073291], [17.192059902196746, 48.11045949906906], [17.191997534861528, 48.11043775503795], [17.19193574334638, 48.11041528523641], [17.19187454741431, 48.110392096861204], [17.19181396413323, 48.11036819590931], [17.191754014164434, 48.110343590777035], [17.191694713677574, 48.11031828926082], [17.19163608243562, 48.1102922979575], [17.19157813660821, 48.1102656252632], [17.19152089506, 48.11023828017401], [17.19146437485892, 48.110210269286675], [17.191408593971353, 48.110181602197024], [17.191353567668653, 48.11015228670139], [17.19129931481538, 48.11012233419505], [17.1912458497846, 48.11009175127471], [17.191193191440977, 48.11006054813592], [17.19114135325917, 48.11002873377473], [17.191090352307228, 48.10999631898649], [17.191040202958195, 48.109963312767256], [17.19099092228003, 48.10992972471271], [17.190942524645774, 48.10989556681799], [17.190895024428485, 48.10986084807903], [17.190848436001215, 48.109825579891094], [17.190802773737023, 48.10978977185004], [17.19075805290722, 48.10975343595088], [17.19071428518997, 48.10971658178952], [17.190671484059934, 48.109679223160505], [17.190629662991892, 48.109641369059894], [17.190588834562213, 48.10960303208262], [17.190549012245683, 48.10956422422389], [17.190510206822033, 48.109524956279266], [17.190472431766025, 48.109485240843796], [17.19043569606079, 48.109445089912654], [17.19040001318108, 48.10940451608101], [17.190365393008342, 48.10936353074426], [17.19033184632237, 48.10932214709745], [17.19029938300463, 48.109280377735665], [17.19026801293659, 48.10923823525416], [17.190237745999717, 48.10919573284797], [17.190208592075482, 48.1091528831124], [17.190180558350427, 48.10910969924252], [17.19015365470599, 48.109066193233915], [17.190127889227007, 48.10902238008115], [17.190103268201696, 48.10897827297956], [17.190079800613223, 48.10893388392475], [17.19005749544469, 48.1088892279115], [17.19003635539113, 48.108844318135176], [17.19001638943561, 48.10879916719135], [17.189997602968077, 48.108753790074964], [17.189980002276712, 48.10870820118114], [17.189963591853104, 48.10866241310558], [17.18994837708713, 48.10861643904394], [17.18993436336871, 48.10857029519095], [17.189921554291065, 48.108523994742235], [17.18990995344748, 48.10847755089359], [17.18989956443125, 48.10843097924007], [17.189890389937226, 48.10838429297755], [17.189882435355393, 48.10833750710131], [17.189875698889093, 48.10829063420755], [17.18987018592817, 48.108243689891474], [17.189865898269325, 48.10819668914865], [17.189862835014225, 48.10814964517513], [17.18986099795946, 48.10810257176691], [17.189860388003364, 48.108055485119294], [17.18986100514597, 48.108008397828755], [17.189862849387247, 48.10796132609063], [17.18986591982889, 48.10791428190168], [17.189870215572576, 48.107867280857604], [17.18987573572001, 48.107820337954365], [17.189882477576223, 48.10777346578857], [17.189890441141195, 48.107726679956116], [17.189899621923395, 48.10767999425344], [17.189910018126206, 48.107633423076884], [17.1899216261563, 48.10758698022294], [17.189934442420455, 48.107540680088036], [17.18994846332542, 48.107494537068675], [17.18996368437957, 48.10744856496145], [17.189980101091393, 48.107402778163035], [17.18999770807097, 48.10735718987029], [17.190016500826715, 48.10731181388007], [17.190036473070414, 48.10726666518893], [17.190057619412226, 48.107221755794285], [17.190079930868933, 48.10717710189237], [17.19010340384729, 48.107132714281065], [17.190128030262485, 48.107088609156726], [17.190153801131384, 48.10704479671746], [17.190180710165706, 48.10700129375954], [17.190208748382346, 48.10695811108096], [17.19023790769646, 48.1069152630788], [17.190268179124917, 48.10687276175071], [17.190299553684543, 48.1068306220937], [17.19033202059554, 48.106788854905865], [17.190365571773064, 48.10674747278487], [17.19040019643739, 48.10670649012794], [17.19043588291035, 48.10666591773325], [17.190472621310544, 48.10662576879845], [17.19051039995981, 48.1065860559213], [17.19054920807842, 48.10654679109975], [17.190589033089907, 48.106507985132104], [17.190629863316182, 48.106469650016386], [17.190671686180877, 48.10643179775064], [17.190714489107513, 48.106394442132455], [17.190758258621422, 48.10635759096097], [17.19080298214618, 48.10632125683413], [17.190848645308673, 48.10628545115016], [17.19089523373594, 48.10625018470758], [17.19094273485156, 48.10621546890459], [17.190991133384113, 48.10618131274013], [17.191040414062282, 48.106147728212335], [17.19109056161472, 48.10611472372031], [17.191141562566628, 48.10608231186206], [17.191193399850103, 48.10605049983694], [17.191246059092055, 48.10601930024308], [17.191299522326208, 48.105988719079974], [17.191353774281147, 48.10595876774613], [17.191408797888933, 48.105929455840226], [17.191464577878197, 48.105900791161524], [17.191521096282614, 48.10587278270889], [17.191578335135873, 48.10584543888147], [17.19163627826835, 48.10581876927794], [17.191694905917053, 48.10579277989797], [17.191754202810625, 48.105767479740415], [17.191814150982793, 48.10574287780415], [17.19187472977229, 48.10571897888905], [17.19193592211114, 48.10569579319364], [17.191997710032997, 48.105673324917944], [17.19206007287666, 48.10565158306078], [17.19212299267579, 48.10563057302176], [17.192186452362414, 48.105610300800365], [17.192250427682005, 48.10559077479554], [17.192314904261508, 48.10557199920708], [17.19237985874477, 48.105553980034465], [17.192445274063772, 48.10553672327704], [17.19251112776059, 48.105520231934904], [17.19257740186902, 48.10550451500669], [17.192644075727724, 48.105489574292676], [17.192711127777137, 48.105475415192295], [17.19277853915269, 48.10546204070545], [17.192846289193117, 48.105449458031146], [17.19291435633882, 48.1054376689695], [17.192982719928565, 48.1054266771203], [17.193051359301116, 48.10541648488338], [17.193120253795207, 48.10540709825789], [17.19318938274958, 48.10539851724428], [17.193258724604664, 48.10539074484227], [17.193328258699225, 48.10538378525121], [17.193397964372036, 48.105377639071335], [17.19346781826683, 48.10537230870237], [17.193537799722414, 48.10536779594413], [17.193607889874144, 48.10536410199658], [17.19367806536583, 48.105361226859884], [17.193748303739586, 48.105359172933646], [17.193818586130764, 48.10535794081782], [17.193888889183203, 48.105357529912546], [17.19395919223568, 48.10535794081782], [17.194029473728563, 48.105359172933646], [17.19409971300061, 48.105361226859884], [17.194169887593972, 48.10536410199658], [17.194239977745703, 48.10536779594413], [17.194309960099616, 48.10537230870237], [17.19437981399441, 48.105377639071335], [17.194449518768888, 48.10538378525121], [17.19451905286345, 48.10539074484227], [17.194588394718533, 48.10539851724428], [17.194657523672937, 48.10540709825789], [17.194726419065326, 48.10541648488338], [17.194795058437883, 48.1054266771203], [17.194863422027623, 48.1054376689695], [17.194931489173328, 48.105449458031146], [17.194999239213754, 48.10546204070545], [17.195066649690975, 48.105475415192295], [17.195133701740424, 48.105489574292676], [17.195200375599125, 48.10550451500669], [17.195266649707523, 48.105520231934904], [17.195332504302673, 48.10553672327704], [17.195397918723348, 48.105553980034465], [17.195462874104933, 48.10557199920708], [17.195527349786104, 48.10559077479554], [17.195591326004028, 48.105610300800365], [17.195654784792318, 48.10563057302176], [17.195717704591452, 48.10565158306078], [17.195780068333413, 48.105673324917944], [17.195841856255306, 48.10569579319364], [17.195903047695822, 48.10571897888905], [17.195963627383648, 48.10574287780415], [17.196023574657488, 48.105767479740415], [17.196082871551095, 48.10579277989797], [17.196141500098094, 48.10581876927794], [17.196199443230572, 48.10584543888147], [17.196256682083828, 48.10587278270889], [17.196313199589913, 48.105900791161524], [17.196368979579184, 48.105929455840226], [17.196424004085294, 48.10595876774613], [17.196478256040233, 48.105988719079974], [17.196531719274358, 48.10601930024308], [17.19658437761801, 48.10605049983694], [17.196636214901485, 48.10608231186206], [17.19668721585343, 48.10611472372031], [17.196737364304163, 48.106147728212335], [17.19678664498233, 48.10618131274013], [17.196835042616584, 48.10621546890459], [17.196882543732173, 48.10625018470758], [17.196929133057736, 48.10628545115016], [17.19697479622026, 48.10632125683413], [17.19701951884669, 48.10635759096097], [17.1970632892589, 48.106394442132455], [17.197106092185564, 48.10643179775064], [17.197147915050266, 48.106469650016386], [17.197188745276538, 48.106507985132104], [17.197228570288026, 48.10654679109975], [17.197267378406632, 48.1065860559213], [17.197305157055897, 48.10662576879845], [17.197341894557766, 48.10666591773325], [17.197377581929054, 48.10670649012794], [17.197412205695045, 48.10674747278487], [17.197445756872575, 48.106788854905865], [17.1974782237836, 48.1068306220937], [17.197509599241524, 48.10687276175071], [17.197539869771653, 48.1069152630788], [17.1975690299841, 48.10695811108096], [17.19759706820074, 48.10700129375954], [17.197623977235057, 48.10704479671746], [17.197649748103924, 48.107088609156726], [17.197674373620824, 48.107132714281065], [17.19769784659918, 48.10717710189237], [17.19772015895422, 48.107221755794285], [17.197741305296027, 48.10726666518893], [17.197761276641398, 48.10731181388007], [17.197780070295472, 48.10735718987029], [17.19779767727505, 48.107402778163035], [17.197814093986842, 48.10744856496145], [17.197829315041027, 48.107494537068675], [17.19784333594599, 48.107540680088036], [17.197856152210147, 48.10758698022294], [17.19786776024024, 48.107633423076884], [17.197878156443014, 48.10767999425344], [17.197887337225218, 48.107726679956116], [17.197895299891922, 48.10777346578857], [17.197902041748105, 48.107820337954365], [17.197907561895533, 48.107867280857604], [17.19791185763922, 48.10791428190168], [17.197914928979166, 48.10796132609063], [17.19791677322047, 48.108008397828755], [17.197917390363045, 48.108055485119294], [17.19791678040698, 48.10810257176691], [17.197914943352217, 48.10814964517513], [17.197911880097116, 48.10819668914865], [17.19790759243827, 48.108243689891474], [17.19790207857905, 48.10829063420755], [17.19789534301105, 48.10833750710131], [17.197887388429184, 48.10838429297755], [17.197878213935194, 48.10843097924007], [17.19786782491893, 48.10847755089359], [17.19785622407538, 48.108523994742235], [17.197843414997735, 48.10857029519095], [17.19782940127928, 48.10861643904394], [17.197814185615012, 48.10866241310558], [17.19779777608973, 48.10870820118114], [17.197780175398368, 48.108753790074964], [17.197761388930836, 48.10879916719135], [17.197741422975312, 48.108844318135176], [17.19772028292172, 48.1088892279115], [17.197697976854926, 48.10893388392475], [17.19767451016475, 48.10897827297956], [17.197649889139434, 48.10902238008115], [17.197624122762154, 48.109066193233915], [17.197597220016014, 48.10910969924252], [17.197569186290927, 48.1091528831124], [17.197540032366728, 48.10919573284797], [17.197509765429857, 48.10923823525416], [17.197478395361816, 48.109280377735665], [17.197445932044076, 48.10932214709745], [17.197412385358103, 48.10936353074426], [17.19737776518536, 48.10940451608101], [17.197342082305656, 48.109445089912654], [17.19730534570209, 48.109485240843796], [17.19726757064608, 48.109524956279266], [17.19722876612076, 48.10956422422389], [17.197188942905896, 48.10960303208262], [17.19714811537455, 48.109641369059894], [17.19710629430651, 48.109679223160505], [17.197063493176472, 48.10971658178952], [17.197019724560896, 48.10975343595088], [17.196975003731094, 48.10978977185004], [17.196929342365195, 48.109825579891094], [17.19688275393796, 48.10986084807903], [17.196835252822343, 48.10989556681799], [17.196786856086415, 48.10992972471271], [17.196737575408246, 48.109963312767256], [17.196687426059185, 48.10999631898649], [17.19663642510724, 48.11002873377473], [17.196584586925468, 48.11006054813592], [17.196531927683516, 48.11009175127471], [17.196478462652767, 48.11012233419505], [17.196424209799495, 48.11015228670139], [17.196369184395053, 48.110181602197024], [17.196313402609192, 48.110210269286675], [17.196256883306447, 48.11023828017401], [17.196199640859934, 48.1102656252632], [17.196141695930827, 48.1102922979575], [17.19608306379054, 48.11031828926082], [17.196023764202007, 48.110343590777035], [17.195963814233213, 48.11036819590931], [17.19590323095213, 48.110392096861204], [17.195842035020025, 48.11041528523641], [17.195780242606585, 48.11043775503795], [17.195717876169667, 48.11045949906906], [17.19565495098065, 48.11048051073291], [17.195591487700774, 48.110500784032375], [17.19552750609297, 48.11052031297025], [17.195463025920212, 48.110539089750056], [17.19539806514874, 48.11055711077376], [17.195332645338183, 48.11057437004413], [17.195266785353116, 48.11059086216378], [17.195200505854842, 48.11060658113542], [17.195133825707924, 48.11062152276114], [17.195066768268592, 48.11063568404266], [17.19499934970653, 48.11064905898256], [17.194931595174516, 48.11066164278316], [17.194863520842304, 48.11067343424532], [17.19479515096435, 48.11068442677187], [17.194726504405285, 48.110694619763514], [17.19465760272468, 48.11070400782253], [17.194588466583767, 48.11071258974973], [17.19451911844047, 48.11072036194677], [17.194449577159368, 48.110727323214384], [17.19437986519838, 48.11073346875457], [17.19431000411704, 48.11073879976712], [17.19424001367832, 48.11074331385314], [17.194169918136705, 48.1107470080139], [17.194099734560176, 48.1107498828493], [17.194029488999913, 48.11075193715993], [17.193959200320524, 48.11075316974626], [17.193888889183203, 48.11075358120815]]]}}, {"type": "Feature", "properties": {"_zoneType": "RSTA", "identifier": "LZR225", "name": "R225", "authority": "LPS SR, š. p.", "siteUrl": "https://aim.lps.sk/web/index.php?fn=200&lng=en", "dataSource": "lps-sr-lara-reservation", "base_raw": "0 FEET", "top_raw": "8000 FEET", "aip_edition": "AIP_SR_EFF_03SEP2026", "lps_type_code": "R", "lps_airspace_type": "NAM", "lps_activity_code": "EXERCISE", "lps_mil_code": "MIL", "start_time": "2026-09-16T00:00:00Z", "end_time": "2026-09-17T00:00:00Z", "conditions": "Aktívny: H24\nVstup len so súhlasom stanovišťa MIL TWR Sliač. Súhlas musí byť získaný minimálne 3 minúty vopred na SLIAČ VEŽA FREQ 122,905.\nTrieda vzdušného priestoru: G\nStanovište poskytujúce ATS: FIC Bratislava\nVýcvik vojenského letectva.", "message": "Aktívny: H24\nVstup len so súhlasom stanovišťa MIL TWR Sliač. Súhlas musí byť získaný minimálne 3 minúty vopred na SLIAČ VEŽA FREQ 122,905.\nTrieda vzdušného priestoru: G\nStanovište poskytujúce ATS: FIC Bratislava\nVýcvik vojenského letectva.\nActive: H24\nEntry only after approval from Sliač MIL TWR unit. Such approval shall be obtained at least 3 minutes in advance on SLIAČ TOWER FREQ 122,905.\nAirspace class: G\nUnit providing ATS: Bratislava FIC\nMilitary air training.", "lowerLimit": "GND", "upperLimit": "8000", "upper_limit_unit": "FT", "upperRef": "AMSL"}, "geometry": {"type": "Polygon", "coordinates": [[[19.13527777768737, 48.808333332749896], [19.12416612427261, 48.802924720790806], [19.1130568585799, 48.797515033169965], [19.101949983304163, 48.79210426971345], [19.090845495750447, 48.78669243202275], [19.07974339591875, 48.78127951814875], [19.068643684707403, 48.77586553087737], [19.057546360319773, 48.77045047003562], [19.046451422755837, 48.76503433485826], [19.035358871117285, 48.75961712813305], [19.024268705404165, 48.754198846726396], [19.013180923819768, 48.748779495203614], [19.002095527262465, 48.74335907102344], [18.99101251483393, 48.73793757579075], [18.979931885635857, 48.73251500992611], [18.96885364056652, 48.72709137325778], [18.957777777829346, 48.72166666679933], [18.95732239126911, 48.71232331823022], [18.956867172693837, 48.7029799517624], [18.956412123900144, 48.69363656827878], [18.95595724219308, 48.68429316806936], [18.9555025293693, 48.6749497508305], [18.955047983632184, 48.6656063162578], [18.954593607676617, 48.65626286523288], [18.954139398807715, 48.6469193962633], [18.95368535702547, 48.637575910823216], [18.953231484126476, 48.62823240801214], [18.95277777831415, 48.618888888710096], [18.961611005927665, 48.61169358314683], [18.97044172544492, 48.6044975912653], [18.97926993506929, 48.597300913177925], [18.98809563659739, 48.59010354899705], [18.99691883272412, 48.58290550002382], [19.005739522551252, 48.575706765776864], [19.014557707875372, 48.56850734815243], [19.023373391391413, 48.56130724488611], [19.03218657130274, 48.554106459063725], [19.040997251202644, 48.54690498901523], [19.049805430192798, 48.53970283604355], [19.058611110968158, 48.5325000002627], [19.05797118529572, 48.52333341506597], [19.05733148959201, 48.51416681180925], [19.056692024755318, 48.50500019072271], [19.05605279078565, 48.49583355203617], [19.055413787683033, 48.486666894192865], [19.054775015447436, 48.47750021801636], [19.054136472282234, 48.46833352373476], [19.053498159085752, 48.459166812171546], [19.052860075857964, 48.4500000817668], [19.052222221700568, 48.440833332746905], [19.065919828374255, 48.44052260174012], [19.079617266164657, 48.4402102401191], [19.0933145350718, 48.4398962478537], [19.107011635993953, 48.43958062491382], [19.120708566236228, 48.43926337186498], [19.134405324900253, 48.438944489868604], [19.148101911986103, 48.43862397710616], [19.161798326595374, 48.43830183295086], [19.175494567829837, 48.43797805975563], [19.189190633892803, 48.4376526568933], [19.20288652478427, 48.437325623736676], [19.216582239605966, 48.43699696025426], [19.230277778357834, 48.436666667010485], [19.230749233083586, 48.44586118684164], [19.231220857590888, 48.4550556891174], [19.2316926527781, 48.46425017598618], [19.232164618645232, 48.47344464482983], [19.232636755192278, 48.482639097795214], [19.233109062419206, 48.49183353405033], [19.233581540326014, 48.50102795276331], [19.234054188912772, 48.510222356077854], [19.234527009077745, 48.51941674197067], [19.234999999922596, 48.528611110798856], [19.24463340906198, 48.53548387696805], [19.254269426908937, 48.54235582803942], [19.2639080525652, 48.54922696399289], [19.27354928872566, 48.55609728480829], [19.28319313718695, 48.56296678987104], [19.29283959615247, 48.56983547916135], [19.302488669215474, 48.5767033520652], [19.31214035457931, 48.5835704067803], [19.321794656735584, 48.59043664507064], [19.331451575684273, 48.59730206513449], [19.341111111425377, 48.60416666695339], [19.341601684995318, 48.61321986916263], [19.342092433736724, 48.62227305577586], [19.342583359446227, 48.63132622480594], [19.3430744594289, 48.64037937901535], [19.34356573458304, 48.64943251522922], [19.344057187603642, 48.65848563620837], [19.344548815795708, 48.66753873996475], [19.345040620057535, 48.67659182807035], [19.34553260128753, 48.68564489913024], [19.34602475768896, 48.69469795412175], [19.346517091058544, 48.70375099224242], [19.347009601396195, 48.71280401387543], [19.347502287803675, 48.72185701999571], [19.347995152077548, 48.730910009206944], [19.34848819331958, 48.739962981890535], [19.348981410631378, 48.749015939019436], [19.349474805809606, 48.75806887919655], [19.34996837795592, 48.767121802209445], [19.350462127968697, 48.77617471021336], [19.350956055847867, 48.785227601218224], [19.3514501606952, 48.79428047501024], [19.351944444307218, 48.80333333315021], [19.33750135632199, 48.80367933611661], [19.32305806891074, 48.8040235291644], [19.308614584768456, 48.80436591173921], [19.294170904793443, 48.804706485061374], [19.27972702988399, 48.80504524916767], [19.265282960938467, 48.8053822017282], [19.250838698855134, 48.80571734573759], [19.23639424543068, 48.80605068004879], [19.22194959976672, 48.80638220410627], [19.207504764558237, 48.80671191676253], [19.193059740703564, 48.807039821011465], [19.178614529999294, 48.80736591393035], [19.164169130648833, 48.80769019673776], [19.149723547143736, 48.80801267006039], [19.13527777768737, 48.808333332749896]]]}}, {"type": "Feature", "properties": {"_zoneType": "RSTA", "identifier": "LZR314", "name": "R314", "authority": "LPS SR, š. p.", "siteUrl": "https://aim.lps.sk/web/index.php?fn=200&lng=en", "dataSource": "lps-sr-lara-reservation", "base_raw": "0 FEET", "top_raw": "5000 FEET", "aip_edition": "AIP_SR_EFF_03SEP2026", "lps_type_code": "R", "lps_airspace_type": "NAM", "lps_activity_code": "EXERCISE", "lps_mil_code": "MIL", "start_time": "2026-09-16T00:00:00Z", "end_time": "2026-09-17T00:00:00Z", "conditions": "Aktívny: H24\nVstup len so súhlasom stanovišťa MIL TWR Malacky.\nSúhlas musí byť získaný minimálne 3 minúty vopred na MALACKY VEŽA FREQ 129,580.\nPovinné vybavenie odpovedačom SSR.\nTrieda vzdušného priestoru: G\nStanovište poskytujúce ATS: FIC Bratislava\nVýcvik vojenského letectva.", "message": "Aktívny: H24\nVstup len so súhlasom stanovišťa MIL TWR Malacky.\nSúhlas musí byť získaný minimálne 3 minúty vopred na MALACKY VEŽA FREQ 129,580.\nPovinné vybavenie odpovedačom SSR.\nTrieda vzdušného priestoru: G\nStanovište poskytujúce ATS: FIC Bratislava\nVýcvik vojenského letectva.\nActive: H24\nEntry only after approval from Malacky MIL TWR unit.\nSuch approval shall be obtained at least 3 minutes in advance on MALACKY TOWER FREQ 129,580.\nMandatory equipment SSR transponder.\nAirspace class: G\nUnit providing ATS: Bratislava FIC\nMilitary air training.", "lowerLimit": "GND", "upperLimit": "5000", "upper_limit_unit": "FT", "upperRef": "AMSL"}, "geometry": {"type": "Polygon", "coordinates": [[[17.13194465595989, 48.58833503711694], [17.127775192043984, 48.578454970929336], [17.123605728128076, 48.56857490525983], [17.119436264212165, 48.5586910247268], [17.115270615441265, 48.548810958927056], [17.111104964873736, 48.53893089322259], [17.10693931610283, 48.52905082687578], [17.10277748068034, 48.51916694628145], [17.102769852186924, 48.51924323984935], [17.10161781314071, 48.51917076093281], [17.09856986980589, 48.518953322965956], [17.095525741616076, 48.51870536777481], [17.09249305706465, 48.5184192660912], [17.08946800190494, 48.51809501607882], [17.086450577035244, 48.517740250093816], [17.083440780658968, 48.51735115092188], [17.080446243066085, 48.51692390414182], [17.07745933486492, 48.516462326023984], [17.07448768634548, 48.51596641503514], [17.07152748056614, 48.51543617195228], [17.06858253536685, 48.51487159688776], [17.06565284715434, 48.51427268988417], [17.06274223287026, 48.51364326479182], [17.0598430631229, 48.51297569321414], [17.056966782448956, 48.51227760279456], [17.054109573008517, 48.511541367177074], [17.05126762414811, 48.51077842697948], [17.048448562564513, 48.509977340918006], [17.045652390054393, 48.50914573680655], [17.042879104821026, 48.50828361492863], [17.040128707762833, 48.507387161164736], [17.037401198879724, 48.506456374884074], [17.03469657907009, 48.50549888615278], [17.032018660783912, 48.50450706492416], [17.02937126186123, 48.50348472620648], [17.026746750215352, 48.50243186993978], [17.02415275613631, 48.501352310216475], [17.02158546358079, 48.50023841913129], [17.019048691287026, 48.4990940087996], [17.01654624901017, 48.49792289697862], [17.014070510951758, 48.49672508181961], [17.011629104706856, 48.49549293511239], [17.009218216028813, 48.494237899775186], [17.006841660062605, 48.49295234681371], [17.004499435011603, 48.491640091228376], [17.002195357817474, 48.49030113213898], [16.999921799088472, 48.488935471004936], [16.997686386419716, 48.48754310626689], [16.99548911981117, 48.48612403870525], [16.9933300019578, 48.4846782678676], [16.99120903016464, 48.48321342499971], [16.989126205330024, 48.48171806318681], [16.98708152835228, 48.4802036289159], [16.985078811681458, 48.47866249103646], [16.983118057114186, 48.47709846493709], [16.981195450403757, 48.47551155088695], [16.979318619145257, 48.47390556301472], [16.97747993484533, 48.47227668788359], [16.975687026895628, 48.470624923889574], [16.973939896194484, 48.46895408604227], [16.97223472580026, 48.46726417484509], [16.970575332654594, 48.46555137626271], [16.96895790071418, 48.463823317874606], [16.967390060269032, 48.4620723721439], [16.96586799617414, 48.46030616772362], [16.964391708429474, 48.45852470421823], [16.962961197035032, 48.45672416722932], [16.961580276237594, 48.4549045559252], [16.960245131790348, 48.45307350215188], [16.9589595788384, 48.45122718789224], [16.95772361828001, 48.44936180111658], [16.95653724742026, 48.44748497028962], [16.955400467157446, 48.44559669474554], [16.954313278389897, 48.443693161226044], [16.95327568111761, 48.44177818313542], [16.95228767444226, 48.43985176097464], [16.951349258363845, 48.43791007983451], [16.95046424892573, 48.43596458402538], [16.949628830084553, 48.434003830201604], [16.948846816985316, 48.432035445909285], [16.94811820962802, 48.430059433250115], [16.947439193766023, 48.42807197579688], [16.946813582747637, 48.426080704202214], [16.946237564122843, 48.42407798812416], [16.94571495123999, 48.42207527182271], [16.945245743200818, 48.42006111103984], [16.94482994090355, 48.41804313702149], [16.944467545246585, 48.41602134693757], [16.944158554433265, 48.4139957427266], [16.943902969361886, 48.41196632394164], [16.94369697578577, 48.409936905253275], [16.943548203096604, 48.40790367080364], [16.943449020106076, 48.40586662312582], [16.943407058900856, 48.403833388748644], [16.943418503437577, 48.40179634085631], [16.943479537672935, 48.39975929309217], [16.943597793693538, 48.397726059113914], [16.943765640311142, 48.39569282499078], [16.943990706917365, 48.39365959192476], [16.94426536591718, 48.3916339869427], [16.944597244007316, 48.389608383047964], [16.944978713592715, 48.387590407873354], [16.945413588920058, 48.385572433217085], [16.945901870887703, 48.383562087912125], [16.946439742553952, 48.38155937227474], [16.94703483600551, 48.379560471011025], [16.94767952005397, 48.377573013107295], [16.948377608946107, 48.37558937108792], [16.94912529023181, 48.37361717214153], [16.94992637636115, 48.37164878819137], [16.95077705398576, 48.3696956627595], [16.951677322207303, 48.36775016820764], [16.952630997069118, 48.365816116087004], [16.95363426162957, 48.36389350890263], [16.95469093283029, 48.36198234616784], [16.95579338127957, 48.36008262619398], [16.95694541942748, 48.358198166282534], [16.958150864215668, 48.35632515018969], [16.959398270209075, 48.35446739189638], [16.960699081046158, 48.35262489307861], [16.962045670030093, 48.350797653010595], [16.963441848712666, 48.34898567214645], [16.96488380374546, 48.34718894973224], [16.966371536026852, 48.34541130077746], [16.967908858905172, 48.343652724895705], [16.969488143887045, 48.341909409221934], [16.971113205219172, 48.34018516492822], [16.972784042003234, 48.33847999574678], [16.974500656035847, 48.33679771404796], [16.97625923217204, 48.33513069199527], [16.97805976861513, 48.333486557264806], [16.97990608230677, 48.33186531088112], [16.981790542956986, 48.33026313812096], [16.9837207790591, 48.328683853038356], [16.985689163018087, 48.32712745716674], [16.987695693935617, 48.32559776329635], [16.989748001203406, 48.32408714326845], [16.99183464118303, 48.3225994108906], [16.993959427222862, 48.321138382179534], [16.996126175366246, 48.31970405584916], [16.99832725532317, 48.318292618140106], [17.00056266799196, 48.31690788289247], [17.00283622672093, 48.3155498498938], [17.005147934205105, 48.314218521279145], [17.007490158357776, 48.31291389495955], [17.009866714323984, 48.31163597119326], [17.012277603002026, 48.31038475019651], [17.014722824391935, 48.30916786195401], [17.0295391075805, 48.30685615514557], [17.044355391667395, 48.30454063413551], [17.05916786240588, 48.302221297820424], [17.073286056702333, 48.30309104881496], [17.08740425099876, 48.30395317113146], [17.101522446193517, 48.30481529203212], [17.115640639591646, 48.30567741390639], [17.129762649931408, 48.30653572105431], [17.143880844227837, 48.30739402810802], [17.158002852770966, 48.30824852009314], [17.17212486311073, 48.3091030121107], [17.18624305740719, 48.309953689911346], [17.200365066848622, 48.31080436727308], [17.214490891435094, 48.311655044792765], [17.22861289997823, 48.31250190721652], [17.228757858420686, 48.31237983688766], [17.22987174961006, 48.312986373979314], [17.232213973762732, 48.31429481475999], [17.234521866101865, 48.3156299587931], [17.23679161058416, 48.316987990854265], [17.239027023252948, 48.3183765411313], [17.24122810410817, 48.31978797890783], [17.243391037106548, 48.32122611986903], [17.24551200889971, 48.322687149053735], [17.247598647981, 48.3241748812617], [17.24964714100208, 48.32568550108024], [17.25165367102131, 48.32721900886112], [17.253618239835294, 48.328779220753], [17.255544661690696, 48.330358505271164], [17.25742912323921, 48.33196067802101], [17.259271621785878, 48.333585739229605], [17.261072159127295, 48.33522987374775], [17.26282692011845, 48.336896896140516], [17.26453971900606, 48.338582993243755], [17.266206740645114, 48.34028816196566], [17.26783180197721, 48.34201240516389], [17.269407271814075, 48.3437557220917], [17.270940781344017, 48.345518111980454], [17.2724246975821, 48.34729576079201], [17.2738666526149, 48.34909248421663], [17.275259017949093, 48.35090446486482], [17.27660179088969, 48.352731705281485], [17.277898788378394, 48.35457420322167], [17.279146194371798, 48.35643577615395], [17.28034782401498, 48.35830497694941], [17.28149604791619, 48.36019325295235], [17.282598494568838, 48.3620929717849], [17.283647537276174, 48.36400413514372], [17.284650802734923, 48.36592674292669], [17.28560066155343, 48.36786460912002], [17.286500930673274, 48.369810104074176], [17.287347794051204, 48.37176704429125], [17.28814506503551, 48.37373161299723], [17.288888931176203, 48.37570762579313], [17.28958320582163, 48.37768745402167], [17.290227889870128, 48.379678726038826], [17.29081535303164, 48.38167762802864], [17.291353225596218, 48.383680343786175], [17.291837692418827, 48.38569068919298], [17.292268752601192, 48.387708663932855], [17.292650223084888, 48.38972663919055], [17.292974471783342, 48.39175224315014], [17.29324912988483, 48.39378166214068], [17.29347038314267, 48.39581108071208], [17.293634414615234, 48.39784431488073], [17.29374885638916, 48.399877547711164], [17.29380989062452, 48.40191459670376], [17.293817520016233, 48.403951645227544], [17.293767929419303, 48.40598869327352], [17.293668747327068, 48.408021926763546], [17.2935161585946, 48.41005516125557], [17.293310165018482, 48.412088393758935], [17.293050765700432, 48.41411781303805], [17.2927379606404, 48.416139603099204], [17.2923717498384, 48.41816139205759], [17.291952133294455, 48.42017936674731], [17.29147911100857, 48.422193527017626], [17.29095268208238, 48.424196242832664], [17.290376662559293, 48.426198959019864], [17.289747238192525, 48.428190230749884], [17.28906440718549, 48.43017387415119], [17.288331984683218, 48.43214988712851], [17.287546158235603, 48.43411827115958], [17.286710739394426, 48.43607902473888], [17.285821914811276, 48.43802452093338], [17.284879683587853, 48.4399623872184], [17.283891677810832, 48.4418888087594], [17.282850266291835, 48.44380378685065], [17.281759262379282, 48.44570732099114], [17.280618667869756, 48.44759559599729], [17.279428481865, 48.44947242690666], [17.278188705263275, 48.45133399999058], [17.27689933806462, 48.45318031274957], [17.275564193617406, 48.455011368032935], [17.274179458573258, 48.456830977891975], [17.27274894717885, 48.458627700820514], [17.27126884518748, 48.460412979189776], [17.269742965947543, 48.462175369292076], [17.26817131035739, 48.463922500999416], [17.26655387931527, 48.46565437290332], [17.26489067102463, 48.46736335779767], [17.2631816863837, 48.46905326807452], [17.261430739639252, 48.470724106229675], [17.25963783258785, 48.4723720547769], [17.25779914918622, 48.474000931015304], [17.25591850278271, 48.475606918250996], [17.253992080927276, 48.477190018057314], [17.252027512113326, 48.47875404371614], [17.250024796340803, 48.48029136719094], [17.24955177315659, 48.48064613275227], [17.2474994658888, 48.48215675423794], [17.245405197415792, 48.48364067079024], [17.243268966839235, 48.48510170017924], [17.24109840444914, 48.48653984080703], [17.238889694202204, 48.487947464186576], [17.236646652141733, 48.48933219891196], [17.234361648876007, 48.49069404625985], [17.23204612714516, 48.49202537527755], [17.23194694505296, 48.491945266889104], [17.23600196809324, 48.50059318504641], [17.240060806278525, 48.50923728921117], [17.24412345871052, 48.517885207751426], [17.248186111142548, 48.52652931219996], [17.252248763574542, 48.535177231295776], [17.256311416904833, 48.54382133501086], [17.260377883583534, 48.552465439120525], [17.264444351160535, 48.561113357982684], [17.25120353691054, 48.56384086607592], [17.237955093268795, 48.56656837510991], [17.224710463873794, 48.56929588327908], [17.21146202113038, 48.57201957691991], [17.198213576590337, 48.57474327125202], [17.184961318701916, 48.57746315005054], [17.171709060813498, 48.580183028718615], [17.158456802026745, 48.582902907828604], [17.14520072899332, 48.58561897295994], [17.13194465595989, 48.58833503711694]]]}}, {"type": "Feature", "properties": {"_zoneType": "RSTA", "identifier": "LZR315", "name": "R315", "authority": "LPS SR, š. p.", "siteUrl": "https://aim.lps.sk/web/index.php?fn=200&lng=en", "dataSource": "lps-sr-lara-reservation", "base_raw": "0 FEET", "top_raw": "5000 FEET", "aip_edition": "AIP_SR_EFF_03SEP2026", "lps_type_code": "R", "lps_airspace_type": "NAM", "lps_activity_code": "EXERCISE", "lps_mil_code": "MIL", "start_time": "2026-09-16T00:00:00Z", "end_time": "2026-09-17T00:00:00Z", "conditions": "Aktívny: H24\nVstup len so súhlasom stanovišťa MIL TWR Prešov.\nSúhlas musí byť získaný minimálne 3 minúty vopred na PREŠOV VEŽA FREQ 135,505.\nTrieda vzdušného priestoru: G\nStanovište poskytujúce ATS: FIC Bratislava\nVýcvik vojenského letectva.", "message": "Aktívny: H24\nVstup len so súhlasom stanovišťa MIL TWR Prešov.\nSúhlas musí byť získaný minimálne 3 minúty vopred na PREŠOV VEŽA FREQ 135,505.\nTrieda vzdušného priestoru: G\nStanovište poskytujúce ATS: FIC Bratislava\nVýcvik vojenského letectva.\nActive: H24\nEntry only after approval from Prešov MIL TWR unit.\nSuch approval shall be obtained at least 3 minutes in advance on PREŠOV VEŽA FREQ 135,505.\nAirspace class: G\nUnit providing ATS: Bratislava FIC\nMilitary air training.", "lowerLimit": "GND", "upperLimit": "5000", "upper_limit_unit": "FT", "upperRef": "AMSL"}, "geometry": {"type": "Polygon", "coordinates": [[[21.449999999858807, 49.16388888928416], [21.436124554606632, 49.16213385003475], [21.422250090314794, 49.16037714309095], [21.40837660788151, 49.158618768868806], [21.39450410820519, 49.156858727784424], [21.38063259218409, 49.15509701907859], [21.366762059818207, 49.15333364375457], [21.352892512904212, 49.151568602815644], [21.339023952340394, 49.149801894914745], [21.325156377228424, 49.148033521054906], [21.311289790263295, 49.14626348106394], [21.297424191444975, 49.144491774769484], [21.28355958167176, 49.14271840376198], [21.26969596184201, 49.14094336786892], [21.255833332854028, 49.13916666691769], [21.255815120409938, 49.1392256448672], [21.253829556171166, 49.13895214383415], [21.251365297683765, 49.138586004176716], [21.248911191955695, 49.13819164875823], [21.24646798997856, 49.13776919973798], [21.244036440048976, 49.13731878804721], [21.241617287768634, 49.136840549276364], [21.239211271552684, 49.13633463072883], [21.236819130714593, 49.13580118789583], [21.23444159468642, 49.135240383870006], [21.232079392900133, 49.13465238993442], [21.229733246702935, 49.13403738673973], [21.227403875645336, 49.13339556195429], [21.225091991193068, 49.13272711320478], [21.222798301218543, 49.132032243963366], [21.220523506407734, 49.13131116707594], [21.218268302056625, 49.13056410417602], [21.216033379867984, 49.129791282747576], [21.21381942166317, 49.128992940829356], [21.211627103873507, 49.1281693229019], [21.20945709843891, 49.12732067871384], [21.207310064722726, 49.1264472709255], [21.20518666298675, 49.12554936629355], [21.203087539119633, 49.12462723684833], [21.201013335416796, 49.12368116812614], [21.198964684292225, 49.1227114480018], [21.19694221097334, 49.12171837374526], [21.194946535297703, 49.1207022490841], [21.192978262729824, 49.119663385969716], [21.19103799603922, 49.118602099875766], [21.189126327215714, 49.117518718031626], [21.187243836570932, 49.11641357001733], [21.18539110172164, 49.11528699423342], [21.18356868501315, 49.114139336139104], [21.181777143401, 49.112970945902724], [21.180017018569274, 49.11178218193186], [21.178288852202087, 49.110573406759414], [21.176593167118984, 49.10934498998606], [21.174930478952863, 49.108097308282375], [21.173301295251886, 49.106830741274734], [21.171706110987785, 49.105545678016156], [21.170145411250832, 49.10424251110792], [21.168619670351454, 49.10292163728952], [21.16712935092206, 49.101583462145825], [21.165674906611848, 49.10022839422812], [21.16425677939196, 49.098856846820325], [21.162875397758743, 49.097469240293975], [21.161531183022102, 49.09606599681647], [21.16022454122053, 49.094647546823445], [21.158955869409404, 49.09321432313852], [21.157725550270985, 49.0917667639165], [21.15653395660618, 49.090305310880424], [21.15538145043601, 49.088830409911765], [21.154268379408485, 49.08734251222884], [21.153195078595232, 49.08584207203534], [21.15216187498298, 49.0843295471105], [21.151169077592208, 49.08280539998743], [21.150216987358576, 49.08127009501286], [21.14930588994626, 49.07972410187912], [21.148436061138128, 49.07816789209539], [21.14760776144555, 49.07660194016567], [21.14682123970191, 49.075026724179004], [21.14607673306242, 49.073442725221994], [21.14537446341096, 49.07185042620368], [21.14471464095331, 49.07025031303326], [21.14409746421714, 49.0686428728559], [21.14352311556045, 49.0670285981736], [21.14299176656149, 49.06540797978376], [21.142503577120316, 49.063781513254106], [21.142058689170824, 49.06214969186078], [21.14165723386697, 49.06051301600642], [21.141299331583053, 49.05887198321506], [21.140985085625314, 49.05722709401851], [21.140714589418515, 49.055578850780016], [21.14048791842121, 49.05392775416274], [21.140305138210326, 49.052274309016816], [21.140166299989925, 49.05061901672685], [21.140071443285816, 49.04896238522043], [21.140020590555896, 49.04730491719355], [21.140013754376582, 49.04564711717573], [21.140050931154594, 49.04398948976375], [21.140132105618644, 49.04233254197693], [21.140257249920857, 49.040676777957984], [21.140426320043844, 49.03902270014986], [21.14063926029208, 49.03737081400685], [21.140896002393518, 49.03572162092755], [21.141196462804935, 49.034075624143476], [21.14154054630483, 49.0324333251852], [21.1419281441971, 49.030795222114904], [21.142359133412526, 49.02916181482619], [21.14283337830553, 49.02753359974303], [21.143350731552374, 49.02591107276349], [21.143911030558023, 49.02429472808145], [21.144514101947607, 49.02268505582896], [21.145159757074932, 49.02108254678799], [21.14584779561564, 49.01948768826596], [21.14657800466906, 49.01790096527269], [21.14735015785976, 49.016322859930035], [21.1481640162358, 49.01475385323825], [21.149019328268935, 49.01319442095061], [21.14991583075281, 49.01164503828519], [21.150000000200016, 49.011666667002935], [21.15648429324568, 49.000833718048995], [21.162965772767897, 48.9900003852806], [21.16944444415653, 48.97916666691179], [21.17544924255472, 48.96916732579237], [21.1814516397561, 48.95916765583328], [21.18745163935403, 48.94916765499599], [21.193449238653518, 48.93916732596025], [21.19944444394274, 48.92916666727604], [21.213601146320475, 48.92701215904506], [21.227756628786054, 48.92485591404204], [21.24191089223777, 48.92269793028218], [21.256063935777327, 48.920538208141565], [21.27021575940476, 48.91837674976703], [21.284366360425075, 48.916213553763654], [21.298515738838276, 48.91404862109764], [21.312663893746063, 48.91188195214472], [21.326810826046767, 48.90971354609987], [21.3409565321471, 48.907543405109934], [21.355101013843687, 48.90537152718872], [21.36924426844161, 48.90319791507356], [21.38338629594086, 48.901022566777925], [21.39752709634141, 48.89884548385816], [21.411666666948367, 48.89666666728008], [21.41855112621545, 48.90472306824727], [21.42543779893142, 48.91277904616838], [21.43232668689286, 48.92083460185053], [21.43921779009978, 48.928889733739524], [21.446111111247163, 48.936944443822526], [21.453053846023355, 48.94505246521051], [21.45999883197767, 48.95316005607939], [21.466946068211755, 48.96126721781819], [21.47389555742059, 48.96937395004559], [21.480847298705843, 48.977480251790766], [21.487801295660745, 48.98558612326232], [21.494757549183692, 48.99369156290047], [21.50171606017291, 49.00179657327143], [21.50867682862843, 49.00990115104728], [21.515639858143548, 49.0180052982044], [21.522605147819895, 49.02610901318336], [21.529572701250764, 49.03421229619256], [21.536542516639553, 49.042315146262276], [21.54351459757946, 49.050417564778314], [21.550488945867134, 49.058519550182176], [21.557465559705964, 49.06662110327036], [21.56444444358752, 49.07472222189638], [21.55492306694048, 49.08215715900813], [21.54539884712556, 49.08959130205668], [21.535871783244428, 49.09702464799941], [21.526341872602195, 49.10445719791217], [21.516809116097125, 49.11188895228213], [21.507273511034292, 49.119319909244524], [21.497735057413696, 49.12675006928702], [21.488193751642083, 49.13417942995831], [21.47864959461775, 49.14160799292225], [21.469102585442396, 49.149035758078846], [21.45955272142107, 49.15646272297831], [21.449999999858807, 49.16388888928416]]]}}, {"type": "Feature", "properties": {"_zoneType": "RSTA", "identifier": "LZR55", "name": "R55", "authority": "LPS SR, š. p.", "siteUrl": "https://aim.lps.sk/web/index.php?fn=200&lng=en", "dataSource": "lps-sr-lara-reservation", "base_raw": "0 FL", "top_raw": "8000 FEET", "aip_edition": "AIP_SR_EFF_03SEP2026", "lps_type_code": "R", "lps_airspace_type": "NAM", "lps_activity_code": "MILOPS", "lps_mil_code": "MIL", "start_time": "2026-09-16T00:00:00Z", "end_time": "2026-09-17T00:00:00Z", "conditions": "Aktívny: H24\nVstup len so súhlasom AMC, TEL: +421/960/46 22 31. Žiadosť o povolenie sa predkladá najmenej 30 minút vopred v slovenskom jazyku.\nŽiadosť o povolenie musí obsahovať: poznávaciu značku lietadla, typ lietadla, čas, miesto vstupu alebo výstupu z priestoru, trať alebo miesto činnosti, výšku a účel letu.\nTrieda vzdušného priestoru: G\nStanovište poskytujúce ATS: FIC Bratislava\nLety OAT.", "message": "Aktívny: H24\nVstup len so súhlasom AMC, TEL: +421/960/46 22 31. Žiadosť o povolenie sa predkladá najmenej 30 minút vopred v slovenskom jazyku.\nŽiadosť o povolenie musí obsahovať: poznávaciu značku lietadla, typ lietadla, čas, miesto vstupu alebo výstupu z priestoru, trať alebo miesto činnosti, výšku a účel letu.\nTrieda vzdušného priestoru: G\nStanovište poskytujúce ATS: FIC Bratislava\nLety OAT.\nActive: H24\nEntry only after approval of AMC, TEL: +421/960/46 22 31. Request for approval to be submitted at least 30 minutes in advance in slovak language.\nRequest for approval shall include: aircraft registration mark, type of aircraft, time, entry point or exit point to/from area, route or area of activity, altitude/flight level and purpose of flight.\nAirspace class: G\nUnit providing ATS: Bratislava FIC\nOAT flights.", "lowerLimit": "GND", "upperLimit": "8000", "upper_limit_unit": "FT", "upperRef": "AMSL"}, "geometry": {"type": "Polygon", "coordinates": [[[22.457418442045704, 49.10324668927288], [22.457029343068587, 49.103574753248935], [22.456518172925865, 49.10357856780367], [22.456068038815094, 49.10376930222257], [22.455327987819405, 49.103727341089694], [22.45334052993198, 49.10311317408581], [22.4500293730324, 49.10296821591262], [22.447065353006344, 49.10336494405482], [22.444646834936588, 49.10326957674801], [22.44131660500686, 49.10289573725542], [22.44082832303925, 49.10296821591262], [22.439172745038586, 49.10178566007417], [22.438375473155954, 49.10156440683508], [22.436773299998972, 49.10214424103829], [22.43565559366456, 49.10212135304411], [22.43496131901913, 49.10186958323549], [22.434263229228694, 49.10186195386304], [22.431364058583007, 49.10083198487516], [22.428430557022114, 49.098474503093904], [22.424772263248965, 49.09924888598009], [22.422655105702514, 49.09949302699553], [22.419164657648636, 49.101106643715156], [22.411592484132623, 49.09337806708186], [22.404016494573273, 49.0856456760212], [22.396444321057263, 49.07791328402845], [22.388875960889663, 49.07017707802894], [22.381307601620364, 49.06244087211815], [22.373743056597736, 49.05470466622364], [22.36618232672015, 49.046968460272645], [22.35862159684253, 49.03923225419205], [22.351064682109946, 49.03149604790833], [22.343511580725746, 49.023759841936815], [22.33595848113817, 49.01601982081483], [22.32840537975393, 49.008283615242235], [22.32085990865978, 49.00054359377397], [22.31331062331888, 48.99280357408235], [22.305768967369698, 48.98506355314609], [22.29822730962392, 48.9773235320692], [22.290689467921446, 48.9695796971369], [22.283151627117267, 48.961839676140826], [22.27561759876317, 48.95409965477834], [22.26808738735071, 48.946355819917606], [22.26055717503995, 48.93861198394504], [22.257581711375508, 48.92969703707003], [22.25461006195777, 48.92078208897457], [22.251638411641707, 48.91186714221349], [22.248670578267273, 48.902952194028465], [22.245698928849507, 48.894037246974044], [22.24273109367848, 48.885122298880525], [22.23976326030405, 48.876207351711855], [22.236799240277996, 48.86729240388731], [22.233831406005265, 48.858377456779714], [22.230867385979217, 48.84946250880671], [22.227907181098203, 48.84054756193169], [22.224943161072147, 48.831632613979686], [22.221982956191134, 48.82271766691373], [22.21902275131009, 48.81380271914837], [22.216066359777454, 48.804887772054954], [22.213106154896405, 48.79596900898046], [22.2101497651604, 48.78705406193333], [22.207193375424392, 48.778139113753625], [22.204240799036732, 48.769220352264], [22.201288222649104, 48.76030540525273], [22.1983356480581, 48.75139045707458], [22.18910026625142, 48.74476051286199], [22.179868697793143, 48.738130568928945], [22.170640945378175, 48.73150062618754], [22.161413192963206, 48.724866866857845], [22.152189254794944, 48.718236922807606], [22.142969130873393, 48.71160316476473], [22.133749007850138, 48.70496940581506], [22.12453269997189, 48.69833183327862], [22.11532020634032, 48.69169807415642], [22.106107711810484, 48.68506050108115], [22.09689903332395, 48.6784229279645], [22.08769035304076, 48.671785355126076], [22.078485488800936, 48.66514778110574], [22.069284438807788, 48.65851020800261], [22.06008720395968, 48.65186882021254], [22.050889969111537, 48.645227431787134], [22.0416927342634, 48.63858604423309], [22.03249931276367, 48.63194465608924], [22.031034469555724, 48.622930526753684], [22.02956962634778, 48.61391258208498], [22.028108597386513, 48.60489845325858], [22.026643753280272, 48.59588050814503], [22.02517890917403, 48.58686637886187], [22.02371788021276, 48.57784843411876], [22.022256851251527, 48.568834305191004], [22.020795822290292, 48.55981635984718], [22.019334793329023, 48.55080223089454], [22.017873764367785, 48.54178428575764], [22.01641273540655, 48.53276634217335], [22.014955520691995, 48.52375221286501], [22.01349449173076, 48.51473426771912], [22.0120372770162, 48.50572013920172], [22.01058006319997, 48.496702193887096], [22.009122849383743, 48.48768424993545], [22.007665633770888, 48.478670119886914], [22.00620841995466, 48.46965217576729], [22.0047512052401, 48.460638046110354], [22.003297805670545, 48.45162010201636], [22.00184440610103, 48.44260215789144], [22.000387192284798, 48.43358802787131], [21.99893379181695, 48.424570083757416], [21.997480392247397, 48.415552139007275], [21.99603080692455, 48.40653800978496], [21.994577408253328, 48.397520065022036], [21.99312400778548, 48.388502120801874], [21.99167823760764, 48.379487991140394], [21.99224662773905, 48.37832832304207], [21.994527816758065, 48.37731742904099], [21.99553871160856, 48.37822914102611], [21.99830436655185, 48.378923415853116], [21.99892234817852, 48.379808425767266], [22.000135422358422, 48.380037308028164], [22.000337600789532, 48.38068962088307], [22.002492905294524, 48.38085365286137], [22.003625870412304, 48.3814983368624], [22.006959914588737, 48.38128089925201], [22.007715225266118, 48.38241386394238], [22.008241653293975, 48.38264274582422], [22.00811195363495, 48.38393211403818], [22.010103225769047, 48.3837833400173], [22.01050758442789, 48.3845005038986], [22.01436805663215, 48.3851490022403], [22.01482200588796, 48.385515213004524], [22.018148421570977, 48.38653755173525], [22.018632889291915, 48.387895584067465], [22.01966667231749, 48.38900947617188], [22.021059035855053, 48.38903999296304], [22.022993088000504, 48.38859367382276], [22.023958205602412, 48.38915443374956], [22.02409934979816, 48.38997077911134], [22.022951125896956, 48.39066505425908], [22.021173476730684, 48.390752792200395], [22.021326064564825, 48.39274787893949], [22.02831077581762, 48.392236709798446], [22.033128738028733, 48.38791465777984], [22.03612708986829, 48.38604545606866], [22.036771773916783, 48.38646125776127], [22.045129775677037, 48.38406181307155], [22.054601668626628, 48.377519608015], [22.058256149051434, 48.37788581818092], [22.058019637908462, 48.38060188289479], [22.05760383561123, 48.381322861135935], [22.059762955261228, 48.381528853981074], [22.060243606938826, 48.382379531959145], [22.061407088725165, 48.38216209393653], [22.061563491704312, 48.38277625992916], [22.066629409595087, 48.38231468213023], [22.066709517758852, 48.38182640104479], [22.069589615374433, 48.38208579996648], [22.06950950631234, 48.382329940745485], [22.071535110259976, 48.38282585070799], [22.07186698924844, 48.381784438979324], [22.072813033820243, 48.38200187682528], [22.071889877423555, 48.38400459295051], [22.072179794308468, 48.38530158983206], [22.07394218379301, 48.38587760898378], [22.076494216666838, 48.387235641028894], [22.080156325584994, 48.38358497616726], [22.080606460594094, 48.3836078638155], [22.084440231274833, 48.38078498796037], [22.082628250295024, 48.37871742201113], [22.084505080655195, 48.37729835493727], [22.084020614730886, 48.376890182202445], [22.085950850833033, 48.37177467309166], [22.086748122715665, 48.37154579187432], [22.08917427107547, 48.37374305694927], [22.08966636728979, 48.373640060094566], [22.09049034069595, 48.37432670583537], [22.093263625929286, 48.378557204797765], [22.09474372881896, 48.37727546683871], [22.0967884057967, 48.376909255862394], [22.097303391084466, 48.37721061707081], [22.098463057725766, 48.37644386272474], [22.100027083924243, 48.37617683376417], [22.10154151862745, 48.37621879627528], [22.10410881028467, 48.377149581814365], [22.10862922711745, 48.38073158325436], [22.111104965175855, 48.3812618260367], [22.11342811629842, 48.38107490480685], [22.116605759292305, 48.38041496282146], [22.121644973862928, 48.377878189102816], [22.121194838853825, 48.37851142912559], [22.122472763312388, 48.379560471011025], [22.125947951684573, 48.38075447099239], [22.12882804930012, 48.381067276206615], [22.133386612193146, 48.380487441968924], [22.13596153324208, 48.3806362148837], [22.13637352039431, 48.3811817170222], [22.136774063009817, 48.382909774877085], [22.135446547954317, 48.38495063774669], [22.132410049156217, 48.38770103513374], [22.132116318024593, 48.3882503510839], [22.13094139080327, 48.38956642202931], [22.130617142104814, 48.39050483706971], [22.13139915520405, 48.39137458776856], [22.13405418441675, 48.39243888916712], [22.13810157806535, 48.39303398105055], [22.146425247113733, 48.393945694277775], [22.15151023893295, 48.395593642811086], [22.1526126855856, 48.396158218099046], [22.155115127862455, 48.398702621073085], [22.155401229602333, 48.400331496772765], [22.155370712035506, 48.403310776193976], [22.15428733841296, 48.4035129550926], [22.15398979213636, 48.403581619148824], [22.152433395329602, 48.40395927397581], [22.149576186787463, 48.40389060983302], [22.146730422782085, 48.40366554308363], [22.143976212375478, 48.40384483308994], [22.142328261969908, 48.40525627097422], [22.14212226929209, 48.40756034895351], [22.14280128515412, 48.4112873079549], [22.142255783197825, 48.411458969111095], [22.14122200017225, 48.41177940398468], [22.138288497713027, 48.414587021087975], [22.137060164749727, 48.418794632253324], [22.137727736973332, 48.42163276699494], [22.13789176934423, 48.42503929072167], [22.140241622888617, 48.42851448119323], [22.139772414849407, 48.42922401371891], [22.138063431106804, 48.431749343819746], [22.13768959001479, 48.43268775913479], [22.138219833187655, 48.43537712077699], [22.13911628716252, 48.439981461074794], [22.139947890858693, 48.444253922155994], [22.1403331755891, 48.446329116904444], [22.1406993872894, 48.448324202713444], [22.141530990985572, 48.452672958175], [22.142488480094094, 48.45674324015288], [22.14342308012917, 48.460741043190446], [22.14462852491736, 48.46587181082682], [22.145902634230918, 48.471326827940736], [22.14653587284436, 48.473997115941415], [22.147542953448113, 48.47828102085115], [22.148931502739007, 48.484174728028556], [22.150358199886703, 48.4902515407795], [22.15161323527182, 48.49608421282747], [22.15292549064563, 48.502199173201596], [22.15403556758829, 48.507349014097585], [22.15456199561615, 48.50980567873661], [22.1540393827333, 48.51113700876772], [22.15397453335293, 48.51126289421141], [22.153158188440187, 48.51282310493805], [22.155584335003333, 48.51498985323772], [22.15692710884226, 48.520986557115265], [22.158285140566292, 48.52704048191809], [22.15868186983342, 48.533075333082664], [22.15901756306859, 48.53810310414349], [22.159318923591904, 48.54267692584008], [22.159578322909955, 48.546621323119105], [22.159902573405038, 48.55154609710331], [22.160245895133563, 48.556589127178256], [22.1606464386474, 48.562505721768964], [22.16088294979034, 48.565946578994875], [22.16098213188254, 48.56732749911945], [22.162538527791003, 48.57036018394589], [22.16433525088571, 48.57384681688137], [22.166673659893377, 48.578401565909424], [22.16916847188022, 48.58324623110193], [22.17138099727216, 48.5875377662898], [22.17457771329615, 48.59136009183879], [22.177652359052793, 48.59502601620452], [22.18089103718033, 48.59889030489888], [22.183198928621167, 48.60164451594274], [22.183446884300828, 48.60194206202957], [22.183820723596217, 48.60238838173466], [22.184484481573115, 48.60209846518124], [22.18551063520701, 48.60226249710417], [22.18702506991022, 48.60311317415426], [22.188272475903627, 48.60475730881388], [22.18894767841728, 48.6060962681896], [22.188131331707876, 48.60862541179101], [22.188638686705627, 48.60962486283131], [22.18969154365964, 48.61002159122709], [22.194597244324527, 48.60920524611084], [22.195974349976993, 48.609178542927054], [22.19838142440836, 48.60939979617959], [22.20121574387702, 48.610803604145985], [22.203474044720924, 48.61143302878335], [22.203832626131213, 48.611860274990306], [22.20468711890083, 48.61288261385569], [22.20586586036886, 48.614294052208486], [22.208486556869726, 48.61742210385415], [22.215703964120458, 48.62127494772204], [22.222677230836567, 48.6209201810171], [22.22998619078778, 48.62054634113626], [22.230951309288017, 48.62222862195446], [22.235216141049417, 48.624673843167834], [22.240507126444744, 48.62771034173253], [22.242044449323064, 48.62968635605433], [22.24595069877588, 48.634698867960346], [22.249670028581015, 48.63947105412446], [22.249658584942626, 48.64271736073627], [22.24965476979762, 48.64523506226565], [22.250295638701072, 48.647397995225845], [22.253229141160297, 48.64793586693931], [22.255422591725505, 48.64833641075108], [22.261686325012754, 48.65140724203166], [22.26530265758065, 48.65318107626037], [22.265020370087452, 48.65498542819297], [22.26890373226348, 48.65493965118944], [22.27445793212187, 48.65768623402668], [22.278310775832747, 48.659593581992794], [22.282274246172538, 48.66155052175481], [22.286317824676097, 48.66428566019392], [22.289304732877262, 48.66629600523052], [22.28907203687933, 48.66707801777688], [22.289102554446153, 48.66799736015036], [22.28980064423659, 48.668611526001705], [22.290807723942077, 48.66932487481516], [22.293012619044006, 48.6698055267062], [22.29570579521525, 48.6706638342005], [22.29754447861688, 48.671785355126076], [22.299108504815354, 48.67225456176118], [22.301382065340952, 48.6731967928426], [22.302507401067043, 48.6742534641682], [22.30254554712729, 48.67637443490795], [22.30473518434412, 48.67649269107741], [22.3070812227435, 48.6768169397134], [22.30829429602507, 48.677633286183], [22.30975151073963, 48.67885398914814], [22.311418533276978, 48.679151535071185], [22.312494278406138, 48.67915535011612], [22.3136043553488, 48.679182053049885], [22.314859389835625, 48.67954826379343], [22.316396712713946, 48.6798686979377], [22.317296981833785, 48.680852890097825], [22.31849098208525, 48.68157768218884], [22.32063102690852, 48.68183708200712], [22.32152366573838, 48.682275772060294], [22.32523155190509, 48.6829814912563], [22.326482773043537, 48.683008193941035], [22.32854270880471, 48.68247413577738], [22.332094192890573, 48.68271064826197], [22.333749770891203, 48.68306922876528], [22.335752486663726, 48.68372154176233], [22.337713242129325, 48.68365287772782], [22.33961296066461, 48.68389320410791], [22.34111213658439, 48.68760490382123], [22.34303474419315, 48.692163466872934], [22.345350265924, 48.697751999096546], [22.345697402797565, 48.69858360325473], [22.34575080943784, 48.70296669019867], [22.345643997055593, 48.70422554022184], [22.345605850097048, 48.70482826202938], [22.345571518283545, 48.705888747954106], [22.347578049201076, 48.708864212006375], [22.348787308235938, 48.710664748739326], [22.350461960165003, 48.7131366731767], [22.35122871358251, 48.71426200917042], [22.35370063829254, 48.71784019484242], [22.35069465616294, 48.72031974796413], [22.35262870830842, 48.7219409941155], [22.354192733608564, 48.723207474103816], [22.354940413995934, 48.723829269233875], [22.356039047300204, 48.724809646879926], [22.356973648233616, 48.725645065249594], [22.36013221729903, 48.726144791179145], [22.361795424691405, 48.73019981389005], [22.36147880628296, 48.73314857491708], [22.36047935507092, 48.735315323278606], [22.36045646689578, 48.738546370858565], [22.361604690797016, 48.73949241616036], [22.362226485772034, 48.73999977108009], [22.360124587907347, 48.741827011219435], [22.357534408973308, 48.74237632825339], [22.356489182309307, 48.7426052089739], [22.355844498260815, 48.74287605318009], [22.353910446115364, 48.7432270047576], [22.353116989377735, 48.74428367622138], [22.352506638041074, 48.74546623221749], [22.352689743442077, 48.74616813702728], [22.351083755140053, 48.74691581672571], [22.350522995298657, 48.74848747308436], [22.350061416651165, 48.7491970061094], [22.345178604161426, 48.74938774078544], [22.34334754925318, 48.74985694871509], [22.34266853339115, 48.750677109267805], [22.343008040873, 48.7511768339847], [22.344011307230076, 48.75424003598471], [22.344903946059937, 48.75588798489678], [22.34562110888048, 48.75712394693494], [22.34574699429283, 48.75796699490845], [22.346216202332005, 48.763788222808614], [22.3460140230026, 48.76526451096731], [22.345697402797565, 48.76614952076312], [22.347322464129697, 48.767583847162584], [22.34958839436528, 48.77048301671], [22.350286484155717, 48.77160072273262], [22.3511257172436, 48.77187919601052], [22.351976394868213, 48.77234458896912], [22.35447883624677, 48.772523879945574], [22.356222152701207, 48.772439957156315], [22.357934951588813, 48.77301216129146], [22.362287520905724, 48.778242110866124], [22.36374473562025, 48.779073715228236], [22.364351272710202, 48.77950859087574], [22.366334914554287, 48.78050804122903], [22.368589401151482, 48.780992508035794], [22.37090492198403, 48.78174781792925], [22.373369217302347, 48.782445908219444], [22.374105453153028, 48.784513473795016], [22.374601363614058, 48.78550910924796], [22.375593185434415, 48.78634834318236], [22.37610435467884, 48.786554337242336], [22.377187729199683, 48.788454055893354], [22.376058578328582, 48.78917503399735], [22.37617683434922, 48.7902088172456], [22.3768291468911, 48.79070091189529], [22.378080368029543, 48.79194831788645], [22.3787899023567, 48.79343605000967], [22.378904343232332, 48.793928146147564], [22.37905693106647, 48.794626236255986], [22.380395888862065, 48.79572486900651], [22.38083839358115, 48.79648780795379], [22.38485526966289, 48.79814720172928], [22.387022017806274, 48.798948287749965], [22.38764762882466, 48.80003929100895], [22.38681602512849, 48.80143928477623], [22.38651847795356, 48.80291175775294], [22.385839462091532, 48.8049335482381], [22.38540077161918, 48.80556678825075], [22.385000229003676, 48.8066158291864], [22.384939193869986, 48.80753517192092], [22.385702133040787, 48.81084251391348], [22.385625839123733, 48.81134605372799], [22.385061264137335, 48.81513404819356], [22.384519577326046, 48.8187656401709], [22.383699417268296, 48.82450294473669], [22.381727219062604, 48.82569694527638], [22.381338120085484, 48.82622718788778], [22.38073921238725, 48.82705497675849], [22.379117966200127, 48.82926368693011], [22.376600266038167, 48.833246231101064], [22.375913619886127, 48.83402824372905], [22.3758678444342, 48.83571434027526], [22.37613487224567, 48.83643913282404], [22.379949569896333, 48.838876723913614], [22.37917518618881, 48.8410930630184], [22.38019371043099, 48.84539604191369], [22.381044388055564, 48.8502979281586], [22.381895064781876, 48.855066298733874], [22.382043839267634, 48.855958938773654], [22.381200790136447, 48.85748100278866], [22.38125038073338, 48.85825157192536], [22.38128089919854, 48.860040665068254], [22.381898879926883, 48.86084556576608], [22.382852553890366, 48.86210823114248], [22.383535384897403, 48.865041732888386], [22.38637733465611, 48.869195938039155], [22.386732100921392, 48.869661331149906], [22.39089775059059, 48.8708133698313], [22.394426345603044, 48.873281478864534], [22.394662856745988, 48.87708854725319], [22.39523887626911, 48.877237320145696], [22.40352821440229, 48.87940025276789], [22.410909653125586, 48.88133430526209], [22.41303825431046, 48.881891250725694], [22.41787147530497, 48.88315010121928], [22.419313431236098, 48.88352394107669], [22.420442581208867, 48.88419532787177], [22.421125412215908, 48.88460349979522], [22.421175002812838, 48.885210036954625], [22.421491623017875, 48.8888835912137], [22.42192268409854, 48.89384269682675], [22.422182083416626, 48.8968486787315], [22.422582626032135, 48.90151405320746], [22.42151069604798, 48.902280806934385], [22.42100715619527, 48.902952194028465], [22.420740128383798, 48.90348243714437], [22.421445846667652, 48.90386390699028], [22.42222023037517, 48.904165268152894], [22.42343330365674, 48.90458488523093], [22.423357009739657, 48.90520667981502], [22.423883437767515, 48.9066333771134], [22.423852921098984, 48.907587051087546], [22.423635482986146, 48.908136368010084], [22.424112320417073, 48.908704757967804], [22.425104141339098, 48.909692764061816], [22.425218582214725, 48.91057395881487], [22.42457008391956, 48.91170310975496], [22.4248065950625, 48.91257286110873], [22.4261341092197, 48.913583754922016], [22.42617607132325, 48.91383171077191], [22.425989150777244, 48.9142284392249], [22.42733573886288, 48.91549110390971], [22.429662704232122, 48.917028426972514], [22.430845260845196, 48.91808509824353], [22.431226730430595, 48.91868400619137], [22.431547164882343, 48.9192523959901], [22.43133735705952, 48.920785903984175], [22.431180954080336, 48.92188835103697], [22.42834281856834, 48.922937393104235], [22.4277439117684, 48.92350959829307], [22.426294327343886, 48.924371718848626], [22.425714492675755, 48.92529487572548], [22.425287246740098, 48.926168441719874], [22.42492103593813, 48.929327010991216], [22.426351547332537, 48.92986869809295], [22.428277969187974, 48.93172264119942], [22.431482314603645, 48.935197829984396], [22.43572425818993, 48.939802170062435], [22.43838310164934, 48.9426937099212], [22.439985274806357, 48.944433212106404], [22.441614151283492, 48.94619941712059], [22.442121506281243, 48.94675254784412], [22.44272804337116, 48.947420120213316], [22.444013596323146, 48.94881629894862], [22.446882247605345, 48.95191383381334], [22.44934654202536, 48.95460319481454], [22.452913283996324, 48.95848274189248], [22.45735740691205, 48.963304520187016], [22.460687636841772, 48.96693229677927], [22.4659137728567, 48.97260475174665], [22.46623039216344, 48.97294426011082], [22.46862983720309, 48.97371864317304], [22.46954536420803, 48.974294662168425], [22.47155189512556, 48.974431991920454], [22.474061965895835, 48.97513771110718], [22.47561073331088, 48.976278305055764], [22.47582054113367, 48.97779273989294], [22.475687027227966, 48.979387283188245], [22.476106643771875, 48.98085212705393], [22.476453780645443, 48.981843948162485], [22.477415084898972, 48.98414039627706], [22.477087021055546, 48.98529624915249], [22.477338790981886, 48.987276076996885], [22.47731971705348, 48.98859977688728], [22.477415084898972, 48.98961448681258], [22.477312087661765, 48.99118232696724], [22.478841782046704, 48.99206733676175], [22.47969245877298, 48.99283790618513], [22.484163284110526, 48.993024826109824], [22.486547470366748, 48.99322319025869], [22.490339278943967, 48.99410819975408], [22.491228104425414, 48.99455070479481], [22.49300575269339, 48.996114731245896], [22.495000839074194, 48.99838829020478], [22.496606827376187, 48.99888801603819], [22.50050163319061, 48.999517440780224], [22.50409507758343, 48.99983787481779], [22.505460738699142, 48.9999179838891], [22.510499954168093, 48.99802970923714], [22.51131248483416, 48.99782371474788], [22.512563705074275, 48.997449874846716], [22.513875961346375, 48.99662971497488], [22.52082252474233, 48.996747970767785], [22.522195816148084, 48.99713706972775], [22.522665024187262, 48.99783134477799], [22.524377823074868, 48.9992427829926], [22.525934218983327, 49.00039863620049], [22.52692222565868, 49.00099372894902], [22.529977798385218, 49.00231742917836], [22.53112220803971, 49.00288581782932], [22.532339095567995, 49.00298118578562], [22.541200638079292, 49.005098342860045], [22.544137954785196, 49.00607109089867], [22.544713974308316, 49.006238937048636], [22.545495987407552, 49.00676536575248], [22.54499244665651, 49.00811195409694], [22.543745040663072, 49.010217667088966], [22.54196357725009, 49.01320838891655], [22.539037704182583, 49.01809120222785], [22.538892745740124, 49.0198230739291], [22.537992476620285, 49.02132224973965], [22.54353141769524, 49.022932053254664], [22.54770088161115, 49.025201796728375], [22.549985885775172, 49.028005600259874], [22.55108070393444, 49.03016090417934], [22.551057815759325, 49.03273200971601], [22.55106544515104, 49.03463935925209], [22.55106544515104, 49.03521537778695], [22.551107407254587, 49.0385875698143], [22.551134108778083, 49.04097938487359], [22.551160812098235, 49.04494667092093], [22.551183701171677, 49.04661369305285], [22.551198959056777, 49.049131393222424], [22.551214217840176, 49.0502147667119], [22.551252364798717, 49.05242347684079], [22.55125999508873, 49.05295753499153], [22.55126762358215, 49.0547084810013], [22.55125999508873, 49.05607414199198], [22.551298141148976, 49.05843162504704], [22.55133247386081, 49.06089973420585], [22.55140495263289, 49.063245773220956], [22.551511765015103, 49.0653247830824], [22.55153083804521, 49.06567954980313], [22.55159950257058, 49.067064285151794], [22.55168724102439, 49.06828498802279], [22.55219841026882, 49.07139778093094], [22.55269432072985, 49.075185775720556], [22.553236008439434, 49.07948493982004], [22.5548114782763, 49.079236984004034], [22.558111190639195, 49.08014869704496], [22.562597274760137, 49.081037520934274], [22.56474876412013, 49.082685471145986], [22.565595626599695, 49.083662033206835], [22.56554603600276, 49.08746528607932], [22.565710068373654, 49.08799552904394], [22.56409263643321, 49.0877323149791], [22.56229591423683, 49.087747573948505], [22.56182670619762, 49.087892531864995], [22.560518265070527, 49.08740806621241], [22.55975914014644, 49.087327956758294], [22.558359146318857, 49.087503432816746], [22.55596351642421, 49.08759498580828], [22.553899764619736, 49.08842659010438], [22.55294609065622, 49.08907127419709], [22.550203322989713, 49.08986473122812], [22.54777336128153, 49.0902919769568], [22.547178267830002, 49.090902328259006], [22.547090530274524, 49.091558456055296], [22.544660567668043, 49.09245872491233], [22.54258537312344, 49.093561171819644], [22.541284561388096, 49.093973159863204], [22.540479660113714, 49.094507216813355], [22.53942298891299, 49.09469795197871], [22.537561417336246, 49.09388923629064], [22.53603172295131, 49.09350013717815], [22.533388138275335, 49.093179703196945], [22.53080558783468, 49.09319114690415], [22.529836655087763, 49.0933017731928], [22.528867722340852, 49.09292411795046], [22.5273303985642, 49.09273338302848], [22.522108077694277, 49.092905045197114], [22.518964767412264, 49.092359542996974], [22.517744063840645, 49.09234809909807], [22.516328812127966, 49.09252738987797], [22.513296126678245, 49.09216880825893], [22.511301041195733, 49.09216117916009], [22.5085277559624, 49.091497420716344], [22.50773048407976, 49.09139823923353], [22.50701713640423, 49.091085433892445], [22.504976272774865, 49.0907840731957], [22.502485275034694, 49.08930397007865], [22.502134323016126, 49.088647841902294], [22.50100898729003, 49.08760643021455], [22.500833511280742, 49.08687782285745], [22.499788283718445, 49.08586692785593], [22.497022628775124, 49.08589363102294], [22.495473862258407, 49.086606978798415], [22.493349075320243, 49.08683967622773], [22.492063522368294, 49.087308884208326], [22.490297317738715, 49.088235854963926], [22.48800468418298, 49.08850288383776], [22.487073898394605, 49.08844566281333], [22.485952376915186, 49.088895797796596], [22.485292434981627, 49.08930397007865], [22.485078812013796, 49.0908489231799], [22.483362197981183, 49.09182167101406], [22.481012344436795, 49.09249687193112], [22.479043961376107, 49.09270286579651], [22.477830887196205, 49.09302329991435], [22.4764842991106, 49.09368705678066], [22.474615097243813, 49.09541511491271], [22.473165511920968, 49.09581184402431], [22.46980094927941, 49.098039627241405], [22.46834754881156, 49.09988212618661], [22.46682548471667, 49.10070991516408], [22.463415145724852, 49.100942611780276], [22.462041855217425, 49.10124015783098], [22.45889854403708, 49.102750777858994], [22.457418442045704, 49.10324668927288]]]}}]}