{"type":"FeatureCollection","metadata":{"country":"US","generated":"2026-09-11T12:20:19.461345+00:00","featureCount":7,"dataSources":[{"source":"NOAA / NOS / Office of National Marine Sanctuaries — Greater Farallones NOAA Regulated Overflight Zones (Special Wildlife Protection Zones)","license":"Public domain (U.S. Government work, 17 USC §105) — useLimitation: \"For cartographic use only. Not for navigation.\"","url":"https://www.arcgis.com/home/item.html?id=c2a4ee78130b46daa61936f17a4e2aa5","datasetUri":"https://services2.arcgis.com/C8EMgrsFcRFL6LrL/arcgis/rest/services/Special_Wildlife_Protection_Zones_GFNMS/FeatureServer/0"}],"disclaimer":"For planning purposes only. Data may contain errors and/or be incomplete. Binding sources are official AIP and current NOTAMs."},"features":[{"type":"Feature","geometry":{"type":"Polygon","coordinates":[[[-122.96609,37.70246],[-123.00177,37.66944],[-123.04375,37.69697],[-123.00962,37.72977],[-122.96609,37.70246]]]},"properties":{"identifier":"NOAA:GFNMS:SWPZ6","name":"Special Wildlife Protection Zone 6 — Greater Farallones NMS","type":"RSTA","lowerLimit":"GND","upperLimit":"1000 ft AGL","authority":"NOAA Office of National Marine Sanctuaries — Greater Farallones National Marine Sanctuary","siteUrl":"https://sanctuaries.noaa.gov/flight/","remark":"15 CFR 922.82(a)(11) prohibits \"Disturbing marine mammals or seabirds by flying motorized aircraft at less than 1,000 feet over the waters within any of the seven designated Special Wildlife Protection Zones described in appendix D to this subpart, except transiting Zone 6 to transport persons or supplies to or from Southeast Farallon Island authorized by the U.S. Fish and Wildlife Service, Farallon National Wildlife Refuge, or for enforcement purposes. Failure to maintain a minimum altitude of 1,000 feet above ground level over such waters is presumed to disturb marine mammals or seabirds.\"","conditions":"NOAA: the prohibition covers \"model aircraft, quadcopters, drones\" (sanctuaries.noaa.gov/flight/faqs.html). 14 CFR 107.51(b) caps small unmanned aircraft at 400 ft AGL, so every lawful drone altitude here is below the 1,000 ft minimum — a sanctuary permit or authorization is required. Source data useLimitation: \"For cartographic use only. Not for navigation.\"","dataSource":"NOAA ONMS — Special Wildlife Protection Zones (GFNMS)","licenseId":"Public domain (U.S. Government work, 17 USC §105) — useLimitation: \"For cartographic use only. Not for navigation.\""}},{"type":"Feature","geometry":{"type":"Polygon","coordinates":[[[-123.06331,37.76687],[-123.09342,37.73947],[-123.1387,37.76746],[-123.10846,37.79568],[-123.06331,37.76687]]]},"properties":{"identifier":"NOAA:GFNMS:SWPZ7","name":"Special Wildlife Protection Zone 7 — Greater Farallones NMS","type":"RSTA","lowerLimit":"GND","upperLimit":"1000 ft AGL","authority":"NOAA Office of National Marine Sanctuaries — Greater Farallones National Marine Sanctuary","siteUrl":"https://sanctuaries.noaa.gov/flight/","remark":"15 CFR 922.82(a)(11) prohibits \"Disturbing marine mammals or seabirds by flying motorized aircraft at less than 1,000 feet over the waters within any of the seven designated Special Wildlife Protection Zones described in appendix D to this subpart, except transiting Zone 6 to transport persons or supplies to or from Southeast Farallon Island authorized by the U.S. Fish and Wildlife Service, Farallon National Wildlife Refuge, or for enforcement purposes. Failure to maintain a minimum altitude of 1,000 feet above ground level over such waters is presumed to disturb marine mammals or seabirds.\"","conditions":"NOAA: the prohibition covers \"model aircraft, quadcopters, drones\" (sanctuaries.noaa.gov/flight/faqs.html). 14 CFR 107.51(b) caps small unmanned aircraft at 400 ft AGL, so every lawful drone altitude here is below the 1,000 ft minimum — a sanctuary permit or authorization is required. Source data useLimitation: \"For cartographic use only. Not for navigation.\"","dataSource":"NOAA ONMS — Special Wildlife Protection Zones (GFNMS)","licenseId":"Public domain (U.S. Government work, 17 USC §105) — useLimitation: \"For cartographic use only. Not for navigation.\""}},{"type":"Feature","geometry":{"type":"Polygon","coordinates":[[[-122.81515,37.98235],[-122.81396,37.98156],[-122.81248,37.98113],[-122.81089,37.98112],[-122.80992,37.98136],[-122.80346,37.97667],[-122.8011,37.97445],[-122.79873,37.97152],[-122.79684,37.96904],[-122.79461,37.96549],[-122.78966,37.95647],[-122.78745,37.95117],[-122.78778,37.94984],[-122.78747,37.94748],[-122.78701,37.94649],[-122.78592,37.94527],[-122.78523,37.94479],[-122.784,37.94424],[-122.78244,37.94402],[-122.78108,37.94419],[-122.7811,37.94296],[-122.78051,37.94159],[-122.77927,37.94041],[-122.7779,37.93978],[-122.77634,37.93956],[-122.77555,37.93961],[-122.77406,37.94004],[-122.77311,37.94057],[-122.77169,37.93906],[-122.76986,37.93602],[-122.7694,37.9355],[-122.76732,37.93411],[-122.76303,37.93307],[-122.76185,37.93241],[-122.76036,37.93198],[-122.75653,37.93201],[-122.75538,37.9309],[-122.75154,37.92837],[-122.74944,37.92758],[-122.74838,37.92743],[-122.74717,37.92701],[-122.74529,37.92621],[-122.74268,37.92438],[-122.74027,37.92329],[-122.73961,37.92198],[-122.73725,37.91929],[-122.73685,37.91822],[-122.73548,37.91559],[-122.73461,37.91199],[-122.73421,37.91107],[-122.73345,37.91002],[-122.7326,37.90918],[-122.73206,37.907],[-122.73202,37.90589],[-122.73119,37.90263],[-122.73071,37.90185],[-122.72977,37.90096],[-122.72877,37.90034],[-122.72666,37.89951],[-122.72482,37.89913],[-122.72307,37.89837],[-122.72152,37.89815],[-122.71916,37.89832],[-122.71757,37.89777],[-122.71323,37.90022],[-122.71226,37.89943],[-122.7104,37.89687],[-122.70987,37.89652],[-122.70993,37.89635],[-122.70929,37.89552],[-122.70947,37.89596],[-122.70905,37.89608],[-122.7069,37.89549],[-122.70505,37.8946],[-122.70278,37.8942],[-122.70257,37.8944],[-122.70137,37.89419],[-122.70051,37.89466],[-122.70023,37.89512],[-122.70013,37.89538],[-122.70042,37.89613],[-122.69994,37.89694],[-122.69921,37.89782],[-122.69806,37.89864],[-122.69336,37.9015],[-122.68997,37.90244],[-122.68851,37.90338],[-122.68708,37.90407],[-122.6836,37.90515],[-122.68352,37.90543],[-122.68289,37.90586],[-122.68265,37.90637],[-122.68224,37.90655],[-122.68212,37.90677],[-122.68233,37.90717],[-122.68232,37.90819],[-122.68213,37.90854],[-122.68228,37.90897],[-122.68215,37.90924],[-122.68245,37.90972],[-122.68235,37.90979],[-122.6825,37.91001],[-122.68284,37.90994],[-122.68309,37.91023],[-122.68361,37.91012],[-122.68444,37.91036],[-122.68526,37.91187],[-122.68666,37.91317],[-122.68735,37.91458],[-122.68791,37.91527],[-122.6881,37.91615],[-122.68828,37.91616],[-122.68851,37.91652],[-122.69001,37.91992],[-122.69206,37.92232],[-122.69239,37.92294],[-122.69369,37.92409],[-122.69467,37.92545],[-122.69496,37.92599],[-122.69564,37.92885],[-122.69607,37.92991],[-122.69706,37.93109],[-122.69763,37.93146],[-122.69812,37.93241],[-122.69828,37.9337],[-122.69759,37.93434],[-122.69667,37.93428],[-122.69477,37.93331],[-122.69243,37.93333],[-122.69153,37.93262],[-122.69082,37.93243],[-122.69001,37.93246],[-122.68903,37.93216],[-122.68903,37.93183],[-122.68964,37.9311],[-122.68959,37.93087],[-122.68881,37.93041],[-122.68624,37.93013],[-122.68417,37.93027],[-122.68287,37.92974],[-122.68233,37.92932],[-122.68251,37.92917],[-122.68254,37.92791],[-122.68127,37.92675],[-122.68064,37.92569],[-122.68023,37.92532],[-122.67951,37.92506],[-122.67872,37.92493],[-122.67683,37.92497],[-122.67534,37.92419],[-122.67382,37.92211],[-122.67316,37.92154],[-122.67184,37.92087],[-122.67167,37.91946],[-122.67122,37.9189],[-122.6685,37.91773],[-122.66637,37.91616],[-122.66616,37.91584],[-122.66608,37.91521],[-122.66628,37.91465],[-122.66616,37.91443],[-122.66515,37.91383],[-122.66473,37.91316],[-122.66374,37.91265],[-122.66228,37.91237],[-122.6615,37.91139],[-122.66073,37.91104],[-122.65692,37.90987],[-122.65673,37.90947],[-122.65484,37.90852],[-122.65446,37.90787],[-122.65367,37.90747],[-122.65301,37.90687],[-122.65271,37.90676],[-122.65203,37.90694],[-122.65141,37.90675],[-122.65066,37.90623],[-122.64972,37.90429],[-122.64801,37.90315],[-122.64718,37.9029],[-122.64699,37.90262],[-122.64723,37.9023],[-122.64824,37.90275],[-122.64863,37.90252],[-122.64955,37.90323],[-122.65021,37.90333],[-122.65058,37.9037],[-122.65131,37.90386],[-122.65191,37.9043],[-122.65112,37.90526],[-122.6535,37.90658],[-122.66057,37.90879],[-122.66178,37.90902],[-122.66614,37.90837],[-122.67118,37.90879],[-122.67314,37.90839],[-122.67525,37.90769],[-122.6765,37.90764],[-122.67866,37.90812],[-122.67974,37.90859],[-122.68032,37.90916],[-122.6807,37.90917],[-122.68096,37.9091],[-122.68132,37.9087],[-122.68131,37.90882],[-122.68151,37.90873],[-122.68131,37.90817],[-122.68135,37.90781],[-122.67965,37.90701],[-122.6778,37.90655],[-122.66869,37.90614],[-122.66275,37.90523],[-122.65886,37.90438],[-122.65446,37.90298],[-122.64619,37.89909],[-122.64141,37.89635],[-122.63591,37.89227],[-122.63583,37.89196],[-122.63501,37.89163],[-122.63476,37.89106],[-122.63497,37.89066],[-122.63441,37.89054],[-122.63409,37.89004],[-122.63409,37.89016],[-122.63302,37.88945],[-122.63282,37.88898],[-122.63304,37.88879],[-122.63301,37.88856],[-122.63259,37.88842],[-122.63219,37.88795],[-122.63177,37.88797],[-122.63119,37.8874],[-122.63112,37.88725],[-122.63146,37.88692],[-122.63116,37.88696],[-122.63079,37.8866],[-122.63073,37.88628],[-122.63028,37.88614],[-122.62911,37.88531],[-122.62885,37.8853],[-122.62816,37.88456],[-122.62819,37.88412],[-122.62852,37.8839],[-122.6286,37.88362],[-122.62855,37.88293],[-122.62883,37.88299],[-122.6285,37.8827],[-122.62874,37.88231],[-122.62897,37.88237],[-122.62884,37.88203],[-122.7399,37.88195],[-122.83285,37.96579],[-122.81515,37.98235]]]},"properties":{"identifier":"NOAA:GFNMS:SWPZ5","name":"Special Wildlife Protection Zone 5 — Greater Farallones NMS","type":"RSTA","lowerLimit":"GND","upperLimit":"1000 ft AGL","authority":"NOAA Office of National Marine Sanctuaries — Greater Farallones National Marine Sanctuary","siteUrl":"https://sanctuaries.noaa.gov/flight/","remark":"15 CFR 922.82(a)(11) prohibits \"Disturbing marine mammals or seabirds by flying motorized aircraft at less than 1,000 feet over the waters within any of the seven designated Special Wildlife Protection Zones described in appendix D to this subpart, except transiting Zone 6 to transport persons or supplies to or from Southeast Farallon Island authorized by the U.S. Fish and Wildlife Service, Farallon National Wildlife Refuge, or for enforcement purposes. Failure to maintain a minimum altitude of 1,000 feet above ground level over such waters is presumed to disturb marine mammals or seabirds.\"","conditions":"NOAA: the prohibition covers \"model aircraft, quadcopters, drones\" (sanctuaries.noaa.gov/flight/faqs.html). 14 CFR 107.51(b) caps small unmanned aircraft at 400 ft AGL, so every lawful drone altitude here is below the 1,000 ft minimum — a sanctuary permit or authorization is required. Source data useLimitation: \"For cartographic use only. Not for navigation.\"","dataSource":"NOAA ONMS — Special Wildlife Protection Zones (GFNMS)","licenseId":"Public domain (U.S. Government work, 17 USC §105) — useLimitation: \"For cartographic use only. Not for navigation.\""}},{"type":"Feature","geometry":{"type":"Polygon","coordinates":[[[-123.0113,38.01166],[-123.01355,38.00749],[-123.0141,38.00674],[-123.01504,38.00467],[-123.01603,38.00458],[-123.01732,38.00418],[-123.01868,38.00321],[-123.0199,38.00334],[-123.02128,38.00328],[-123.0229,38.0028],[-123.02432,38.00181],[-123.02502,38.00088],[-123.02634,37.99976],[-123.02675,37.99897],[-123.0276,37.99815],[-123.02793,37.99757],[-123.02868,37.99576],[-123.02868,37.99451],[-123.02847,37.9939],[-123.0274,37.99248],[-123.02619,37.99168],[-123.02471,37.99125],[-123.02324,37.99111],[-123.02143,37.99124],[-123.02061,37.99085],[-123.01936,37.99052],[-123.01727,37.99042],[-123.01541,37.99002],[-123.0139,37.99],[-123.01234,37.99022],[-123.01083,37.99091],[-123.01027,37.99139],[-123.00947,37.99135],[-123.00824,37.99048],[-123.00625,37.98967],[-123.00317,37.98915],[-123.00014,37.98944],[-122.99812,37.98982],[-122.99652,37.98901],[-122.99496,37.9888],[-122.99378,37.98886],[-122.99229,37.98929],[-122.99063,37.99034],[-122.98954,37.98947],[-122.98832,37.98877],[-122.9867,37.9883],[-122.98512,37.9883],[-122.98329,37.98892],[-122.98174,37.98894],[-122.97915,37.98863],[-122.97781,37.98879],[-122.97735,37.98869],[-122.97641,37.98782],[-122.97522,37.98719],[-122.9732,37.98666],[-122.97093,37.9865],[-122.96862,37.98679],[-122.96688,37.98622],[-122.96597,37.98616],[-122.96451,37.98636],[-122.96249,37.98626],[-122.96088,37.98672],[-122.95947,37.98772],[-122.95881,37.98868],[-122.95861,37.98929],[-122.9586,37.99054],[-122.95881,37.99115],[-122.9595,37.99213],[-122.96048,37.99298],[-122.96184,37.99361],[-122.96256,37.9943],[-122.96308,37.99536],[-122.96369,37.99613],[-122.9649,37.99694],[-122.96673,37.99744],[-122.96872,37.99736],[-122.97116,37.99789],[-122.973,37.99785],[-122.97512,37.99921],[-122.9786,38.00043],[-122.97892,38.00156],[-122.9795,38.00242],[-122.97942,38.00293],[-122.97892,38.00503],[-122.97837,38.00638],[-122.97681,38.00891],[-122.93505,38.00555],[-122.93772,37.96521],[-123.05483,37.97536],[-123.05014,38.01475],[-123.0113,38.01166]]]},"properties":{"identifier":"NOAA:GFNMS:SWPZ4","name":"Special Wildlife Protection Zone 4 — Greater Farallones NMS","type":"RSTA","lowerLimit":"GND","upperLimit":"1000 ft AGL","authority":"NOAA Office of National Marine Sanctuaries — Greater Farallones National Marine Sanctuary","siteUrl":"https://sanctuaries.noaa.gov/flight/","remark":"15 CFR 922.82(a)(11) prohibits \"Disturbing marine mammals or seabirds by flying motorized aircraft at less than 1,000 feet over the waters within any of the seven designated Special Wildlife Protection Zones described in appendix D to this subpart, except transiting Zone 6 to transport persons or supplies to or from Southeast Farallon Island authorized by the U.S. Fish and Wildlife Service, Farallon National Wildlife Refuge, or for enforcement purposes. Failure to maintain a minimum altitude of 1,000 feet above ground level over such waters is presumed to disturb marine mammals or seabirds.\"","conditions":"NOAA: the prohibition covers \"model aircraft, quadcopters, drones\" (sanctuaries.noaa.gov/flight/faqs.html). 14 CFR 107.51(b) caps small unmanned aircraft at 400 ft AGL, so every lawful drone altitude here is below the 1,000 ft minimum — a sanctuary permit or authorization is required. Source data useLimitation: \"For cartographic use only. Not for navigation.\"","dataSource":"NOAA ONMS — Special Wildlife Protection Zones (GFNMS)","licenseId":"Public domain (U.S. Government work, 17 USC §105) — useLimitation: \"For cartographic use only. Not for navigation.\""}},{"type":"Feature","geometry":{"type":"Polygon","coordinates":[[[-122.97863,38.26999],[-122.97784,38.26913],[-122.97744,38.26836],[-122.97742,38.26787],[-122.97768,38.26777],[-122.97765,38.26748],[-122.97787,38.26718],[-122.97765,38.26693],[-122.97776,38.26667],[-122.97765,38.26639],[-122.97656,38.26588],[-122.97599,38.26474],[-122.9745,38.26304],[-122.97426,38.26202],[-122.97434,38.26171],[-122.97408,38.26149],[-122.97435,38.26117],[-122.97386,38.26115],[-122.9731,38.2605],[-122.9721,38.26004],[-122.97172,38.25948],[-122.97108,38.25899],[-122.97096,38.25745],[-122.97049,38.25676],[-122.97053,38.25531],[-122.96983,38.25481],[-122.96951,38.25479],[-122.96936,38.25415],[-122.96881,38.25401],[-122.96856,38.25312],[-122.96849,38.24913],[-122.96864,38.24707],[-122.96901,38.2451],[-122.96945,38.24358],[-122.9701,38.24224],[-122.97025,38.24105],[-122.97077,38.23914],[-122.97334,38.23366],[-122.97335,38.23289],[-122.97312,38.23227],[-122.9728,38.23189],[-122.97202,38.23151],[-122.97168,38.23166],[-122.97218,38.23164],[-122.97265,38.23194],[-122.97228,38.232],[-122.972,38.23184],[-122.9717,38.23195],[-122.97164,38.23179],[-122.97121,38.23193],[-122.9706,38.23179],[-122.97108,38.23172],[-122.9704,38.23167],[-122.96931,38.23175],[-122.96929,38.23196],[-122.96906,38.23202],[-122.96825,38.23201],[-122.96798,38.23183],[-122.96628,38.23172],[-122.96342,38.2311],[-122.96303,38.23127],[-122.9626,38.23204],[-122.96202,38.2323],[-122.96189,38.23279],[-122.96127,38.23313],[-122.95836,38.23344],[-122.95813,38.23472],[-122.958,38.23475],[-122.95759,38.23427],[-122.95657,38.23424],[-122.95619,38.23405],[-122.95566,38.23343],[-122.95464,38.23279],[-122.95423,38.23208],[-122.95309,38.2312],[-122.95286,38.23085],[-122.95275,38.23014],[-122.9532,38.22674],[-122.95228,38.22393],[-122.95258,38.22218],[-122.954,38.21934],[-122.95374,38.2188],[-122.954,38.21714],[-122.95365,38.21502],[-122.957,38.21321],[-122.95922,38.21603],[-122.96213,38.21877],[-122.96495,38.22181],[-122.96739,38.22552],[-122.97331,38.22893],[-122.97425,38.2299],[-122.97575,38.23197],[-122.97697,38.23294],[-122.97832,38.2352],[-122.97925,38.23633],[-122.98031,38.23707],[-122.98121,38.23748],[-122.98185,38.2383],[-122.983,38.23913],[-122.98371,38.24005],[-122.98427,38.2405],[-122.98565,38.24112],[-122.98821,38.24156],[-122.98962,38.24249],[-122.99087,38.24287],[-122.9918,38.24351],[-122.9934,38.24427],[-122.99559,38.24463],[-122.99638,38.24458],[-122.99787,38.24415],[-122.99909,38.24334],[-122.99988,38.24226],[-123.0005,38.23942],[-123.00022,38.23818],[-122.99988,38.23761],[-122.99904,38.23679],[-122.99869,38.23602],[-122.99863,38.23498],[-122.99843,38.23438],[-122.99773,38.23336],[-122.99677,38.23255],[-122.99636,38.23122],[-122.99602,38.23065],[-122.99368,38.22845],[-122.99363,38.22794],[-122.99281,38.22765],[-122.99164,38.22658],[-122.99119,38.22534],[-122.99049,38.22433],[-122.98953,38.22351],[-122.98845,38.22217],[-122.98789,38.22173],[-122.98681,38.22119],[-122.98578,38.22091],[-122.98557,38.22045],[-122.98559,38.21997],[-122.98602,38.21789],[-122.98575,38.21592],[-122.98547,38.215],[-122.98473,38.21397],[-122.98465,38.21327],[-122.9841,38.2121],[-122.98295,38.211],[-122.98019,38.20901],[-122.97943,38.20754],[-122.97871,38.2067],[-122.97749,38.2059],[-122.97577,38.20518],[-122.97495,38.20346],[-122.99524,38.19249],[-123.02964,38.24001],[-122.97863,38.26999]]]},"properties":{"identifier":"NOAA:GFNMS:SWPZ3","name":"Special Wildlife Protection Zone 3 — Greater Farallones NMS","type":"RSTA","lowerLimit":"GND","upperLimit":"1000 ft AGL","authority":"NOAA Office of National Marine Sanctuaries — Greater Farallones National Marine Sanctuary","siteUrl":"https://sanctuaries.noaa.gov/flight/","remark":"15 CFR 922.82(a)(11) prohibits \"Disturbing marine mammals or seabirds by flying motorized aircraft at less than 1,000 feet over the waters within any of the seven designated Special Wildlife Protection Zones described in appendix D to this subpart, except transiting Zone 6 to transport persons or supplies to or from Southeast Farallon Island authorized by the U.S. Fish and Wildlife Service, Farallon National Wildlife Refuge, or for enforcement purposes. Failure to maintain a minimum altitude of 1,000 feet above ground level over such waters is presumed to disturb marine mammals or seabirds.\"","conditions":"NOAA: the prohibition covers \"model aircraft, quadcopters, drones\" (sanctuaries.noaa.gov/flight/faqs.html). 14 CFR 107.51(b) caps small unmanned aircraft at 400 ft AGL, so every lawful drone altitude here is below the 1,000 ft minimum — a sanctuary permit or authorization is required. Source data useLimitation: \"For cartographic use only. Not for navigation.\"","dataSource":"NOAA ONMS — Special Wildlife Protection Zones (GFNMS)","licenseId":"Public domain (U.S. Government work, 17 USC §105) — useLimitation: \"For cartographic use only. Not for navigation.\""}},{"type":"Feature","geometry":{"type":"Polygon","coordinates":[[[-123.26806,38.52464],[-123.26782,38.5247],[-123.26797,38.5245],[-123.26771,38.52451],[-123.26765,38.52426],[-123.26727,38.5242],[-123.26653,38.5244],[-123.2653,38.52387],[-123.26466,38.52401],[-123.26443,38.52389],[-123.26395,38.52309],[-123.2641,38.52279],[-123.26471,38.52233],[-123.26448,38.52188],[-123.26424,38.52167],[-123.26374,38.52163],[-123.26369,38.52141],[-123.26289,38.52086],[-123.26299,38.52059],[-123.26286,38.52044],[-123.26217,38.52036],[-123.26168,38.52057],[-123.26135,38.52049],[-123.26134,38.52008],[-123.2617,38.51981],[-123.26084,38.51982],[-123.26079,38.51969],[-123.26047,38.51975],[-123.26033,38.51955],[-123.25993,38.51964],[-123.25973,38.51947],[-123.25987,38.51927],[-123.25957,38.51917],[-123.25949,38.51881],[-123.25896,38.51913],[-123.25839,38.51885],[-123.25815,38.51842],[-123.25845,38.51787],[-123.25828,38.51778],[-123.25838,38.51758],[-123.25816,38.51746],[-123.25834,38.51719],[-123.25806,38.51679],[-123.25822,38.51663],[-123.25609,38.51672],[-123.25438,38.51581],[-123.25411,38.5154],[-123.2539,38.51432],[-123.25427,38.51341],[-123.25472,38.51279],[-123.25458,38.51231],[-123.25411,38.51201],[-123.25324,38.51189],[-123.25281,38.5116],[-123.25196,38.51151],[-123.25162,38.51122],[-123.25154,38.51071],[-123.251,38.51035],[-123.25124,38.51018],[-123.25084,38.51034],[-123.25025,38.5102],[-123.24948,38.51029],[-123.24984,38.51098],[-123.24934,38.51136],[-123.24948,38.51155],[-123.24931,38.51189],[-123.24889,38.51221],[-123.24817,38.51231],[-123.24737,38.5133],[-123.24595,38.51318],[-123.2454,38.51255],[-123.24518,38.51194],[-123.2453,38.51194],[-123.24484,38.51182],[-123.24465,38.51156],[-123.24415,38.51158],[-123.24392,38.512],[-123.24366,38.51208],[-123.24308,38.51203],[-123.24252,38.51173],[-123.24216,38.51105],[-123.24233,38.51063],[-123.24266,38.51043],[-123.24243,38.51038],[-123.24258,38.51028],[-123.24233,38.51011],[-123.24185,38.51006],[-123.24172,38.50984],[-123.2416,38.50988],[-123.24168,38.50997],[-123.24097,38.51003],[-123.24063,38.50986],[-123.24038,38.50945],[-123.23974,38.50944],[-123.23915,38.50988],[-123.23824,38.51007],[-123.23736,38.5098],[-123.2373,38.50941],[-123.23661,38.5093],[-123.23583,38.50953],[-123.23529,38.50934],[-123.23485,38.50881],[-123.2346,38.50659],[-123.23469,38.50625],[-123.23429,38.50601],[-123.23193,38.50564],[-123.23112,38.5051],[-123.23104,38.50438],[-123.23128,38.50343],[-123.23197,38.50315],[-123.23167,38.50271],[-123.23079,38.50281],[-123.22977,38.50248],[-123.22875,38.50247],[-123.22782,38.502],[-123.22706,38.50192],[-123.22557,38.50124],[-123.22407,38.49999],[-123.22365,38.49993],[-123.2224,38.49923],[-123.21921,38.49859],[-123.21659,38.49905],[-123.21486,38.499],[-123.21221,38.49723],[-123.21001,38.49615],[-123.20694,38.49584],[-123.20581,38.49558],[-123.20215,38.49391],[-123.20117,38.49323],[-123.2,38.49208],[-123.19932,38.49171],[-123.19768,38.49146],[-123.19485,38.49042],[-123.1942,38.4899],[-123.19372,38.48994],[-123.19326,38.48978],[-123.19205,38.48918],[-123.18984,38.48767],[-123.18838,38.48712],[-123.18551,38.48525],[-123.18401,38.48455],[-123.18273,38.48352],[-123.18239,38.48313],[-123.18238,38.48277],[-123.18199,38.48281],[-123.18137,38.48244],[-123.17924,38.48188],[-123.17846,38.48117],[-123.17803,38.48049],[-123.17578,38.47995],[-123.17559,38.47949],[-123.17491,38.47905],[-123.1744,38.47843],[-123.1744,38.47817],[-123.17472,38.47806],[-123.17446,38.47794],[-123.17434,38.47814],[-123.17392,38.47802],[-123.17379,38.47789],[-123.17383,38.47746],[-123.17332,38.47738],[-123.17312,38.47722],[-123.17322,38.47709],[-123.17275,38.47698],[-123.17224,38.47699],[-123.17229,38.47713],[-123.17102,38.4771],[-123.16999,38.47665],[-123.16957,38.47631],[-123.16963,38.47616],[-123.1693,38.47583],[-123.16935,38.47567],[-123.16987,38.47566],[-123.17002,38.47532],[-123.16985,38.47507],[-123.16921,38.47487],[-123.16858,38.47527],[-123.16792,38.47475],[-123.16764,38.47477],[-123.16738,38.47505],[-123.16673,38.47497],[-123.16544,38.4743],[-123.164,38.47294],[-123.16372,38.47187],[-123.1635,38.47159],[-123.16354,38.47075],[-123.16369,38.47048],[-123.16393,38.47039],[-123.1646,38.47068],[-123.16472,38.47044],[-123.16415,38.47001],[-123.16372,38.47024],[-123.16343,38.46997],[-123.16263,38.46973],[-123.16237,38.46944],[-123.16259,38.46907],[-123.16335,38.46868],[-123.16307,38.46798],[-123.16256,38.46807],[-123.16245,38.46832],[-123.16188,38.46777],[-123.16168,38.46808],[-123.16125,38.46818],[-123.16044,38.46799],[-123.15955,38.46814],[-123.15879,38.46802],[-123.15805,38.4677],[-123.15784,38.46732],[-123.15767,38.46729],[-123.15776,38.46707],[-123.15757,38.46674],[-123.15691,38.4668],[-123.15607,38.46617],[-123.15582,38.4655],[-123.1563,38.46529],[-123.1565,38.46498],[-123.15604,38.46481],[-123.15623,38.46458],[-123.15566,38.46477],[-123.15518,38.46432],[-123.15464,38.46457],[-123.15401,38.46433],[-123.15319,38.46464],[-123.1521,38.46444],[-123.15161,38.46412],[-123.15155,38.46346],[-123.15181,38.46335],[-123.15146,38.46314],[-123.15167,38.46263],[-123.15195,38.46247],[-123.15208,38.46267],[-123.15244,38.46268],[-123.1526,38.46244],[-123.15299,38.46261],[-123.15298,38.46218],[-123.15262,38.46211],[-123.15262,38.46196],[-123.15286,38.46198],[-123.1529,38.46183],[-123.15244,38.46143],[-123.15265,38.46135],[-123.15236,38.4608],[-123.15218,38.46094],[-123.1519,38.46081],[-123.15204,38.46149],[-123.15191,38.462],[-123.15145,38.46214],[-123.15085,38.46205],[-123.15047,38.46138],[-123.1501,38.46154],[-123.14951,38.46122],[-123.14841,38.46106],[-123.14825,38.4609],[-123.14849,38.46052],[-123.14801,38.46032],[-123.14798,38.45987],[-123.14753,38.45972],[-123.14718,38.46001],[-123.14692,38.4598],[-123.14592,38.46],[-123.14538,38.45957],[-123.14538,38.45923],[-123.14583,38.45876],[-123.14568,38.45856],[-123.14577,38.45841],[-123.14632,38.45853],[-123.14666,38.45838],[-123.14651,38.45801],[-123.14576,38.45788],[-123.14559,38.45835],[-123.14524,38.45843],[-123.14511,38.45822],[-123.14496,38.4585],[-123.14471,38.45856],[-123.14409,38.45838],[-123.14343,38.45789],[-123.14327,38.45737],[-123.14343,38.45688],[-123.14371,38.45676],[-123.14433,38.45692],[-123.14475,38.45678],[-123.14422,38.4564],[-123.14457,38.45616],[-123.14447,38.45603],[-123.14362,38.45594],[-123.14355,38.45614],[-123.14314,38.4563],[-123.14208,38.45616],[-123.14137,38.45634],[-123.14074,38.45627],[-123.13924,38.45552],[-123.13795,38.45509],[-123.13781,38.45489],[-123.13481,38.454],[-123.1319,38.4522],[-123.12888,38.44888],[-123.12646,38.44217],[-123.12652,38.44123],[-123.12698,38.44108],[-123.12762,38.44118],[-123.12788,38.44104],[-123.12809,38.44072],[-123.12805,38.44035],[-123.12844,38.44],[-123.12836,38.43962],[-123.12805,38.43939],[-123.12703,38.4396],[-123.12665,38.4402],[-123.12528,38.44086],[-123.12371,38.44004],[-123.12273,38.43879],[-123.12255,38.4379],[-123.1227,38.43763],[-123.12286,38.43773],[-123.12304,38.43753],[-123.12272,38.43749],[-123.12189,38.43585],[-123.12188,38.43324],[-123.12096,38.43176],[-123.12077,38.43109],[-123.1208,38.43069],[-123.12125,38.43018],[-123.12203,38.43028],[-123.12149,38.42981],[-123.12071,38.42976],[-123.12036,38.42931],[-123.12033,38.42963],[-123.11992,38.42974],[-123.11955,38.42964],[-123.11927,38.42938],[-123.11925,38.42896],[-123.11905,38.42874],[-123.11878,38.42874],[-123.11814,38.42916],[-123.11758,38.42893],[-123.11744,38.42865],[-123.11752,38.42851],[-123.11703,38.42835],[-123.11666,38.42791],[-123.1165,38.42691],[-123.11673,38.42673],[-123.11644,38.42671],[-123.11648,38.42653],[-123.11616,38.42617],[-123.1162,38.42485],[-123.11572,38.42437],[-123.11559,38.42366],[-123.11443,38.42209],[-123.1146,38.42171],[-123.11394,38.42143],[-123.11316,38.42146],[-123.11197,38.42081],[-123.11137,38.4207],[-123.11098,38.42081],[-123.10939,38.42041],[-123.10885,38.41986],[-123.10868,38.41943],[-123.10872,38.41885],[-123.10794,38.41806],[-123.10795,38.41783],[-123.10688,38.41777],[-123.10582,38.41732],[-123.10511,38.41647],[-123.10502,38.41612],[-123.10377,38.41525],[-123.10266,38.41408],[-123.10195,38.41258],[-123.10196,38.41237],[-123.10214,38.41229],[-123.10143,38.41198],[-123.10075,38.41067],[-123.09944,38.40628],[-123.099,38.40337],[-123.09755,38.40168],[-123.09688,38.4002],[-123.09661,38.39781],[-123.09667,38.39622],[-123.09685,38.39585],[-123.09759,38.39597],[-123.0969,38.39562],[-123.09645,38.39562],[-123.09654,38.39521],[-123.0968,38.39492],[-123.09659,38.39445],[-123.09696,38.39428],[-123.09633,38.39396],[-123.09604,38.39422],[-123.09605,38.39387],[-123.09555,38.39355],[-123.09554,38.39312],[-123.12069,38.39311],[-123.18565,38.45095],[-123.26805,38.49854],[-123.26806,38.52464]]]},"properties":{"identifier":"NOAA:GFNMS:SWPZ2","name":"Special Wildlife Protection Zone 2 — Greater Farallones NMS","type":"RSTA","lowerLimit":"GND","upperLimit":"1000 ft AGL","authority":"NOAA Office of National Marine Sanctuaries — Greater Farallones National Marine Sanctuary","siteUrl":"https://sanctuaries.noaa.gov/flight/","remark":"15 CFR 922.82(a)(11) prohibits \"Disturbing marine mammals or seabirds by flying motorized aircraft at less than 1,000 feet over the waters within any of the seven designated Special Wildlife Protection Zones described in appendix D to this subpart, except transiting Zone 6 to transport persons or supplies to or from Southeast Farallon Island authorized by the U.S. Fish and Wildlife Service, Farallon National Wildlife Refuge, or for enforcement purposes. Failure to maintain a minimum altitude of 1,000 feet above ground level over such waters is presumed to disturb marine mammals or seabirds.\"","conditions":"NOAA: the prohibition covers \"model aircraft, quadcopters, drones\" (sanctuaries.noaa.gov/flight/faqs.html). 14 CFR 107.51(b) caps small unmanned aircraft at 400 ft AGL, so every lawful drone altitude here is below the 1,000 ft minimum — a sanctuary permit or authorization is required. Source data useLimitation: \"For cartographic use only. Not for navigation.\"","dataSource":"NOAA ONMS — Special Wildlife Protection Zones (GFNMS)","licenseId":"Public domain (U.S. Government work, 17 USC §105) — useLimitation: \"For cartographic use only. Not for navigation.\""}},{"type":"Feature","geometry":{"type":"Polygon","coordinates":[[[-123.60261,38.80866],[-123.60244,38.80839],[-123.60262,38.80808],[-123.6025,38.80738],[-123.60195,38.80758],[-123.6016,38.80724],[-123.60103,38.80715],[-123.60062,38.80724],[-123.60004,38.80792],[-123.59947,38.80816],[-123.59935,38.80849],[-123.59902,38.80864],[-123.59853,38.80869],[-123.59778,38.80848],[-123.59682,38.80876],[-123.59658,38.8087],[-123.59641,38.80841],[-123.59613,38.80853],[-123.59616,38.80874],[-123.59574,38.80876],[-123.59541,38.80841],[-123.59543,38.80804],[-123.59498,38.80839],[-123.59467,38.80841],[-123.59438,38.80811],[-123.59443,38.80767],[-123.59423,38.8077],[-123.59414,38.80754],[-123.5938,38.80777],[-123.59337,38.80772],[-123.59352,38.80739],[-123.59339,38.80703],[-123.5925,38.80728],[-123.59282,38.80688],[-123.59248,38.80686],[-123.59209,38.80627],[-123.59197,38.80592],[-123.59213,38.80565],[-123.59216,38.80502],[-123.59204,38.80489],[-123.59076,38.80545],[-123.59039,38.80521],[-123.59109,38.80489],[-123.59127,38.8046],[-123.59093,38.80479],[-123.59088,38.80462],[-123.59047,38.80468],[-123.59042,38.80412],[-123.59075,38.80389],[-123.59031,38.80357],[-123.59056,38.80305],[-123.59042,38.80275],[-123.59017,38.80268],[-123.59001,38.80223],[-123.58871,38.80265],[-123.5882,38.8025],[-123.58833,38.80209],[-123.58811,38.80212],[-123.58791,38.80256],[-123.58762,38.80262],[-123.58625,38.80247],[-123.58594,38.80199],[-123.58535,38.80178],[-123.58538,38.80161],[-123.58515,38.80157],[-123.58477,38.80091],[-123.5845,38.80095],[-123.58479,38.80063],[-123.58465,38.80053],[-123.58389,38.80108],[-123.58366,38.80158],[-123.58395,38.80205],[-123.58368,38.80236],[-123.58268,38.80272],[-123.5812,38.80295],[-123.57996,38.8026],[-123.57787,38.80154],[-123.57608,38.7999],[-123.57582,38.79991],[-123.57583,38.79966],[-123.57555,38.79981],[-123.57571,38.79947],[-123.57549,38.79932],[-123.57515,38.79981],[-123.57445,38.79985],[-123.57424,38.79942],[-123.5744,38.79892],[-123.57412,38.79886],[-123.57422,38.7983],[-123.57402,38.79803],[-123.57347,38.79797],[-123.57343,38.79771],[-123.57231,38.79807],[-123.57179,38.79805],[-123.57118,38.79742],[-123.57144,38.79698],[-123.57114,38.79633],[-123.5708,38.79615],[-123.57022,38.79621],[-123.56979,38.79666],[-123.56932,38.79641],[-123.56917,38.79613],[-123.5695,38.7961],[-123.56897,38.79555],[-123.56866,38.79549],[-123.56859,38.79518],[-123.56869,38.79496],[-123.56924,38.79473],[-123.5693,38.79448],[-123.56839,38.79421],[-123.56804,38.79433],[-123.56728,38.79402],[-123.56695,38.79362],[-123.56587,38.79365],[-123.56465,38.79251],[-123.56435,38.79242],[-123.56356,38.79126],[-123.56304,38.79098],[-123.5631,38.79067],[-123.56295,38.79035],[-123.56239,38.79001],[-123.5618,38.79037],[-123.56126,38.78998],[-123.56104,38.78955],[-123.56107,38.78911],[-123.56121,38.78892],[-123.56149,38.78893],[-123.56148,38.78875],[-123.56171,38.78864],[-123.56162,38.78822],[-123.56125,38.78792],[-123.56125,38.78736],[-123.56154,38.78707],[-123.56236,38.78727],[-123.5627,38.78689],[-123.5624,38.78649],[-123.56259,38.78632],[-123.56251,38.78615],[-123.56201,38.78599],[-123.56176,38.78615],[-123.56167,38.78589],[-123.56147,38.78598],[-123.56145,38.78554],[-123.56124,38.78537],[-123.56151,38.78512],[-123.56195,38.78523],[-123.56205,38.78495],[-123.56235,38.78482],[-123.56188,38.78474],[-123.56218,38.78448],[-123.56197,38.78429],[-123.56168,38.78448],[-123.56136,38.7843],[-123.56129,38.78458],[-123.56092,38.78452],[-123.56091,38.78485],[-123.56057,38.78529],[-123.56092,38.78542],[-123.55948,38.78512],[-123.55863,38.78583],[-123.55826,38.7858],[-123.55814,38.78548],[-123.55781,38.78543],[-123.55801,38.78506],[-123.55777,38.78504],[-123.55768,38.78482],[-123.55745,38.78474],[-123.55676,38.78492],[-123.55644,38.78471],[-123.5564,38.78435],[-123.55676,38.78427],[-123.55698,38.78397],[-123.55674,38.78382],[-123.55648,38.78396],[-123.55621,38.78387],[-123.55578,38.7835],[-123.55576,38.78315],[-123.55565,38.78314],[-123.55571,38.78334],[-123.55533,38.78345],[-123.55501,38.7832],[-123.55492,38.78289],[-123.5542,38.78338],[-123.55379,38.78314],[-123.55321,38.78331],[-123.55171,38.78293],[-123.5512,38.78302],[-123.551,38.78251],[-123.55042,38.78234],[-123.55029,38.78214],[-123.54949,38.78197],[-123.5493,38.78157],[-123.54948,38.78122],[-123.55044,38.78082],[-123.5502,38.7806],[-123.55006,38.7801],[-123.5497,38.77984],[-123.54935,38.78004],[-123.54897,38.77978],[-123.54858,38.78012],[-123.54809,38.7801],[-123.54786,38.77992],[-123.54757,38.78009],[-123.54775,38.77968],[-123.5473,38.77924],[-123.54691,38.77911],[-123.54687,38.77927],[-123.54663,38.77928],[-123.5467,38.77906],[-123.54652,38.77884],[-123.54626,38.77884],[-123.54588,38.77916],[-123.5455,38.77906],[-123.54526,38.77888],[-123.54532,38.77823],[-123.54518,38.77827],[-123.5451,38.77863],[-123.54483,38.77832],[-123.54483,38.77803],[-123.54424,38.77806],[-123.54343,38.77767],[-123.54313,38.77747],[-123.54297,38.77703],[-123.54244,38.77718],[-123.54248,38.77683],[-123.54224,38.77693],[-123.54208,38.77658],[-123.54163,38.7764],[-123.54146,38.77586],[-123.5417,38.77521],[-123.54166,38.77489],[-123.54093,38.77423],[-123.5412,38.77369],[-123.54105,38.77342],[-123.5413,38.77302],[-123.54088,38.77259],[-123.54086,38.77196],[-123.54031,38.77159],[-123.54015,38.77188],[-123.54033,38.77217],[-123.5398,38.77209],[-123.5392,38.77227],[-123.53862,38.77198],[-123.53851,38.77169],[-123.5381,38.77169],[-123.53709,38.77111],[-123.53675,38.77069],[-123.53667,38.77016],[-123.53597,38.76971],[-123.53589,38.76944],[-123.53532,38.76928],[-123.53248,38.76581],[-123.53179,38.76396],[-123.53115,38.76023],[-123.53134,38.75969],[-123.53221,38.75967],[-123.53244,38.75952],[-123.53207,38.75916],[-123.53164,38.75931],[-123.53118,38.75923],[-123.53078,38.75891],[-123.53075,38.7587],[-123.53039,38.75878],[-123.52971,38.75825],[-123.5294,38.75827],[-123.5293,38.75807],[-123.52871,38.75796],[-123.52824,38.75763],[-123.52738,38.75755],[-123.52654,38.75687],[-123.52605,38.75555],[-123.52616,38.75494],[-123.52556,38.75458],[-123.52503,38.75388],[-123.5252,38.75351],[-123.52593,38.75343],[-123.52662,38.75286],[-123.52725,38.75273],[-123.52729,38.75257],[-123.52664,38.75236],[-123.52537,38.75124],[-123.52496,38.75046],[-123.52509,38.75028],[-123.52492,38.75011],[-123.52515,38.74993],[-123.52496,38.74964],[-123.5245,38.74955],[-123.52419,38.74917],[-123.52341,38.74952],[-123.52274,38.74962],[-123.52135,38.74948],[-123.52113,38.74924],[-123.52094,38.74839],[-123.52058,38.74817],[-123.52074,38.74804],[-123.52033,38.74809],[-123.51867,38.74739],[-123.51858,38.74716],[-123.51811,38.74686],[-123.51819,38.74653],[-123.51762,38.74643],[-123.51762,38.74613],[-123.51798,38.7459],[-123.51744,38.74564],[-123.51762,38.74515],[-123.51712,38.74496],[-123.51679,38.74508],[-123.51614,38.74502],[-123.51657,38.74447],[-123.5162,38.74395],[-123.51576,38.74379],[-123.51518,38.74329],[-123.51573,38.74334],[-123.51558,38.74308],[-123.51362,38.74281],[-123.51367,38.74266],[-123.51419,38.74265],[-123.51433,38.74242],[-123.51473,38.74225],[-123.51286,38.74137],[-123.51224,38.74128],[-123.51211,38.74096],[-123.54307,38.74096],[-123.63228,38.80865],[-123.60261,38.80866]]]},"properties":{"identifier":"NOAA:GFNMS:SWPZ1","name":"Special Wildlife Protection Zone 1 — Greater Farallones NMS","type":"RSTA","lowerLimit":"GND","upperLimit":"1000 ft AGL","authority":"NOAA Office of National Marine Sanctuaries — Greater Farallones National Marine Sanctuary","siteUrl":"https://sanctuaries.noaa.gov/flight/","remark":"15 CFR 922.82(a)(11) prohibits \"Disturbing marine mammals or seabirds by flying motorized aircraft at less than 1,000 feet over the waters within any of the seven designated Special Wildlife Protection Zones described in appendix D to this subpart, except transiting Zone 6 to transport persons or supplies to or from Southeast Farallon Island authorized by the U.S. Fish and Wildlife Service, Farallon National Wildlife Refuge, or for enforcement purposes. Failure to maintain a minimum altitude of 1,000 feet above ground level over such waters is presumed to disturb marine mammals or seabirds.\"","conditions":"NOAA: the prohibition covers \"model aircraft, quadcopters, drones\" (sanctuaries.noaa.gov/flight/faqs.html). 14 CFR 107.51(b) caps small unmanned aircraft at 400 ft AGL, so every lawful drone altitude here is below the 1,000 ft minimum — a sanctuary permit or authorization is required. Source data useLimitation: \"For cartographic use only. Not for navigation.\"","dataSource":"NOAA ONMS — Special Wildlife Protection Zones (GFNMS)","licenseId":"Public domain (U.S. Government work, 17 USC §105) — useLimitation: \"For cartographic use only. Not for navigation.\""}}]}