{"type":"FeatureCollection","features":[{"type":"Feature","properties":{"_zoneType":"SI_BUILT","name":"Pozidano zemljišče","authority":"MKGP","dataSource":"raba-3000"},"geometry":{"type":"Polygon","coordinates":[[[14.601787015479132,46.425308032195694],[14.607894783148444,46.42459327654032],[14.608841900792974,46.42559941295795],[14.610343638073758,46.42549788022789],[14.610787358393958,46.427107533394],[14.612918321869248,46.42744061921481],[14.613142967555545,46.42893317033719],[14.609416433841577,46.42968770469271],[14.60585506845733,46.427698205034595],[14.605025629011132,46.42912041458591],[14.606502680906178,46.42971420743713],[14.60608405704163,46.42884151599589],[14.607689320515568,46.42897963103829],[14.610158772639307,46.43097500456514],[14.610699578465715,46.42987202473214],[14.614547752666285,46.43001845958327],[14.613544752771153,46.4276899395371],[14.615863220690668,46.42773956534083],[14.618068286612512,46.430829538117365],[14.617780562650546,46.43212330287709],[14.615183443335306,46.43242407858553],[14.616545310413365,46.433491416291325],[14.618316216439032,46.43215914052801],[14.618630019232363,46.42870715791016],[14.6218826586041,46.42814604356406],[14.622724947018504,46.428894701287696],[14.62418432335792,46.42811983040559],[14.62522835986854,46.42931218283759],[14.62380433894173,46.42955020957438],[14.626606406521711,46.43085692628329],[14.627276579072655,46.43316624855329],[14.63085395428286,46.43147630763061],[14.631898083234608,46.42924628954656],[14.634432450997567,46.4290062699235],[14.63635425084768,46.426842861766275],[14.638516324155438,46.42686462140273],[14.63992036898816,46.4281372304684],[14.639354105855025,46.42976395842028],[14.64,46.43066626063757],[14.64,46.430070540486895],[14.639722725760105,46.42972396145194],[14.64,46.42907848334907],[14.64,46.42758901683934],[14.639447805343666,46.427076365678424],[14.64,46.42679329922309],[14.64,46.42527707804651],[14.637032735351255,46.425672320660645],[14.634599556561994,46.423038328157716],[14.63558079703594,46.42726664858478],[14.634302395765083,46.42871647480726],[14.631653952572002,46.42897664070237],[14.628812923899199,46.43222620605398],[14.628005853972468,46.432014126726806],[14.627946967260174,46.4287090987157],[14.625268184127927,46.42879389446145],[14.6243200260471,46.42748958755914],[14.619156719572201,46.42847005434893],[14.616147703039776,46.42664173577302],[14.614979741749304,46.42746631953683],[14.61226196994172,46.42640190329917],[14.619789189503448,46.42180432200489],[14.621888515684628,46.42431799790532],[14.62427268727578,46.425150114708934],[14.624669154510162,46.423115063668014],[14.623301615642566,46.42240453652371],[14.622691245553463,46.420277340806365],[14.625448780275674,46.419425583899205],[14.626773510804314,46.42061254285747],[14.63747133179601,46.41763567344167],[14.64,46.41938239927304],[14.64,46.417668926941396],[14.639318454104185,46.4177724125522],[14.63842029766022,46.415787035698784],[14.638241144183057,46.41739052903638],[14.63028768649581,46.419601466674536],[14.623675487552427,46.418978686247115],[14.622103055459009,46.41762042965061],[14.623690550279022,46.41611162008083],[14.620576903697836,46.41410183360229],[14.61867920697924,46.411139816065386],[14.616218486386638,46.41088888014953],[14.615659903738479,46.40922603054941],[14.609354269600434,46.40392876392105],[14.610722707889932,46.405753418589065],[14.60498031230788,46.4033393102308],[14.604279686912522,46.40221656112824],[14.604158346963608,46.40313091463794],[14.607375134901572,46.4066185509789],[14.601320336790197,46.40437096965901],[14.601054444446442,46.40513570700646],[14.602939873703397,46.40592118563021],[14.60395086146302,46.4077140648138],[14.603741948886322,46.41123614333532],[14.600114526024097,46.41352579913529],[14.600000000000001,46.4147430236973],[14.600000000000001,46.41514686868719],[14.601426133657359,46.41619950959431],[14.600902638065243,46.41673687332498],[14.60783260274589,46.417044678387434],[14.60339048809699,46.416320856462555],[14.604515887472694,46.414006153715704],[14.6028436376171,46.415987961630904],[14.60053034300706,46.41414550329558],[14.604133655547221,46.41148086573334],[14.604303390387194,46.41062617840543],[14.606479792764988,46.41160584387616],[14.60462518319515,46.40919388456759],[14.603938699872872,46.40600587903022],[14.607681710930235,46.40727598858119],[14.608541243777546,46.40999023799901],[14.610052031520919,46.410022769923756],[14.609102388042517,46.407140065323524],[14.60610513144911,46.404504804837515],[14.606703525194595,46.40413932799241],[14.61296232568041,46.4071208962239],[14.616287490299186,46.41128453195493],[14.618476027425336,46.41144273723883],[14.62067890394688,46.41459107268338],[14.620490453610168,46.41576179051313],[14.615568241170514,46.41482883364129],[14.614432616816893,46.413830171717905],[14.615552450683454,46.415260640390265],[14.614695791181825,46.41731781496457],[14.61621176342492,46.41584420323411],[14.617317625547079,46.417557173966934],[14.615488901021434,46.41958680007596],[14.618350174973534,46.4175899248849],[14.618727654427301,46.41626286354959],[14.621541266860936,46.41597975567085],[14.621764947833,46.417811917727185],[14.62377570223788,46.41954667595365],[14.620366977257161,46.41936350410281],[14.62278766683701,46.42130498612219],[14.623845653708749,46.42421060070872],[14.622246325813627,46.42415826558734],[14.619801414886195,46.4214925018974],[14.61210425435988,46.4260809061737],[14.607065005193208,46.42401576245297],[14.602001810319086,46.42499560099992],[14.600000000000001,46.4244095919388],[14.600000000000001,46.42534509058848],[14.600103298275807,46.42458511916114],[14.601787015479132,46.425308032195694]],[[14.637419345962215,46.42607896647774],[14.639263073511911,46.425740145444976],[14.63977030453588,46.4266492482911],[14.637635426502651,46.426400084699495],[14.637419345962215,46.42607896647774]],[[14.626826335655688,46.42935620053801],[14.627397209415397,46.42913159178575],[14.627368378024803,46.42998037714339],[14.626826335655688,46.42935620053801]]]}},{"type":"Feature","properties":{"_zoneType":"SI_BUILT","name":"Pozidano zemljišče","authority":"MKGP","dataSource":"raba-3000"},"geometry":{"type":"Polygon","coordinates":[[[14.639910948551007,46.4072549100872],[14.64,46.407679038247686],[14.64,46.4075059109628],[14.639910948551007,46.4072549100872]]]}},{"type":"Feature","properties":{"_zoneType":"SI_BUILT","name":"Pozidano zemljišče","authority":"MKGP","dataSource":"raba-3000"},"geometry":{"type":"Polygon","coordinates":[[[14.63751366223542,46.41107826144395],[14.63696600654214,46.40757493612054],[14.63602351696471,46.407141762022775],[14.636985289377572,46.404550741540746],[14.634255180639434,46.40402933758889],[14.631692288317065,46.400000000000006],[14.630680861641329,46.400000000000006],[14.630526251165954,46.40031737658802],[14.629959987518083,46.400000000000006],[14.629251699728222,46.400000000000006],[14.635314704856178,46.405449062394695],[14.635391238914861,46.40840946395503],[14.636976946887684,46.41022572109666],[14.638050456076567,46.41415829751188],[14.64,46.41582127064539],[14.64,46.41491883244917],[14.63751366223542,46.41107826144395]]]}},{"type":"Feature","properties":{"_zoneType":"SI_BUILT","name":"Pozidano zemljišče","authority":"MKGP","dataSource":"raba-3000"},"geometry":{"type":"Polygon","coordinates":[[[14.640845755653967,46.431847765699665],[14.640410477535195,46.432785512392606],[14.641833986190257,46.433100803251314],[14.64128410769175,46.435349455184415],[14.642121353103404,46.43572840138088],[14.645784053330308,46.43352284231134],[14.646359275792465,46.43468510078579],[14.649676463956146,46.43328984709495],[14.650902299044605,46.43525408362195],[14.652609928499402,46.43595385798406],[14.652849790124762,46.43925720246086],[14.654674356993203,46.439270076796156],[14.656727272506098,46.437982285797176],[14.658620806970644,46.438012947466156],[14.658344361410968,46.436676439228485],[14.659399176537486,46.43600482632347],[14.665482323931956,46.44],[14.665913531586957,46.44],[14.671547564702529,46.43791387018978],[14.672876064075643,46.435905567776565],[14.676504899612054,46.43583908320719],[14.6780063012288,46.433680684631824],[14.68,46.43532804863544],[14.68,46.433833505056214],[14.679537434530749,46.43481375254026],[14.677659620766804,46.432847079371356],[14.675348102833066,46.435284546550555],[14.672126701041966,46.434874165534026],[14.672344374654145,46.43581028982538],[14.670273288313874,46.43808993524863],[14.669027083224918,46.43758716429688],[14.670223875390391,46.43616991482048],[14.66848860919489,46.43652749380896],[14.668600775180918,46.43816553807971],[14.665808881654177,46.439632707318246],[14.663250245122267,46.43789550688244],[14.664815756769528,46.437431036208366],[14.664377636614585,46.4364923925967],[14.665353866329427,46.43612898160023],[14.663456148435042,46.43520700822668],[14.663951707477873,46.43686592838258],[14.662295168878472,46.43691210296765],[14.661591916114032,46.43515583781067],[14.660503176133853,46.43639357718996],[14.660251279935482,46.43366123049069],[14.658013502874343,46.436504853085445],[14.658087987654698,46.43777243991258],[14.656536512819075,46.43770421145503],[14.654228342902027,46.43899234787735],[14.652847925099502,46.4388154290838],[14.6530892455522,46.4357688793077],[14.651119339009563,46.43493571769852],[14.650410687461044,46.432645800592034],[14.647412681747548,46.43379649778197],[14.64635477773594,46.432957853713084],[14.641732056261016,46.435119160626996],[14.642143011326104,46.43274919825752],[14.64,46.430070540486895],[14.64,46.43066626063757],[14.640845755653967,46.431847765699665]]]}},{"type":"Feature","properties":{"_zoneType":"SI_BUILT","name":"Pozidano zemljišče","authority":"MKGP","dataSource":"raba-3000"},"geometry":{"type":"Polygon","coordinates":[[[14.678380104050797,46.44],[14.68,46.44],[14.68,46.439733721183885],[14.678380104050797,46.44]]]}},{"type":"Feature","properties":{"_zoneType":"SI_BUILT","name":"Pozidano zemljišče","authority":"MKGP","dataSource":"raba-3000"},"geometry":{"type":"Polygon","coordinates":[[[14.675453970186608,46.41944654333775],[14.673557645174084,46.41842831510391],[14.672639919224173,46.415166203701084],[14.671419111038738,46.41407136442071],[14.670017988231272,46.41807735385695],[14.671312343039267,46.41791030728451],[14.670974872891165,46.41656776086055],[14.671774830193655,46.41599524567325],[14.673150248333505,46.41938836919052],[14.665902651702794,46.42249258348499],[14.66397761674632,46.42233092577986],[14.661826378323422,46.42425280389849],[14.658252763694893,46.42478827460062],[14.655531694337492,46.424551911622245],[14.651034554112023,46.42162195118449],[14.64627145491477,46.41990910819706],[14.64662594951544,46.41904948332107],[14.648042069088827,46.41930706065082],[14.645030472368004,46.41834866263825],[14.645051989801091,46.41676449684622],[14.64228791737296,46.413617065355695],[14.642110713527043,46.40893800586924],[14.644284443346145,46.408728956264355],[14.64349432170099,46.40781663318911],[14.641723257186705,46.40822347006768],[14.641313182839294,46.41120725491855],[14.64,46.4075059109628],[14.64,46.407679038247686],[14.64093700168221,46.41214172587759],[14.644493393909682,46.41686123674281],[14.644461224823546,46.41862046401209],[14.641988037355334,46.419051057071805],[14.643130415289408,46.41826377272308],[14.641449866592637,46.41799470322329],[14.640914030875855,46.41633070839366],[14.64,46.41491883244917],[14.64,46.41582127064539],[14.640472609500675,46.41622440949895],[14.640540503630353,46.41758685712236],[14.64,46.417668926941396],[14.64,46.41938239927304],[14.641208429195423,46.420217144807346],[14.646924517712442,46.42038141479398],[14.656512535618182,46.425080185436975],[14.661971786923674,46.42452918494606],[14.664383180626691,46.42252930764241],[14.667817890069049,46.422690860985526],[14.668331704875385,46.4235875063403],[14.66922627894953,46.42126083851191],[14.678397002744543,46.41943128013394],[14.68,46.41966458491634],[14.68,46.419286708115365],[14.675453970186608,46.41944654333775]],[[14.645761023268044,46.41928136263883],[14.643880812276807,46.4193836712563],[14.645578109510668,46.4189567277941],[14.645761023268044,46.41928136263883]],[[14.642046011271159,46.412065503881024],[14.641388140421265,46.412210106494136],[14.64185441799277,46.41143069380935],[14.642046011271159,46.412065503881024]]]}},{"type":"Feature","properties":{"_zoneType":"SI_BUILT","name":"Pozidano zemljišče","authority":"MKGP","dataSource":"raba-3000"},"geometry":{"type":"Polygon","coordinates":[[[14.640457406556708,46.42801366781996],[14.64,46.42758901683934],[14.64,46.42907848334907],[14.640457406556708,46.42801366781996]]]}},{"type":"Feature","properties":{"_zoneType":"SI_BUILT","name":"Pozidano zemljišče","authority":"MKGP","dataSource":"raba-3000"},"geometry":{"type":"Polygon","coordinates":[[[14.640134295531452,46.426724456543035],[14.640308631271598,46.42523596805296],[14.64,46.42527707804651],[14.64,46.42679329922309],[14.640134295531452,46.426724456543035]]]}},{"type":"Feature","properties":{"_zoneType":"SI_BUILT","name":"Pozidano zemljišče","authority":"MKGP","dataSource":"raba-3000"},"geometry":{"type":"Polygon","coordinates":[[[14.665637785711528,46.440102101226415],[14.665913531586957,46.44],[14.665482323931956,46.44],[14.665637785711528,46.440102101226415]]]}},{"type":"Feature","properties":{"_zoneType":"SI_BUILT","name":"Pozidano zemljišče","authority":"MKGP","dataSource":"raba-3000"},"geometry":{"type":"Polygon","coordinates":[[[14.677072728675801,46.44021490662239],[14.67449587281233,46.44190699127888],[14.675393270095462,46.44228308707602],[14.677560631919526,46.44064315652697],[14.6798857713929,46.44157799241412],[14.678892482181382,46.44033712172935],[14.68,46.440282987517755],[14.68,46.44],[14.678380104050797,46.44],[14.677072728675801,46.44021490662239]]]}},{"type":"Feature","properties":{"_zoneType":"SI_BUILT","name":"Pozidano zemljišče","authority":"MKGP","dataSource":"raba-3000"},"geometry":{"type":"Polygon","coordinates":[[[14.681943894979003,46.43693426049727],[14.68172679279975,46.438561587805374],[14.680966900254885,46.439574781929],[14.68,46.439733721183885],[14.68,46.44],[14.68127249760953,46.44],[14.684399576971085,46.43747438886624],[14.68220844433443,46.43841783722323],[14.682760018106627,46.4365001704234],[14.685048291649137,46.436840492762265],[14.689142891595353,46.43632754527682],[14.693193048142279,46.43793203476677],[14.69597302932453,46.43753412417409],[14.699523619863243,46.43530943890778],[14.702546817949315,46.43655808442565],[14.70395756420951,46.43862897614113],[14.708854523790801,46.43838384172812],[14.714618038955473,46.44],[14.715335417305626,46.44],[14.711695740538929,46.438049487292815],[14.710531802835675,46.4387103758178],[14.70890368650254,46.43811250628417],[14.703608317729953,46.4380143907764],[14.702783411010127,46.436323093643814],[14.699922897683622,46.43480325679493],[14.702032474459587,46.43474788804554],[14.700994932486141,46.43368308727961],[14.702967746295208,46.43288196354453],[14.705444853401065,46.43371513448524],[14.703800204954662,46.43260198769656],[14.698895871726844,46.43356820694344],[14.698648522884389,46.435777947380835],[14.69338424561496,46.437662943826155],[14.686245584618206,46.434472252006074],[14.686043496931894,46.43333263623198],[14.686776277079812,46.43310487257658],[14.689049728308548,46.434543736074204],[14.693864451840374,46.43436017232317],[14.697932850384277,46.42990842453356],[14.70040956917657,46.430710514115255],[14.698948432772859,46.431635497681185],[14.701001831087716,46.43102476869996],[14.699808172549925,46.428312209733086],[14.698792663365124,46.42881064322491],[14.69818007929512,46.42783033682168],[14.694170748074272,46.42974663999997],[14.694555846740267,46.42793037336172],[14.692848049586505,46.42629505236951],[14.692955677070056,46.42523534840878],[14.69132607321652,46.426068471282036],[14.690653544575774,46.42543676536136],[14.691836702148473,46.42501310098288],[14.69159700789594,46.422364424917276],[14.693429945342313,46.41984188822476],[14.696631653880662,46.41951732090298],[14.698454620520227,46.417802338988146],[14.700165058276577,46.41902986923022],[14.700083572313277,46.42033367682606],[14.701336176946132,46.42046654216894],[14.699083236821025,46.417375685409105],[14.700868344055477,46.41563633349479],[14.700645931710884,46.413937696774596],[14.702800142348213,46.41011181189486],[14.702789849282718,46.4081679036375],[14.705379552743903,46.4072160283227],[14.702153881683001,46.40616443734976],[14.70517543938243,46.403089469374784],[14.706647593087057,46.40315547906802],[14.705993905029645,46.402365770753846],[14.707975471649014,46.40052239788457],[14.709756578419535,46.40072451111378],[14.709924159798181,46.400000000000006],[14.7086368902524,46.400000000000006],[14.707117798342196,46.400708561522784],[14.706921053954545,46.400000000000006],[14.706383738318621,46.400000000000006],[14.704490573014903,46.40370722140168],[14.700247648770056,46.40698355679538],[14.699990487084193,46.40793270021834],[14.701719785081304,46.40937312838086],[14.700166250251446,46.41178792264592],[14.70051124020178,46.41527628630975],[14.696657184054173,46.41870105319735],[14.68,46.419286708115365],[14.68,46.41966458491634],[14.684194448507142,46.4202750568887],[14.688964797722212,46.41951175193481],[14.691544297175618,46.4211709319078],[14.68953631157158,46.42371754570531],[14.691697807088387,46.42811102474657],[14.69074966206165,46.430674809107074],[14.692345248197023,46.43152315736449],[14.691233353266513,46.430435564435726],[14.692151544587164,46.42984414279557],[14.69190583556662,46.428458084161896],[14.693144430276767,46.42851405334191],[14.693499732909807,46.42741806660704],[14.694220213172686,46.42807983833619],[14.693385118118673,46.43032320990154],[14.695186222999,46.43038494383293],[14.696561656656499,46.42872962245008],[14.697546011074726,46.429239400418055],[14.696190215291272,46.431712437131374],[14.694295867510647,46.431968228804756],[14.693554719813696,46.43394350947442],[14.68919114780621,46.43428566293489],[14.68725739230069,46.43291383383136],[14.685549762539901,46.43263107095825],[14.684353011155075,46.433813252179235],[14.686479386916508,46.43502547617413],[14.686525245048452,46.436406885673875],[14.6814736805847,46.43603586162049],[14.681061651112353,46.43405805812754],[14.680069506376594,46.433686210337285],[14.68,46.433833505056214],[14.68,46.43532804863544],[14.681943894979003,46.43693426049727]]]}},{"type":"Feature","properties":{"_zoneType":"SI_BUILT","name":"Pozidano zemljišče","authority":"MKGP","dataSource":"raba-3000"},"geometry":{"type":"Polygon","coordinates":[[[14.680981518025387,46.44023501203277],[14.68127249760953,46.44],[14.68,46.44],[14.68,46.440282987517755],[14.680981518025387,46.44023501203277]]]}},{"type":"Feature","properties":{"_zoneType":"SI_BUILT","name":"Pozidano zemljišče","authority":"MKGP","dataSource":"raba-3000"},"geometry":{"type":"Polygon","coordinates":[[[14.72,46.44150916595385],[14.72,46.441290196187055],[14.715999016273699,46.44035562449708],[14.715335417305626,46.44],[14.714618038955473,46.44],[14.72,46.44150916595385]]]}},{"type":"Feature","properties":{"_zoneType":"SI_BUILT","name":"Pozidano zemljišče","authority":"MKGP","dataSource":"raba-3000"},"geometry":{"type":"Polygon","coordinates":[[[14.732211047431731,46.43912320554753],[14.730802931515393,46.43703586275938],[14.737860602296097,46.438241480184004],[14.739719373186361,46.43939643627056],[14.739724986267912,46.438217608158986],[14.734845650238391,46.436013014504105],[14.737474781040383,46.43475823482327],[14.73598221543523,46.43234882493914],[14.739754347944022,46.43205002381562],[14.73687787651358,46.43169581867239],[14.738189992377844,46.43061910711763],[14.73596661720613,46.43198306609028],[14.734324315498215,46.4310489490948],[14.736443747550537,46.43025229450751],[14.733097521884673,46.431224898682316],[14.737004807337021,46.43418102444861],[14.73413845682379,46.436195781341155],[14.737417368414741,46.4377906066725],[14.729877671196366,46.4366036683873],[14.724971648720649,46.43322943966571],[14.731383212475174,46.439050208685046],[14.729521461960427,46.44],[14.730912714011854,46.44],[14.732211047431731,46.43912320554753]]]}},{"type":"Feature","properties":{"_zoneType":"SI_BUILT","name":"Pozidano zemljišče","authority":"MKGP","dataSource":"raba-3000"},"geometry":{"type":"Polygon","coordinates":[[[14.724061028675534,46.43794309397856],[14.72137652869741,46.438979979927176],[14.721819101781655,46.44],[14.722076636387035,46.44],[14.721719077780586,46.43918014779068],[14.72452062627779,46.43843819779748],[14.726318093423274,46.439684261385594],[14.725271456680197,46.44],[14.726928295593957,46.44],[14.724061028675534,46.43794309397856]]]}},{"type":"Feature","properties":{"_zoneType":"SI_BUILT","name":"Pozidano zemljišče","authority":"MKGP","dataSource":"raba-3000"},"geometry":{"type":"Polygon","coordinates":[[[14.721040319375287,46.4418008838926],[14.728029088647732,46.441141369307374],[14.730536074948251,46.44025435303173],[14.730912714011854,46.44],[14.729521461960427,46.44],[14.728006008363456,46.440773124354315],[14.726928295593957,46.44],[14.725271456680197,46.44],[14.72244809459919,46.44085172285161],[14.722076636387035,46.44],[14.721819101781655,46.44],[14.721886953089045,46.44015638026344],[14.720301984240082,46.441360735319655],[14.72,46.441290196187055],[14.72,46.44150916595385],[14.721040319375287,46.4418008838926]]]}},{"type":"Feature","properties":{"_zoneType":"SI_BUILT","name":"Pozidano zemljišče","authority":"MKGP","dataSource":"raba-3000"},"geometry":{"type":"Polygon","coordinates":[[[14.72454179607176,46.432031652830126],[14.724292585285207,46.43267772655412],[14.724775902381017,46.43212291682844],[14.72454179607176,46.432031652830126]]]}},{"type":"Feature","properties":{"_zoneType":"SI_BUILT","name":"Pozidano zemljišče","authority":"MKGP","dataSource":"raba-3000"},"geometry":{"type":"Polygon","coordinates":[[[14.739460075395776,46.43060376127449],[14.739176510811388,46.43051267919154],[14.739339631358042,46.43076660995047],[14.739460075395776,46.43060376127449]]]}},{"type":"Feature","properties":{"_zoneType":"SI_BUILT","name":"Pozidano zemljišče","authority":"MKGP","dataSource":"raba-3000"},"geometry":{"type":"Polygon","coordinates":[[[14.713669814366222,46.466441937113174],[14.71685294499756,46.46216010409894],[14.72,46.462102215155625],[14.72,46.46179889433283],[14.716577888474871,46.46190224041188],[14.716513500275667,46.46128984884892],[14.719693188969318,46.461127355353725],[14.72,46.460973045393835],[14.72,46.459891719318684],[14.715294133236872,46.46128809026596],[14.709876363292972,46.46027795702638],[14.715324779812917,46.461681348813684],[14.713669814366222,46.466441937113174]]]}},{"type":"Feature","properties":{"_zoneType":"SI_BUILT","name":"Pozidano zemljišče","authority":"MKGP","dataSource":"raba-3000"},"geometry":{"type":"Polygon","coordinates":[[[14.72018198859584,46.46209886754095],[14.72076845306658,46.463024347735974],[14.724278225338725,46.46276468072776],[14.726204642946577,46.46371259868971],[14.729335118753738,46.462640273723316],[14.728569789995179,46.46221442388118],[14.726354587910537,46.46342980567016],[14.725096468604843,46.46238360315186],[14.72275562672482,46.46282962358754],[14.72074652394229,46.461776349678225],[14.72,46.46179889433283],[14.72,46.462102215155625],[14.72018198859584,46.46209886754095]]]}},{"type":"Feature","properties":{"_zoneType":"SI_BUILT","name":"Pozidano zemljišče","authority":"MKGP","dataSource":"raba-3000"},"geometry":{"type":"Polygon","coordinates":[[[14.723857802078484,46.45903277198629],[14.727544563105463,46.459658230588005],[14.730657994233558,46.458568277787165],[14.739628342230834,46.45850390368413],[14.732449038969941,46.45800063006161],[14.735755903824984,46.457197260880285],[14.736040709709801,46.45512990907254],[14.739641177019267,46.45581105144263],[14.73182626446039,46.45393970594205],[14.732261148711025,46.454831991438304],[14.735543645636819,46.45570754428363],[14.735795343359342,46.45670857844247],[14.728633754537448,46.45898809367731],[14.723568280239126,46.45883290420375],[14.72,46.459891719318684],[14.72,46.460973045393835],[14.723857802078484,46.45903277198629]]]}},{"type":"Feature","properties":{"_zoneType":"SI_BUILT","name":"Pozidano zemljišče","authority":"MKGP","dataSource":"raba-3000"},"geometry":{"type":"Polygon","coordinates":[[[14.736392091506099,46.46593866634698],[14.733635491470963,46.46701405543998],[14.733708287852297,46.46862943194014],[14.730845861025303,46.4710851684895],[14.729521450509898,46.47442227744088],[14.726712466877077,46.47565233842878],[14.726581586419336,46.480000000000004],[14.726983195243065,46.480000000000004],[14.727038909066733,46.475851722976955],[14.729768576745322,46.47468951572691],[14.732260126129564,46.47019910239795],[14.734702906295924,46.46795296021227],[14.734608178658297,46.46691092230627],[14.737921289215128,46.465664870553155],[14.737851995696133,46.46425207208673],[14.739375638344423,46.462865637103924],[14.737644442867964,46.46400363604869],[14.736392091506099,46.46593866634698]]]}},{"type":"Feature","properties":{"_zoneType":"SI_BUILT","name":"Pozidano zemljišče","authority":"MKGP","dataSource":"raba-3000"},"geometry":{"type":"Polygon","coordinates":[[[14.72650280240484,46.48261709225479],[14.725220648171684,46.48384637593163],[14.72820511303749,46.48632107840099],[14.727897762849677,46.488199135323384],[14.726671069243292,46.48807755519455],[14.724738548423764,46.48539226060679],[14.720649499280636,46.485312223822746],[14.724846510713569,46.48587024011543],[14.724774862470653,46.48745264887197],[14.727349888074448,46.48865746364317],[14.728091472031288,46.4900596989251],[14.727591816727914,46.492605958510325],[14.724808503693797,46.49430211805376],[14.721371775555873,46.497862592492176],[14.721713173382177,46.49631437765451],[14.725314817574832,46.49226810777693],[14.725551345157493,46.49036590798695],[14.722391349155767,46.48743577058506],[14.721094621666712,46.487462891712305],[14.720590561174243,46.488628952092256],[14.722194636307997,46.48794507172281],[14.72488256157136,46.4898285690351],[14.725174230425688,46.49116836239118],[14.720027891408513,46.49837682219687],[14.72261684448589,46.4977081130985],[14.724966703193411,46.49463659196693],[14.727904019626354,46.49271821408222],[14.72831471728963,46.49124407996292],[14.730490456163038,46.492158712473696],[14.730901892522478,46.49379943009726],[14.734109108587486,46.49226757331275],[14.732682311206608,46.491433771450765],[14.73383842363159,46.49126958640104],[14.735116845061395,46.48923735927658],[14.734995587766559,46.48768169111092],[14.734200951491989,46.48997599526894],[14.733390852293818,46.48922995683292],[14.73206182974835,46.48965369307524],[14.73282653505703,46.492633381746664],[14.731421574433265,46.49285286584567],[14.728851469404368,46.49073717554668],[14.730835224319309,46.48784886761179],[14.73082178959823,46.48429208497456],[14.734417857965987,46.483285794410186],[14.73072647575667,46.48395389443944],[14.73023608725719,46.48791563749593],[14.728575647272766,46.48852677355145],[14.728573959528365,46.486189981518606],[14.726916670489908,46.48495322501342],[14.726983195243065,46.480000000000004],[14.726581586419336,46.480000000000004],[14.72650280240484,46.48261709225479]]]}},{"type":"Feature","properties":{"_zoneType":"SI_BUILT","name":"Pozidano zemljišče","authority":"MKGP","dataSource":"raba-3000"},"geometry":{"type":"Polygon","coordinates":[[[14.739095248852319,46.45312579103342],[14.739653319994071,46.453262991466595],[14.739216575871081,46.45299538780372],[14.739095248852319,46.45312579103342]]]}},{"type":"Feature","properties":{"_zoneType":"SI_BUILT","name":"Pozidano zemljišče","authority":"MKGP","dataSource":"raba-3000"},"geometry":{"type":"Polygon","coordinates":[[[14.739777013687885,46.4272875689586],[14.73797649363249,46.427400907194574],[14.73976997564562,46.42754970779609],[14.739777013687885,46.4272875689586]]]}},{"type":"Feature","properties":{"_zoneType":"SI_BUILT","name":"Pozidano zemljišče","authority":"MKGP","dataSource":"raba-3000"},"geometry":{"type":"Polygon","coordinates":[[[14.737687040654668,46.47543829300304],[14.73661097367741,46.47640545468066],[14.738471936462078,46.47651975151893],[14.737751472780928,46.4759290466347],[14.739143667205669,46.475120266196534],[14.735523010090414,46.47451842535904],[14.73280988604267,46.47650792291661],[14.73683048177757,46.47482213684919],[14.737687040654668,46.47543829300304]]]}},{"type":"Feature","properties":{"_zoneType":"SI_BUILT","name":"Pozidano zemljišče","authority":"MKGP","dataSource":"raba-3000"},"geometry":{"type":"Polygon","coordinates":[[[14.733935056150012,46.46252751536745],[14.734049704196165,46.46271691656923],[14.734372768245128,46.46238906674303],[14.733935056150012,46.46252751536745]]]}},{"type":"Feature","properties":{"_zoneType":"SI_BUILT","name":"Pozidano zemljišče","authority":"MKGP","dataSource":"raba-3000"},"geometry":{"type":"Polygon","coordinates":[[[14.729140020957269,46.479824871467535],[14.729165658998722,46.480000000000004],[14.729592220357373,46.480000000000004],[14.729002876824907,46.47957972744692],[14.729207914857831,46.478721536104494],[14.72838252232707,46.480000000000004],[14.728908718056259,46.480000000000004],[14.729140020957269,46.479824871467535]]]}},{"type":"Feature","properties":{"_zoneType":"SI_BUILT","name":"Pozidano zemljišče","authority":"MKGP","dataSource":"raba-3000"},"geometry":{"type":"Polygon","coordinates":[[[14.728908718056259,46.480000000000004],[14.72838252232707,46.480000000000004],[14.727879345843151,46.48077937822768],[14.728908718056259,46.480000000000004]]]}},{"type":"Feature","properties":{"_zoneType":"SI_BUILT","name":"Pozidano zemljišče","authority":"MKGP","dataSource":"raba-3000"},"geometry":{"type":"Polygon","coordinates":[[[14.729328265297557,46.48111073236766],[14.731414771026714,46.48129969700309],[14.729592220357373,46.480000000000004],[14.729165658998722,46.480000000000004],[14.729328265297557,46.48111073236766]]]}},{"type":"Feature","properties":{"_zoneType":"SI_BUILT","name":"Pozidano zemljišče","authority":"MKGP","dataSource":"raba-3000"},"geometry":{"type":"Polygon","coordinates":[[[14.72997448949479,46.47705841183208],[14.729004715559785,46.477461017747665],[14.728973199429202,46.47816840059226],[14.729679092311505,46.4778292179914],[14.72997448949479,46.47705841183208]]]}},{"type":"Feature","properties":{"_zoneType":"SI_BUILT","name":"Pozidano zemljišče","authority":"MKGP","dataSource":"raba-3000"},"geometry":{"type":"Polygon","coordinates":[[[14.729900121657261,46.447890133462906],[14.728973582909656,46.44721777221068],[14.729638547802386,46.44799064742299],[14.729900121657261,46.447890133462906]]]}},{"type":"Feature","properties":{"_zoneType":"SI_BUILT","name":"Pozidano zemljišče","authority":"MKGP","dataSource":"raba-3000"},"geometry":{"type":"Polygon","coordinates":[[[14.726794994582686,46.47327336917705],[14.726203972748756,46.47423127090838],[14.72747954844915,46.47337068589815],[14.725328086363378,46.47272374470607],[14.726794994582686,46.47327336917705]]]}},{"type":"Feature","properties":{"_zoneType":"SI_BUILT","name":"Pozidano zemljišče","authority":"MKGP","dataSource":"raba-3000"},"geometry":{"type":"Polygon","coordinates":[[[14.725648681524278,46.44539199354558],[14.723621092693849,46.44584623391543],[14.725253931801573,46.4461699318202],[14.725648681524278,46.44539199354558]]]}},{"type":"Feature","properties":{"_zoneType":"SI_BUILT","name":"Pozidano zemljišče","authority":"MKGP","dataSource":"raba-3000"},"geometry":{"type":"Polygon","coordinates":[[[14.725320286225895,46.47643030896707],[14.725191679730486,46.4756512675005],[14.725044697139076,46.47648770844957],[14.725320286225895,46.47643030896707]]]}},{"type":"Feature","properties":{"_zoneType":"SI_BUILT","name":"Pozidano zemljišče","authority":"MKGP","dataSource":"raba-3000"},"geometry":{"type":"Polygon","coordinates":[[[14.719817499501453,46.430899922625294],[14.72,46.43102824336111],[14.72,46.43101573673117],[14.719817499501453,46.430899922625294]]]}},{"type":"Feature","properties":{"_zoneType":"SI_BUILT","name":"Pozidano zemljišče","authority":"MKGP","dataSource":"raba-3000"},"geometry":{"type":"Polygon","coordinates":[[[14.722050333264775,46.434759014462664],[14.724249687279672,46.43476020955872],[14.72188475395304,46.431087671662134],[14.721139633461092,46.431738943688806],[14.72,46.43101573673117],[14.72,46.43102824336111],[14.723239100617915,46.4333057372747],[14.722050333264775,46.434759014462664]]]}},{"type":"Feature","properties":{"_zoneType":"SI_BUILT","name":"Pozidano zemljišče","authority":"MKGP","dataSource":"raba-3000"},"geometry":{"type":"Polygon","coordinates":[[[14.722738635228739,46.436750370437274],[14.722682519220132,46.43570316005565],[14.721671490147724,46.43586768697307],[14.722738635228739,46.436750370437274]]]}},{"type":"Feature","properties":{"_zoneType":"SI_BUILT","name":"Pozidano zemljišče","authority":"MKGP","dataSource":"raba-3000"},"geometry":{"type":"Polygon","coordinates":[[[14.723519264782551,46.482548171706405],[14.723040064424119,46.48216740512073],[14.721696734551752,46.48280036498363],[14.723519264782551,46.482548171706405]]]}},{"type":"Feature","properties":{"_zoneType":"SI_BUILT","name":"Pozidano zemljišče","authority":"MKGP","dataSource":"raba-3000"},"geometry":{"type":"Polygon","coordinates":[[[14.722798938254009,46.47979416949781],[14.722560668507779,46.47922844460207],[14.722490689880482,46.47982115668343],[14.722798938254009,46.47979416949781]]]}},{"type":"Feature","properties":{"_zoneType":"SI_BUILT","name":"Pozidano zemljišče","authority":"MKGP","dataSource":"raba-3000"},"geometry":{"type":"Polygon","coordinates":[[[14.709225254699083,46.42892351364429],[14.71033248067226,46.4310865173639],[14.714614267602855,46.43371062062382],[14.71555407919696,46.43359074662433],[14.713810597987754,46.43042110596475],[14.714802716161449,46.42940461906051],[14.72,46.429232775923026],[14.72,46.42845821570646],[14.717311338380467,46.428369752453136],[14.714525658641774,46.42913241111053],[14.713298428427084,46.43027206367821],[14.714564264709892,46.4324810262307],[14.71397249026491,46.433211557502176],[14.710630040334301,46.43092251277176],[14.709335954524851,46.42855917231021],[14.710344297882664,46.427737164466116],[14.70579889916131,46.423878122865865],[14.705720509134057,46.422471285219565],[14.707331688831662,46.421585350236676],[14.705527874420202,46.41797901106282],[14.707520308369586,46.41458673390909],[14.710685612650796,46.415477048754774],[14.711540316115297,46.41423457085232],[14.713278942287978,46.41460026581433],[14.714765468667537,46.413781882649076],[14.71907659189242,46.41509994838183],[14.718604588605617,46.413791881410944],[14.714605322347706,46.41351090132144],[14.71140031162052,46.41397679377467],[14.71019491823649,46.41490430865061],[14.707323252214202,46.41337929429511],[14.705152859730823,46.41798974539899],[14.706901949741908,46.42159516250977],[14.705380896332876,46.422298986645394],[14.70547151492901,46.424011790113966],[14.707044036607213,46.425930648306085],[14.705142958760632,46.425923508042],[14.70342660723568,46.423990967595394],[14.703412042000396,46.42692545776659],[14.709225254699083,46.42892351364429]],[[14.708929505835838,46.42817923613191],[14.707790590350664,46.42837523469205],[14.706302952537591,46.427736457185304],[14.707112511401983,46.42683242818954],[14.708929505835838,46.42817923613191]]]}},{"type":"Feature","properties":{"_zoneType":"SI_BUILT","name":"Pozidano zemljišče","authority":"MKGP","dataSource":"raba-3000"},"geometry":{"type":"Polygon","coordinates":[[[14.721048813836013,46.42919809791316],[14.720743684968125,46.42848268468064],[14.72,46.42845821570646],[14.72,46.429232775923026],[14.721048813836013,46.42919809791316]]]}},{"type":"Feature","properties":{"_zoneType":"SI_BUILT","name":"Pozidano zemljišče","authority":"MKGP","dataSource":"raba-3000"},"geometry":{"type":"Polygon","coordinates":[[[14.720628071905722,46.427126200688015],[14.720956789598254,46.42721760436962],[14.72072171216404,46.42695775023491],[14.720628071905722,46.427126200688015]]]}},{"type":"Feature","properties":{"_zoneType":"SI_BUILT","name":"Pozidano zemljišče","authority":"MKGP","dataSource":"raba-3000"},"geometry":{"type":"Polygon","coordinates":[[[14.717119831992145,46.41791373269964],[14.716210682228363,46.417661074757],[14.713637461882223,46.418227501348746],[14.714562547545436,46.418599396420355],[14.717119831992145,46.41791373269964]]]}},{"type":"Feature","properties":{"_zoneType":"SI_BUILT","name":"Pozidano zemljišče","authority":"MKGP","dataSource":"raba-3000"},"geometry":{"type":"Polygon","coordinates":[[[14.716866660159434,46.439545731040575],[14.716187850339457,46.4384076362069],[14.716588211344645,46.439597180078934],[14.716866660159434,46.439545731040575]]]}},{"type":"Feature","properties":{"_zoneType":"SI_BUILT","name":"Pozidano zemljišče","authority":"MKGP","dataSource":"raba-3000"},"geometry":{"type":"Polygon","coordinates":[[[14.715099409151637,46.470738422954064],[14.712793207237956,46.47086790598291],[14.710982045603696,46.47216671606705],[14.715099409151637,46.470738422954064]]]}},{"type":"Feature","properties":{"_zoneType":"SI_BUILT","name":"Pozidano zemljišče","authority":"MKGP","dataSource":"raba-3000"},"geometry":{"type":"Polygon","coordinates":[[[14.712896969315459,46.44151880218804],[14.712502305244257,46.44121350756539],[14.712664391141127,46.44163911477753],[14.712896969315459,46.44151880218804]]]}},{"type":"Feature","properties":{"_zoneType":"SI_BUILT","name":"Pozidano zemljišče","authority":"MKGP","dataSource":"raba-3000"},"geometry":{"type":"Polygon","coordinates":[[[14.7086518304702,46.461624495208625],[14.71027559377826,46.46154991831475],[14.70737826542137,46.46075856609196],[14.7086518304702,46.461624495208625]]]}},{"type":"Feature","properties":{"_zoneType":"SI_BUILT","name":"Pozidano zemljišče","authority":"MKGP","dataSource":"raba-3000"},"geometry":{"type":"Polygon","coordinates":[[[14.710053792906635,46.40604008391469],[14.709668210528381,46.405661982468516],[14.709753872284395,46.40618865120015],[14.710053792906635,46.40604008391469]]]}},{"type":"Feature","properties":{"_zoneType":"SI_BUILT","name":"Pozidano zemljišče","authority":"MKGP","dataSource":"raba-3000"},"geometry":{"type":"Polygon","coordinates":[[[14.709115719118763,46.43471939668472],[14.709128059989123,46.43510233167332],[14.709600138951778,46.43471943927248],[14.709115719118763,46.43471939668472]]]}},{"type":"Feature","properties":{"_zoneType":"SI_BUILT","name":"Pozidano zemljišče","authority":"MKGP","dataSource":"raba-3000"},"geometry":{"type":"Polygon","coordinates":[[[14.708455250394948,46.4711302818364],[14.708161019235133,46.47119098937116],[14.708147518862392,46.472416515595675],[14.708455250394948,46.4711302818364]]]}},{"type":"Feature","properties":{"_zoneType":"SI_BUILT","name":"Pozidano zemljišče","authority":"MKGP","dataSource":"raba-3000"},"geometry":{"type":"Polygon","coordinates":[[[14.704393667324867,46.461172004162776],[14.70362803323026,46.46062460180319],[14.704078244726814,46.46113636989857],[14.704393667324867,46.461172004162776]]]}},{"type":"Feature","properties":{"_zoneType":"SI_BUILT","name":"Pozidano zemljišče","authority":"MKGP","dataSource":"raba-3000"},"geometry":{"type":"Polygon","coordinates":[[[14.705097938583792,46.46180077424009],[14.705074407461339,46.461436181042934],[14.704814466769115,46.46182033329477],[14.705097938583792,46.46180077424009]]]}},{"type":"Feature","properties":{"_zoneType":"SI_BUILT","name":"Pozidano zemljišče","authority":"MKGP","dataSource":"raba-3000"},"geometry":{"type":"Polygon","coordinates":[[[14.703469939616955,46.415545707099824],[14.704144897283085,46.41521365711811],[14.703431974923083,46.415194903918106],[14.703469939616955,46.415545707099824]]]}},{"type":"Feature","properties":{"_zoneType":"SI_BUILT","name":"Pozidano zemljišče","authority":"MKGP","dataSource":"raba-3000"},"geometry":{"type":"Polygon","coordinates":[[[14.703081531753464,46.422988224230885],[14.703592558432879,46.422378536119005],[14.70317733775128,46.421778587262786],[14.70295401486874,46.422885545301405],[14.703081531753464,46.422988224230885]]]}},{"type":"Feature","properties":{"_zoneType":"SI_BUILT","name":"Pozidano zemljišče","authority":"MKGP","dataSource":"raba-3000"},"geometry":{"type":"Polygon","coordinates":[[[14.697889071048685,46.46168943908609],[14.698041639733283,46.461862638817024],[14.698133901265138,46.46158015859425],[14.697889071048685,46.46168943908609]]]}},{"type":"Feature","properties":{"_zoneType":"SI_BUILT","name":"Pozidano zemljišče","authority":"MKGP","dataSource":"raba-3000"},"geometry":{"type":"Polygon","coordinates":[[[14.627762525673099,46.42760611849709],[14.62778473920485,46.42775307220206],[14.628714869133722,46.42817932848349],[14.627762525673099,46.42760611849709]]]}},{"type":"Feature","properties":{"_zoneType":"SI_BUILT","name":"Pozidano zemljišče","authority":"MKGP","dataSource":"raba-3000"},"geometry":{"type":"Polygon","coordinates":[[[14.695633654109875,46.415719192633496],[14.695317762460935,46.41458009131043],[14.695284748294407,46.41570312693598],[14.695633654109875,46.415719192633496]]]}},{"type":"Feature","properties":{"_zoneType":"SI_BUILT","name":"Pozidano zemljišče","authority":"MKGP","dataSource":"raba-3000"},"geometry":{"type":"Polygon","coordinates":[[[14.679929508106081,46.400000000000006],[14.68,46.40001086040185],[14.68,46.400000000000006],[14.679929508106081,46.400000000000006]]]}},{"type":"Feature","properties":{"_zoneType":"SI_BUILT","name":"Pozidano zemljišče","authority":"MKGP","dataSource":"raba-3000"},"geometry":{"type":"Polygon","coordinates":[[[14.681516407981528,46.40239023678105],[14.682539137293348,46.40096553122772],[14.684217033132164,46.40127334683377],[14.685888707649804,46.400899204116534],[14.686185786862957,46.400000000000006],[14.684637497746813,46.400000000000006],[14.685344394159875,46.40054551166834],[14.68431058564465,46.40102213915687],[14.681188781512553,46.400221736138796],[14.681132876966913,46.400000000000006],[14.68,46.400000000000006],[14.68,46.40001086040185],[14.680368076429573,46.400067568453096],[14.681516407981528,46.40239023678105]]]}},{"type":"Feature","properties":{"_zoneType":"SI_BUILT","name":"Pozidano zemljišče","authority":"MKGP","dataSource":"raba-3000"},"geometry":{"type":"Polygon","coordinates":[[[14.69161808582041,46.400000000000006],[14.689690570903904,46.400000000000006],[14.692423635224465,46.400551176929994],[14.69161808582041,46.400000000000006]]]}},{"type":"Feature","properties":{"_zoneType":"SI_BUILT","name":"Pozidano zemljišče","authority":"MKGP","dataSource":"raba-3000"},"geometry":{"type":"Polygon","coordinates":[[[14.6939274708094,46.41502770173936],[14.693939164430764,46.4147520321256],[14.693579806523516,46.415034444499994],[14.6939274708094,46.41502770173936]]]}},{"type":"Feature","properties":{"_zoneType":"SI_BUILT","name":"Pozidano zemljišče","authority":"MKGP","dataSource":"raba-3000"},"geometry":{"type":"Polygon","coordinates":[[[14.688257490116838,46.46011462081847],[14.68621623753253,46.460193422715726],[14.686097874927464,46.45911187420876],[14.684318346780632,46.46146329418281],[14.688257490116838,46.46011462081847]]]}},{"type":"Feature","properties":{"_zoneType":"SI_BUILT","name":"Pozidano zemljišče","authority":"MKGP","dataSource":"raba-3000"},"geometry":{"type":"Polygon","coordinates":[[[14.686189787742322,46.4236337410648],[14.687423590477305,46.42339675804755],[14.686556863714989,46.422964241702864],[14.687159749996319,46.421502565119596],[14.685788894877975,46.42139373255898],[14.684876940451826,46.42241708427094],[14.686143702616432,46.422453872164766],[14.686189787742322,46.4236337410648]]]}},{"type":"Feature","properties":{"_zoneType":"SI_BUILT","name":"Pozidano zemljišče","authority":"MKGP","dataSource":"raba-3000"},"geometry":{"type":"Polygon","coordinates":[[[14.67731269514755,46.40167688091896],[14.67528406457762,46.40041954059905],[14.676282984743398,46.40159154161286],[14.67731269514755,46.40167688091896]]]}},{"type":"Feature","properties":{"_zoneType":"SI_BUILT","name":"Pozidano zemljišče","authority":"MKGP","dataSource":"raba-3000"},"geometry":{"type":"Polygon","coordinates":[[[14.670331253925362,46.443492574992405],[14.669587922014605,46.44373224038279],[14.670322276660652,46.443609951256356],[14.670331253925362,46.443492574992405]]]}},{"type":"Feature","properties":{"_zoneType":"SI_BUILT","name":"Pozidano zemljišče","authority":"MKGP","dataSource":"raba-3000"},"geometry":{"type":"Polygon","coordinates":[[[14.669209854380902,46.434807473675725],[14.667116139337542,46.434476772796],[14.669095099405634,46.434913520844084],[14.669209854380902,46.434807473675725]]]}},{"type":"Feature","properties":{"_zoneType":"SI_BUILT","name":"Pozidano zemljišče","authority":"MKGP","dataSource":"raba-3000"},"geometry":{"type":"Polygon","coordinates":[[[14.665711379166478,46.43213580742775],[14.664643215073653,46.433131939579376],[14.663746160261788,46.4334893133379],[14.664448540733174,46.43393855841256],[14.665711379166478,46.43213580742775]]]}},{"type":"Feature","properties":{"_zoneType":"SI_BUILT","name":"Pozidano zemljišče","authority":"MKGP","dataSource":"raba-3000"},"geometry":{"type":"Polygon","coordinates":[[[14.653451439332583,46.40135341959753],[14.65240529971154,46.400000000000006],[14.651396548626929,46.400000000000006],[14.651395525734928,46.40000065072057],[14.653451439332583,46.40135341959753]]]}},{"type":"Feature","properties":{"_zoneType":"SI_BUILT","name":"Pozidano zemljišče","authority":"MKGP","dataSource":"raba-3000"},"geometry":{"type":"Polygon","coordinates":[[[14.650405619732629,46.436813853633545],[14.65080285861921,46.43683258988298],[14.65041531097787,46.436578878250586],[14.650405619732629,46.436813853633545]]]}},{"type":"Feature","properties":{"_zoneType":"SI_BUILT","name":"Pozidano zemljišče","authority":"MKGP","dataSource":"raba-3000"},"geometry":{"type":"Polygon","coordinates":[[[14.6398032509899,46.43448905686247],[14.638253062897634,46.43523510693458],[14.63971354355618,46.4346776750147],[14.6398032509899,46.43448905686247]]]}},{"type":"Feature","properties":{"_zoneType":"SI_BUILT","name":"Pozidano zemljišče","authority":"MKGP","dataSource":"raba-3000"},"geometry":{"type":"Polygon","coordinates":[[[14.635888940170027,46.43183429838838],[14.638679942189395,46.42861392673997],[14.635434393233687,46.431379136626035],[14.637057115918635,46.43308462260025],[14.635888940170027,46.43183429838838]]]}},{"type":"Feature","properties":{"_zoneType":"SI_BUILT","name":"Pozidano zemljišče","authority":"MKGP","dataSource":"raba-3000"},"geometry":{"type":"Polygon","coordinates":[[[14.613504763686604,46.431049630589115],[14.6139271740906,46.43122643363468],[14.614420068498427,46.430866105259575],[14.613504763686604,46.431049630589115]]]}},{"type":"Feature","properties":{"_zoneType":"SI_BUILT","name":"Pozidano zemljišče","authority":"MKGP","dataSource":"raba-3000"},"geometry":{"type":"Polygon","coordinates":[[[14.605641924827127,46.41325029133347],[14.605250435294897,46.412500095843725],[14.604978407117954,46.413338090892864],[14.605641924827127,46.41325029133347]]]}},{"type":"Feature","properties":{"_zoneType":"SI_BUILT","name":"Pozidano zemljišče","authority":"MKGP","dataSource":"raba-3000"},"geometry":{"type":"Polygon","coordinates":[[[14.602694729588432,46.42126655784029],[14.602714827916426,46.42089495383293],[14.600920979767446,46.41943085243919],[14.60111653979235,46.42022512188552],[14.602694729588432,46.42126655784029]]]}},{"type":"Feature","properties":{"_zoneType":"SI_BUILT","name":"Pozidano zemljišče","authority":"MKGP","dataSource":"raba-3000"},"geometry":{"type":"Polygon","coordinates":[[[14.74876180425653,46.43991404689767],[14.74565701623989,46.44],[14.748909938433952,46.44],[14.74876180425653,46.43991404689767]]]}},{"type":"Feature","properties":{"_zoneType":"SI_BUILT","name":"Pozidano zemljišče","authority":"MKGP","dataSource":"raba-3000"},"geometry":{"type":"Polygon","coordinates":[[[14.739721583473239,46.43893225298685],[14.74129597321241,46.44],[14.74173577446209,46.44],[14.739721583473239,46.43893225298685]]]}},{"type":"Feature","properties":{"_zoneType":"SI_BUILT","name":"Pozidano zemljišče","authority":"MKGP","dataSource":"raba-3000"},"geometry":{"type":"Polygon","coordinates":[[[14.758320446433462,46.43571460531199],[14.75559863640408,46.43201464855353],[14.754455928648575,46.436093704588494],[14.750627916932704,46.435466743743504],[14.750355798784692,46.43655181970259],[14.748337738829358,46.437470780296636],[14.7397249862679,46.43821760816207],[14.74797001894077,46.43780209577159],[14.75127991335164,46.436163395778095],[14.755975885076712,46.437248758095315],[14.754909463122159,46.43483666711333],[14.755790550007989,46.432904572414806],[14.75797046309997,46.43578253599664],[14.76,46.436983718018034],[14.76,46.43661160851719],[14.758320446433462,46.43571460531199]]]}},{"type":"Feature","properties":{"_zoneType":"SI_BUILT","name":"Pozidano zemljišče","authority":"MKGP","dataSource":"raba-3000"},"geometry":{"type":"Polygon","coordinates":[[[14.741343247394399,46.46034489669303],[14.739606476110925,46.46309071799593],[14.743091958838495,46.458020655344235],[14.74582074428224,46.4584224782113],[14.748585876101114,46.45822735914186],[14.749700916313216,46.45923611071233],[14.750227254842855,46.45788387309302],[14.754422410127809,46.457558265724025],[14.75515673051513,46.45888064679788],[14.75988366791139,46.45920703195745],[14.76,46.45889529112139],[14.76,46.45807663594554],[14.75808283328476,46.458677207749325],[14.757196887562776,46.45794884325495],[14.76,46.456919001595026],[14.76,46.45614227091186],[14.75711044940554,46.45595342704247],[14.753352387213038,46.45356471777382],[14.757692956222876,46.45425748559328],[14.75988071331602,46.45145954280277],[14.76,46.45160260959593],[14.76,46.45133731088818],[14.759082616015954,46.45140339571036],[14.75758178581198,46.45397551267859],[14.754896635680328,46.45364128071299],[14.754470382592274,46.451637018671946],[14.75275364699341,46.45204508149028],[14.750054865087765,46.450216305661165],[14.74661169400091,46.450267797484024],[14.748185086621596,46.44829138733533],[14.745250881446932,46.44876864489218],[14.746685386621234,46.450595349666315],[14.750307648336454,46.45079102404874],[14.750964049004997,46.45175574891906],[14.7499246362436,46.45243402515386],[14.752473116504376,46.45288653252832],[14.754206238020727,46.455248700733414],[14.758515962114563,46.456835031519596],[14.746641370122209,46.45815594905274],[14.742835076927008,46.457733547642796],[14.739642045577595,46.45850617766554],[14.741241375672411,46.45874157663069],[14.741343247394399,46.46034489669303]],[[14.75278585126753,46.45256114143799],[14.75364850156637,46.452231940957915],[14.753357374124262,46.45314447686741],[14.75278585126753,46.45256114143799]]]}},{"type":"Feature","properties":{"_zoneType":"SI_BUILT","name":"Pozidano zemljišče","authority":"MKGP","dataSource":"raba-3000"},"geometry":{"type":"Polygon","coordinates":[[[14.758623947812888,46.44955196364619],[14.756122013846234,46.44798962717488],[14.75616651457107,46.446253680952196],[14.755230162461045,46.44497801640436],[14.753957364139962,46.444636133998365],[14.753407175731155,46.44260946868797],[14.748909938433952,46.44],[14.74565701623989,46.44],[14.741930390090703,46.440103168099405],[14.74173577446209,46.44],[14.74129597321241,46.44],[14.741795745151858,46.44033894402531],[14.748550514999886,46.44015668110669],[14.752300685901448,46.44223501547923],[14.753415816165626,46.444213930269235],[14.75239056102166,46.445806626183966],[14.75491626771632,46.44513837060794],[14.755797208268364,46.448159778931924],[14.758493122722383,46.44992892910624],[14.76,46.45010671698003],[14.76,46.449767722635045],[14.758623947812888,46.44955196364619]]]}},{"type":"Feature","properties":{"_zoneType":"SI_BUILT","name":"Pozidano zemljišče","authority":"MKGP","dataSource":"raba-3000"},"geometry":{"type":"Polygon","coordinates":[[[14.755945981176213,46.48327406298806],[14.756756276582776,46.484586588628396],[14.758944223417226,46.484908084875364],[14.76,46.484175951817974],[14.76,46.48392464513173],[14.755945981176213,46.48327406298806]]]}},{"type":"Feature","properties":{"_zoneType":"SI_BUILT","name":"Pozidano zemljišče","authority":"MKGP","dataSource":"raba-3000"},"geometry":{"type":"Polygon","coordinates":[[[14.772530785216407,46.43901749691165],[14.768535611297139,46.43947196026544],[14.762674228044188,46.43803983990847],[14.76,46.43661160851719],[14.76,46.436983718018034],[14.762083250015522,46.438216690162896],[14.768479682500049,46.43972865092339],[14.7718295043202,46.4394381303225],[14.771919957735596,46.44],[14.772438915491318,46.44],[14.772530785216407,46.43901749691165]]]}},{"type":"Feature","properties":{"_zoneType":"SI_BUILT","name":"Pozidano zemljišče","authority":"MKGP","dataSource":"raba-3000"},"geometry":{"type":"Polygon","coordinates":[[[14.760345936571698,46.45796826782647],[14.76,46.45807663594554],[14.76,46.45889529112139],[14.760345936571698,46.45796826782647]]]}},{"type":"Feature","properties":{"_zoneType":"SI_BUILT","name":"Pozidano zemljišče","authority":"MKGP","dataSource":"raba-3000"},"geometry":{"type":"Polygon","coordinates":[[[14.762768327576238,46.455901939621896],[14.766919954437187,46.45664542616783],[14.768222919625579,46.45803544764683],[14.773903913349628,46.45824757098091],[14.775472439023005,46.45756079521401],[14.785379851542253,46.460497678708414],[14.79247444235486,46.4617131651409],[14.79538043727954,46.464604047286535],[14.8,46.465646032898604],[14.8,46.465147320659476],[14.79537161539451,46.46392953595289],[14.793110651259928,46.46167163936879],[14.788963524666132,46.460798093434406],[14.786951994982957,46.45878003161447],[14.786141178742886,46.45916084163636],[14.787007907962776,46.46019356946735],[14.785772261257023,46.46033337716975],[14.77543933285232,46.45682996393523],[14.77459697826788,46.45613534211197],[14.776318884413543,46.455515764840605],[14.781076082612083,46.45572220598136],[14.77510018072197,46.454525404989575],[14.776423782086583,46.452884563998126],[14.774308415902357,46.45241869904702],[14.774937315237299,46.45011686475805],[14.77298322218743,46.44937096016936],[14.770790629243134,46.450340588492445],[14.768722461567949,46.44997640180779],[14.772097458038871,46.45148787127951],[14.771692222155691,46.45008556992988],[14.773440175630496,46.45001646329199],[14.773999194750933,46.45264373223397],[14.775820438179718,46.4530419566887],[14.774052340987746,46.45466595822065],[14.775682033125108,46.455416646591885],[14.771411924469884,46.45549730504405],[14.772942619153534,46.45786748976016],[14.7708307681443,46.45679826407502],[14.765361570206574,46.45634804875306],[14.763800357132734,46.45523320172732],[14.760897925273442,46.456200953976065],[14.76,46.45614227091186],[14.76,46.456919001595026],[14.762768327576238,46.455901939621896]],[[14.772335230931237,46.45647424262922],[14.772460838630998,46.45612938765674],[14.773093580611222,46.45659416232196],[14.772335230931237,46.45647424262922]]]}},{"type":"Feature","properties":{"_zoneType":"SI_BUILT","name":"Pozidano zemljišče","authority":"MKGP","dataSource":"raba-3000"},"geometry":{"type":"Polygon","coordinates":[[[14.761185091781108,46.45302395249076],[14.76341911031358,46.45224655877577],[14.76546069791433,46.452977128303765],[14.766034781493664,46.449701055234875],[14.764991941155303,46.450238802413324],[14.765025001229581,46.452128607585976],[14.761992239858541,46.4518023478707],[14.76172710727117,46.45003852553188],[14.76,46.449767722635045],[14.76,46.45010671698003],[14.761406496195061,46.4502726614612],[14.761406810874288,46.451235969630766],[14.76,46.45133731088818],[14.76,46.45160260959593],[14.761185091781108,46.45302395249076]]]}},{"type":"Feature","properties":{"_zoneType":"SI_BUILT","name":"Pozidano zemljišče","authority":"MKGP","dataSource":"raba-3000"},"geometry":{"type":"Polygon","coordinates":[[[14.7932222128682,46.46911585884673],[14.793049718208849,46.46976356500578],[14.78829150790725,46.47054731483884],[14.784562523246468,46.472627716903396],[14.778963590977185,46.473568359121785],[14.78115546000001,46.47389397320244],[14.780741801083877,46.47538503914095],[14.77515466667432,46.477116493616535],[14.77435130543077,46.47659944184834],[14.776088345038021,46.475254215168015],[14.77481249622883,46.47460653511524],[14.775206810704947,46.47545482331658],[14.77041584841072,46.480000000000004],[14.771114426701958,46.480000000000004],[14.771864848398573,46.47954868470332],[14.77226699793456,46.480000000000004],[14.773081776212795,46.480000000000004],[14.772024363835934,46.4790746271793],[14.773312473185129,46.477632116736594],[14.774270847933082,46.47811829522862],[14.7766341259025,46.47687155734305],[14.778108162869554,46.47786333167073],[14.778462771745074,46.47657789801999],[14.781388048843105,46.47582662276682],[14.782278781356894,46.47384456794564],[14.788233485413356,46.47086404303616],[14.79466846025734,46.469435657301545],[14.8,46.47028659402814],[14.8,46.47004759196075],[14.799947968292706,46.47008745696239],[14.7932222128682,46.46911585884673]]]}},{"type":"Feature","properties":{"_zoneType":"SI_BUILT","name":"Pozidano zemljišče","authority":"MKGP","dataSource":"raba-3000"},"geometry":{"type":"Polygon","coordinates":[[[14.777322693706246,46.479367249906566],[14.774625421591287,46.480000000000004],[14.775917797978765,46.480000000000004],[14.777322693706246,46.479367249906566]]]}},{"type":"Feature","properties":{"_zoneType":"SI_BUILT","name":"Pozidano zemljišče","authority":"MKGP","dataSource":"raba-3000"},"geometry":{"type":"Polygon","coordinates":[[[14.791100042910221,46.44361714311047],[14.787408190184859,46.44365777217565],[14.78798959803974,46.445087418949875],[14.786589673485613,46.44464192054433],[14.782966210616802,46.444691322272654],[14.77949362193429,46.44254617983157],[14.776233730314765,46.442607276400494],[14.775205874690325,46.440892958473384],[14.77242440876932,46.4401551425037],[14.772438915491318,46.44],[14.771919957735596,46.44],[14.772164632311892,46.441519845598684],[14.773667109581142,46.44166958953315],[14.774980901466023,46.443856196017855],[14.774988916581469,46.44208979994988],[14.776777847961219,46.44305541850995],[14.77957148659756,46.44286355949072],[14.779686052791828,46.44487974021598],[14.781693635780771,46.44673352027315],[14.780917032142392,46.44428214482731],[14.784869426334923,46.44533764001459],[14.786438187344293,46.44487427316918],[14.790274933480676,46.445926066099375],[14.79101252132013,46.44547694027677],[14.789437869003885,46.444425453848105],[14.790225627468496,46.443928656886904],[14.792660846317624,46.444445102802945],[14.795209293286035,46.44435011117993],[14.79633095208425,46.44545614860811],[14.793966095693925,46.44622456650697],[14.79594332707951,46.446431271851935],[14.796896018822592,46.444141149887685],[14.798877960482056,46.44408520111651],[14.798250909617176,46.44490116402236],[14.799123206776947,46.44544719427687],[14.8,46.44483628857484],[14.8,46.44352473941146],[14.792788004044313,46.44417931433675],[14.791100042910221,46.44361714311047]],[[14.773408036015189,46.440901017216504],[14.773060008654657,46.44120982432647],[14.772692957886756,46.44051127844592],[14.773408036015189,46.440901017216504]]]}},{"type":"Feature","properties":{"_zoneType":"SI_BUILT","name":"Pozidano zemljišče","authority":"MKGP","dataSource":"raba-3000"},"geometry":{"type":"Polygon","coordinates":[[[14.770391800644527,46.480022814069386],[14.763210226201727,46.48191715053122],[14.763467894514406,46.48448116702895],[14.76,46.48392464513173],[14.76,46.484175951817974],[14.760096278467163,46.48410918707847],[14.76330131998561,46.48492150893394],[14.764811738021676,46.487276311986854],[14.763990155343492,46.488751333517804],[14.764566929070854,46.48783662332881],[14.766305499753463,46.48791264681154],[14.765369953410886,46.48478761904015],[14.766507639881699,46.483819005811576],[14.764347201733015,46.48429262658464],[14.763962138171589,46.48264743531772],[14.766308942962443,46.482619571840324],[14.766086051073307,46.481763495116034],[14.768493240280632,46.48094298616267],[14.770515272476747,46.48160804735532],[14.77068906620825,46.48331010002167],[14.771583698226724,46.483177808652],[14.771518746070877,46.48231259824719],[14.772568997053053,46.48279811573141],[14.772500731569176,46.48413608495242],[14.77389997279589,46.483967923751536],[14.773901706083537,46.48280309516739],[14.775665163131766,46.481950615965786],[14.775335987671049,46.48026204117457],[14.775917797978765,46.480000000000004],[14.774625421591287,46.480000000000004],[14.773408095080512,46.480285571284846],[14.773081776212795,46.480000000000004],[14.77226699793456,46.480000000000004],[14.773976701068856,46.481918727011355],[14.773161406655543,46.482476544720605],[14.77144958684342,46.48115885003554],[14.769247684130839,46.48112268805809],[14.771114426701958,46.480000000000004],[14.77041584841072,46.480000000000004],[14.770391800644527,46.480022814069386]],[[14.763623087196176,46.4821866612576],[14.764220893754823,46.481975173624825],[14.763885148208365,46.48252400783312],[14.763623087196176,46.4821866612576]]]}},{"type":"Feature","properties":{"_zoneType":"SI_BUILT","name":"Pozidano zemljišče","authority":"MKGP","dataSource":"raba-3000"},"geometry":{"type":"Polygon","coordinates":[[[14.76882849510934,46.43865052224711],[14.768185138221913,46.43856760853529],[14.768783497051441,46.43881446540726],[14.76882849510934,46.43865052224711]]]}},{"type":"Feature","properties":{"_zoneType":"SI_BUILT","name":"Pozidano zemljišče","authority":"MKGP","dataSource":"raba-3000"},"geometry":{"type":"Polygon","coordinates":[[[14.767511218758337,46.48812328044365],[14.767267424929043,46.4864036514234],[14.766545229504237,46.486535227477894],[14.76671466484686,46.4878078006323],[14.767511218758337,46.48812328044365]]]}},{"type":"Feature","properties":{"_zoneType":"SI_BUILT","name":"Pozidano zemljišče","authority":"MKGP","dataSource":"raba-3000"},"geometry":{"type":"Polygon","coordinates":[[[14.756779548474318,46.481578369266565],[14.756579856351303,46.481702811682275],[14.757032487008052,46.482178150083826],[14.756779548474318,46.481578369266565]]]}},{"type":"Feature","properties":{"_zoneType":"SI_BUILT","name":"Pozidano zemljišče","authority":"MKGP","dataSource":"raba-3000"},"geometry":{"type":"Polygon","coordinates":[[[14.749439420052358,46.45973995062798],[14.749820084802607,46.45964530466606],[14.749434013331825,46.459507702582066],[14.749439420052358,46.45973995062798]]]}},{"type":"Feature","properties":{"_zoneType":"SI_BUILT","name":"Pozidano zemljišče","authority":"MKGP","dataSource":"raba-3000"},"geometry":{"type":"Polygon","coordinates":[[[14.8,46.43730269918034],[14.796590607301654,46.43918278523175],[14.8,46.43830099597978],[14.8,46.43730269918034]]]}},{"type":"Feature","properties":{"_zoneType":"SI_BUILT","name":"Pozidano zemljišče","authority":"MKGP","dataSource":"raba-3000"},"geometry":{"type":"Polygon","coordinates":[[[14.795644765411884,46.485234721335445],[14.795198399564045,46.48658699162004],[14.794011321141818,46.48796524852421],[14.795894772105093,46.487186597746444],[14.795644765411884,46.485234721335445]]]}},{"type":"Feature","properties":{"_zoneType":"SI_BUILT","name":"Pozidano zemljišče","authority":"MKGP","dataSource":"raba-3000"},"geometry":{"type":"Polygon","coordinates":[[[14.795561715358076,46.491364840115516],[14.793950663164994,46.49058684455989],[14.795338622746932,46.49155668777761],[14.795561715358076,46.491364840115516]]]}},{"type":"Feature","properties":{"_zoneType":"SI_BUILT","name":"Pozidano zemljišče","authority":"MKGP","dataSource":"raba-3000"},"geometry":{"type":"Polygon","coordinates":[[[14.794188958760834,46.456809321749446],[14.793895297963767,46.45675540271972],[14.794060786596027,46.45717359792946],[14.794188958760834,46.456809321749446]]]}},{"type":"Feature","properties":{"_zoneType":"SI_BUILT","name":"Pozidano zemljišče","authority":"MKGP","dataSource":"raba-3000"},"geometry":{"type":"Polygon","coordinates":[[[14.793077992854013,46.45800686664488],[14.792213996850172,46.45731909020528],[14.792748562596797,46.45805849947992],[14.793077992854013,46.45800686664488]]]}},{"type":"Feature","properties":{"_zoneType":"SI_BUILT","name":"Pozidano zemljišče","authority":"MKGP","dataSource":"raba-3000"},"geometry":{"type":"Polygon","coordinates":[[[14.790477670196443,46.48875446125027],[14.790191418597882,46.488675315305485],[14.790363327309773,46.48892759853793],[14.790477670196443,46.48875446125027]]]}},{"type":"Feature","properties":{"_zoneType":"SI_BUILT","name":"Pozidano zemljišče","authority":"MKGP","dataSource":"raba-3000"},"geometry":{"type":"Polygon","coordinates":[[[14.789977503396273,46.40161954348345],[14.789996064936954,46.400000000000006],[14.785955783569952,46.400000000000006],[14.785983549040061,46.40035659014565],[14.78772554771117,46.40015237865868],[14.787994514319518,46.402840183723576],[14.786726610198905,46.40289324452572],[14.786106445227723,46.40125867120584],[14.78569498409064,46.40257420300283],[14.78305629401993,46.40319744132522],[14.788827393163778,46.403104445858084],[14.789977503396273,46.40161954348345]],[[14.78935169800182,46.40167185912019],[14.788386645071931,46.402167859039025],[14.788721145396748,46.400897136283575],[14.78935169800182,46.40167185912019]]]}},{"type":"Feature","properties":{"_zoneType":"SI_BUILT","name":"Pozidano zemljišče","authority":"MKGP","dataSource":"raba-3000"},"geometry":{"type":"Polygon","coordinates":[[[14.79004263028099,46.42962364244373],[14.789795977232101,46.42949804214855],[14.789861228708782,46.429847391952464],[14.79004263028099,46.42962364244373]]]}},{"type":"Feature","properties":{"_zoneType":"SI_BUILT","name":"Pozidano zemljišče","authority":"MKGP","dataSource":"raba-3000"},"geometry":{"type":"Polygon","coordinates":[[[14.786673702394774,46.442546591837086],[14.785419308952465,46.44255029674983],[14.786546474144128,46.44266715372594],[14.786673702394774,46.442546591837086]]]}},{"type":"Feature","properties":{"_zoneType":"SI_BUILT","name":"Pozidano zemljišče","authority":"MKGP","dataSource":"raba-3000"},"geometry":{"type":"Polygon","coordinates":[[[14.784906934717908,46.48148501460523],[14.782705075032792,46.482717009380835],[14.78297820154315,46.48074795627049],[14.781834055419175,46.4832944771863],[14.78367200316698,46.484729941648844],[14.784906934717908,46.48148501460523]]]}},{"type":"Feature","properties":{"_zoneType":"SI_BUILT","name":"Pozidano zemljišče","authority":"MKGP","dataSource":"raba-3000"},"geometry":{"type":"Polygon","coordinates":[[[14.780416115307387,46.42921491207865],[14.781333173098696,46.42840188563008],[14.784288009919958,46.43033315647437],[14.781712532157233,46.42768725967096],[14.780120843529541,46.42899256539517],[14.78125109079277,46.43219931003032],[14.780416115307387,46.42921491207865]]]}},{"type":"Feature","properties":{"_zoneType":"SI_BUILT","name":"Pozidano zemljišče","authority":"MKGP","dataSource":"raba-3000"},"geometry":{"type":"Polygon","coordinates":[[[14.783313000355337,46.41204517484481],[14.783007372472333,46.41192162130765],[14.783097181802512,46.41237697283302],[14.783313000355337,46.41204517484481]]]}},{"type":"Feature","properties":{"_zoneType":"SI_BUILT","name":"Pozidano zemljišče","authority":"MKGP","dataSource":"raba-3000"},"geometry":{"type":"Polygon","coordinates":[[[14.781805369468183,46.411000504189225],[14.782491275726693,46.41130555738288],[14.781961642908936,46.41087155346535],[14.781805369468183,46.411000504189225]]]}},{"type":"Feature","properties":{"_zoneType":"SI_BUILT","name":"Pozidano zemljišče","authority":"MKGP","dataSource":"raba-3000"},"geometry":{"type":"Polygon","coordinates":[[[14.781116732631606,46.4242510290704],[14.780480785517375,46.42285644107473],[14.780067478932107,46.423942240705706],[14.781116732631606,46.4242510290704]]]}},{"type":"Feature","properties":{"_zoneType":"SI_BUILT","name":"Pozidano zemljišče","authority":"MKGP","dataSource":"raba-3000"},"geometry":{"type":"Polygon","coordinates":[[[14.77500374877214,46.427417413067715],[14.778238786983078,46.42234595505224],[14.776901243262397,46.42207662348014],[14.77576791229962,46.425831828938165],[14.770592793728431,46.428778746480766],[14.77500374877214,46.427417413067715]]]}},{"type":"Feature","properties":{"_zoneType":"SI_BUILT","name":"Pozidano zemljišče","authority":"MKGP","dataSource":"raba-3000"},"geometry":{"type":"Polygon","coordinates":[[[14.777145277403447,46.46612643324143],[14.776870462461046,46.46604101436108],[14.777099849854835,46.46624050873608],[14.777145277403447,46.46612643324143]]]}},{"type":"Feature","properties":{"_zoneType":"SI_BUILT","name":"Pozidano zemljišče","authority":"MKGP","dataSource":"raba-3000"},"geometry":{"type":"Polygon","coordinates":[[[14.770325883873536,46.40154954447736],[14.77002292958409,46.401054973976315],[14.769959917667622,46.401626558827125],[14.770325883873536,46.40154954447736]]]}},{"type":"Feature","properties":{"_zoneType":"SI_BUILT","name":"Pozidano zemljišče","authority":"MKGP","dataSource":"raba-3000"},"geometry":{"type":"Polygon","coordinates":[[[14.769829569140132,46.43719800502398],[14.76650521666629,46.43675770706748],[14.764686634459055,46.437214588553566],[14.767357380010973,46.437712641119084],[14.769829569140132,46.43719800502398]]]}},{"type":"Feature","properties":{"_zoneType":"SI_BUILT","name":"Pozidano zemljišče","authority":"MKGP","dataSource":"raba-3000"},"geometry":{"type":"Polygon","coordinates":[[[14.769151922737148,46.40043157090358],[14.768930343234583,46.40029810581988],[14.76891917601306,46.40061222581748],[14.769151922737148,46.40043157090358]]]}},{"type":"Feature","properties":{"_zoneType":"SI_BUILT","name":"Pozidano zemljišče","authority":"MKGP","dataSource":"raba-3000"},"geometry":{"type":"Polygon","coordinates":[[[14.765343769370187,46.412304323264166],[14.766966330122077,46.41213938241137],[14.763910936185225,46.409069151658024],[14.76584924916553,46.41164971363814],[14.765343769370187,46.412304323264166]]]}},{"type":"Feature","properties":{"_zoneType":"SI_BUILT","name":"Pozidano zemljišče","authority":"MKGP","dataSource":"raba-3000"},"geometry":{"type":"Polygon","coordinates":[[[14.759324921493889,46.407706960638066],[14.75818003146135,46.41009488253252],[14.7598763393326,46.408647908819184],[14.759159588826577,46.40625822401627],[14.759856925658795,46.405577157123204],[14.758644121833107,46.40572653548352],[14.758084189450837,46.40474607318173],[14.76,46.404318595717555],[14.76,46.40404052776585],[14.758408968807968,46.40438347437319],[14.757566439425375,46.403377209953625],[14.748950147002114,46.400000000000006],[14.748818644765938,46.400000000000006],[14.757555086959087,46.40377996855101],[14.759324921493889,46.407706960638066]]]}},{"type":"Feature","properties":{"_zoneType":"SI_BUILT","name":"Pozidano zemljišče","authority":"MKGP","dataSource":"raba-3000"},"geometry":{"type":"Polygon","coordinates":[[[14.7626257087885,46.40373271767494],[14.766441563531055,46.404232379912614],[14.762645888147366,46.403470206851914],[14.76,46.40404052776585],[14.76,46.404318595717555],[14.7626257087885,46.40373271767494]]]}},{"type":"Feature","properties":{"_zoneType":"SI_BUILT","name":"Pozidano zemljišče","authority":"MKGP","dataSource":"raba-3000"},"geometry":{"type":"Polygon","coordinates":[[[14.764147464602305,46.457436365934555],[14.766187930501493,46.45764411999484],[14.764345025187986,46.457312100804394],[14.764147464602305,46.457436365934555]]]}},{"type":"Feature","properties":{"_zoneType":"SI_BUILT","name":"Pozidano zemljišče","authority":"MKGP","dataSource":"raba-3000"},"geometry":{"type":"Polygon","coordinates":[[[14.765522143542478,46.459916381911356],[14.764727679505091,46.458485305064826],[14.763691041862668,46.45916075525248],[14.764878414598812,46.45992281107421],[14.765522143542478,46.459916381911356]]]}},{"type":"Feature","properties":{"_zoneType":"SI_BUILT","name":"Pozidano zemljišče","authority":"MKGP","dataSource":"raba-3000"},"geometry":{"type":"Polygon","coordinates":[[[14.762682482917493,46.408481162878665],[14.761104997571927,46.40803167237914],[14.761749930182283,46.40678767052089],[14.760908538422722,46.40694211419513],[14.760867685809378,46.40837893798717],[14.762682482917493,46.408481162878665]]]}},{"type":"Feature","properties":{"_zoneType":"SI_BUILT","name":"Pozidano zemljišče","authority":"MKGP","dataSource":"raba-3000"},"geometry":{"type":"Polygon","coordinates":[[[14.76,46.47188626890395],[14.76,46.471582652463496],[14.759351005765524,46.47173612128429],[14.757917487621448,46.47047905714013],[14.755341968111262,46.47175027323697],[14.759095706850529,46.47227035181108],[14.76,46.47188626890395]]]}},{"type":"Feature","properties":{"_zoneType":"SI_BUILT","name":"Pozidano zemljišče","authority":"MKGP","dataSource":"raba-3000"},"geometry":{"type":"Polygon","coordinates":[[[14.76161274242871,46.4712012843933],[14.76,46.471582652463496],[14.76,46.47188626890395],[14.76161274242871,46.4712012843933]]]}},{"type":"Feature","properties":{"_zoneType":"SI_BUILT","name":"Pozidano zemljišče","authority":"MKGP","dataSource":"raba-3000"},"geometry":{"type":"Polygon","coordinates":[[[14.755023361849886,46.43951176576135],[14.754592472475355,46.43927878521949],[14.751171100023573,46.43978129660786],[14.755023361849886,46.43951176576135]]]}},{"type":"Feature","properties":{"_zoneType":"SI_BUILT","name":"Pozidano zemljišče","authority":"MKGP","dataSource":"raba-3000"},"geometry":{"type":"Polygon","coordinates":[[[14.75183038331701,46.446467567775876],[14.751536434388827,46.44638910602236],[14.751742042070418,46.44662503112061],[14.75183038331701,46.446467567775876]]]}},{"type":"Feature","properties":{"_zoneType":"SI_BUILT","name":"Pozidano zemljišče","authority":"MKGP","dataSource":"raba-3000"},"geometry":{"type":"Polygon","coordinates":[[[14.751084003018713,46.43768370165896],[14.75096761424754,46.43752626726743],[14.750758524260684,46.4377956973796],[14.751084003018713,46.43768370165896]]]}},{"type":"Feature","properties":{"_zoneType":"SI_BUILT","name":"Pozidano zemljišče","authority":"MKGP","dataSource":"raba-3000"},"geometry":{"type":"Polygon","coordinates":[[[14.74866183593968,46.4883127564671],[14.750392495348438,46.487011666843166],[14.749595073863558,46.486025037382646],[14.748586446539663,46.48805529821826],[14.747043778901135,46.488459141988564],[14.74866183593968,46.4883127564671]]]}},{"type":"Feature","properties":{"_zoneType":"SI_BUILT","name":"Pozidano zemljišče","authority":"MKGP","dataSource":"raba-3000"},"geometry":{"type":"Polygon","coordinates":[[[14.747521850082055,46.45428202500135],[14.739654348920679,46.45304706743314],[14.743607430222243,46.45399516459376],[14.739655395151967,46.45611827728783],[14.743451155411087,46.454500515600024],[14.747521850082055,46.45428202500135]]]}},{"type":"Feature","properties":{"_zoneType":"SI_BUILT","name":"Pozidano zemljišče","authority":"MKGP","dataSource":"raba-3000"},"geometry":{"type":"Polygon","coordinates":[[[14.747484201727682,46.42212480243993],[14.74723078121348,46.42177970386899],[14.747153778380424,46.42216165359933],[14.747484201727682,46.42212480243993]]]}},{"type":"Feature","properties":{"_zoneType":"SI_BUILT","name":"Pozidano zemljišče","authority":"MKGP","dataSource":"raba-3000"},"geometry":{"type":"Polygon","coordinates":[[[14.74414210984296,46.46119832458902],[14.746529638201405,46.46088163167052],[14.743532019883233,46.459984608483985],[14.743162956452958,46.460589574134744],[14.744056858035027,46.46040908131008],[14.74414210984296,46.46119832458902]]]}},{"type":"Feature","properties":{"_zoneType":"SI_BUILT","name":"Pozidano zemljišče","authority":"MKGP","dataSource":"raba-3000"},"geometry":{"type":"Polygon","coordinates":[[[14.746523787459898,46.43918903960485],[14.746370241266753,46.4390128430662],[14.746224944272278,46.4393190194275],[14.746523787459898,46.43918903960485]]]}},{"type":"Feature","properties":{"_zoneType":"SI_BUILT","name":"Pozidano zemljišče","authority":"MKGP","dataSource":"raba-3000"},"geometry":{"type":"Polygon","coordinates":[[[14.745310711441187,46.44319743540922],[14.74403209241372,46.44270187427194],[14.743571329973319,46.44327867213499],[14.74501812289834,46.44364781994681],[14.745310711441187,46.44319743540922]]]}},{"type":"Feature","properties":{"_zoneType":"SI_BUILT","name":"Pozidano zemljišče","authority":"MKGP","dataSource":"raba-3000"},"geometry":{"type":"Polygon","coordinates":[[[14.740790656277444,46.42740503517475],[14.741332260409816,46.42780625370485],[14.742519994203864,46.42749503939874],[14.741873306541585,46.424930128034354],[14.744125681516723,46.4258868784435],[14.74416733993696,46.424038616305104],[14.745310158281942,46.42366734272086],[14.744168504670135,46.42315582472897],[14.745077015388276,46.420577052978],[14.744411024929736,46.41962372685321],[14.743533114272338,46.42004737522841],[14.744407242297205,46.42060287830118],[14.743397377165042,46.421400768459236],[14.74408378340655,46.422574081421025],[14.742775450109496,46.42345627196661],[14.74381708606347,46.42456726609295],[14.740790710826142,46.42494691622802],[14.742028468927286,46.42680836992742],[14.740790656277444,46.42740503517475]]]}},{"type":"Feature","properties":{"_zoneType":"SI_BUILT","name":"Pozidano zemljišče","authority":"MKGP","dataSource":"raba-3000"},"geometry":{"type":"Polygon","coordinates":[[[14.744721949436467,46.40186791355853],[14.744612365200084,46.40168167135712],[14.744576041607303,46.40204472234205],[14.744721949436467,46.40186791355853]]]}},{"type":"Feature","properties":{"_zoneType":"SI_BUILT","name":"Pozidano zemljišče","authority":"MKGP","dataSource":"raba-3000"},"geometry":{"type":"Polygon","coordinates":[[[14.744994850205357,46.40114007351805],[14.744647677774392,46.40109916751361],[14.744959894957706,46.40131926452452],[14.744994850205357,46.40114007351805]]]}},{"type":"Feature","properties":{"_zoneType":"SI_BUILT","name":"Pozidano zemljišče","authority":"MKGP","dataSource":"raba-3000"},"geometry":{"type":"Polygon","coordinates":[[[14.743622496196398,46.49349361570355],[14.741400661978703,46.49405701929973],[14.74313571432494,46.49402964326054],[14.743622496196398,46.49349361570355]]]}},{"type":"Feature","properties":{"_zoneType":"SI_BUILT","name":"Pozidano zemljišče","authority":"MKGP","dataSource":"raba-3000"},"geometry":{"type":"Polygon","coordinates":[[[14.742665320832645,46.489768410870255],[14.742133159450445,46.489049291310025],[14.741725201289304,46.490119173204775],[14.742665320832645,46.489768410870255]]]}},{"type":"Feature","properties":{"_zoneType":"SI_BUILT","name":"Pozidano zemljišče","authority":"MKGP","dataSource":"raba-3000"},"geometry":{"type":"Polygon","coordinates":[[[14.741209988848585,46.431690078459596],[14.739755748946815,46.431755684599544],[14.740904086329778,46.43207627068159],[14.741209988848585,46.431690078459596]]]}},{"type":"Feature","properties":{"_zoneType":"SI_BUILT","name":"Pozidano zemljišče","authority":"MKGP","dataSource":"raba-3000"},"geometry":{"type":"Polygon","coordinates":[[[14.739777013687897,46.42728756895571],[14.739775776018641,46.42754765536799],[14.73985376981216,46.427459780204366],[14.739777013687897,46.42728756895571]]]}}]}