{"type":"FeatureCollection","features":[{"type":"Feature","properties":{"_zoneType":"SI_BUILT","name":"Pozidano zemljišče","authority":"MKGP","dataSource":"raba-3000"},"geometry":{"type":"Polygon","coordinates":[[[16.552355306890348,46.47974449389977],[16.55243134655437,46.480000000000004],[16.55257976627299,46.480000000000004],[16.55203752853873,46.47934718828862],[16.550348381431657,46.480000000000004],[16.55142352664569,46.480000000000004],[16.552355306890348,46.47974449389977]]]}},{"type":"Feature","properties":{"_zoneType":"SI_BUILT","name":"Pozidano zemljišče","authority":"MKGP","dataSource":"raba-3000"},"geometry":{"type":"Polygon","coordinates":[[[16.56,46.478906231044306],[16.56,46.47856008797147],[16.556334313287778,46.480000000000004],[16.55721471572215,46.480000000000004],[16.56,46.478906231044306]]]}},{"type":"Feature","properties":{"_zoneType":"SI_BUILT","name":"Pozidano zemljišče","authority":"MKGP","dataSource":"raba-3000"},"geometry":{"type":"Polygon","coordinates":[[[16.539879432231363,46.484329606739074],[16.544202630273144,46.48262643381009],[16.54510411180972,46.48365924984813],[16.545110221101908,46.48228176686168],[16.550258919150227,46.48031935032018],[16.55142352664569,46.480000000000004],[16.550348381431657,46.480000000000004],[16.539677360981955,46.48412407367767],[16.528165293638065,46.493423856080916],[16.539879432231363,46.484329606739074]]]}},{"type":"Feature","properties":{"_zoneType":"SI_BUILT","name":"Pozidano zemljišče","authority":"MKGP","dataSource":"raba-3000"},"geometry":{"type":"Polygon","coordinates":[[[16.55293187308092,46.48168185357609],[16.55721471572215,46.480000000000004],[16.556334313287778,46.480000000000004],[16.553503414749724,46.48111200033623],[16.55257976627299,46.480000000000004],[16.55243134655437,46.480000000000004],[16.55293187308092,46.48168185357609]]]}},{"type":"Feature","properties":{"_zoneType":"SI_BUILT","name":"Pozidano zemljišče","authority":"MKGP","dataSource":"raba-3000"},"geometry":{"type":"Polygon","coordinates":[[[16.560540030693254,46.47869416335265],[16.562200485518343,46.480000000000004],[16.56236579801948,46.480000000000004],[16.56071740146933,46.47827828674674],[16.56,46.47856008797147],[16.56,46.478906231044306],[16.560540030693254,46.47869416335265]]]}},{"type":"Feature","properties":{"_zoneType":"SI_BUILT","name":"Pozidano zemljišče","authority":"MKGP","dataSource":"raba-3000"},"geometry":{"type":"Polygon","coordinates":[[[16.562869615126267,46.48052622567664],[16.56236579801948,46.480000000000004],[16.562200485518343,46.480000000000004],[16.562869615126267,46.48052622567664]]]}},{"type":"Feature","properties":{"_zoneType":"SI_BUILT","name":"Pozidano zemljišče","authority":"MKGP","dataSource":"raba-3000"},"geometry":{"type":"Polygon","coordinates":[[[16.549798928092397,46.49114525969717],[16.549903000199976,46.49129602987057],[16.550124685028855,46.491052653593734],[16.549798928092397,46.49114525969717]]]}},{"type":"Feature","properties":{"_zoneType":"SI_BUILT","name":"Pozidano zemljišče","authority":"MKGP","dataSource":"raba-3000"},"geometry":{"type":"Polygon","coordinates":[[[16.546515249327392,46.49057021065883],[16.54861302591952,46.4899130364779],[16.546636889992172,46.49041403020536],[16.546515249327392,46.49057021065883]]]}},{"type":"Feature","properties":{"_zoneType":"SI_BUILT","name":"Pozidano zemljišče","authority":"MKGP","dataSource":"raba-3000"},"geometry":{"type":"Polygon","coordinates":[[[16.401413858321853,46.56],[16.401719711087132,46.56],[16.401701499541762,46.559185182773206],[16.405245426451653,46.55872128783365],[16.405678054499276,46.56],[16.40619588828023,46.56],[16.4061142592167,46.55973901344804],[16.409186661280945,46.558863450541224],[16.405951750158668,46.55931104006792],[16.404967248053698,46.55666063937862],[16.409074040067132,46.55669480913005],[16.409004518366256,46.55800100691524],[16.41081397426108,46.55782438417587],[16.412141128521505,46.56],[16.412252699902147,46.56],[16.41123267203551,46.557787956045146],[16.41313697786459,46.55710675087563],[16.410076442574304,46.55753640686797],[16.40943533177327,46.55640383217103],[16.414682252866136,46.55486857989083],[16.414537391403858,46.55704140257059],[16.4168953505094,46.56],[16.417272911892862,46.56],[16.41907273601183,46.55670126672655],[16.417253718316832,46.55391091460378],[16.423249193848413,46.55265812281645],[16.423481059313463,46.55482378496114],[16.422326471769033,46.555368676897096],[16.42510082583371,46.55582375331005],[16.424494700089994,46.56],[16.424892473822798,46.56],[16.425468660455454,46.555908721454955],[16.42385404348551,46.55490062118237],[16.42369251915541,46.552813506541405],[16.42453390396242,46.55231267671503],[16.42877213617251,46.55310316685653],[16.42942287694931,46.553964789720936],[16.428508688214837,46.55558001804809],[16.431560309212777,46.55487257369151],[16.43307246976588,46.55543557530956],[16.43276881755029,46.556848203001145],[16.43353501918359,46.555535804689754],[16.434846928110936,46.55549087330291],[16.435532052339,46.55860883152516],[16.436408869849107,46.55973397321831],[16.43563836887991,46.56],[16.43712788488246,46.56],[16.436432463305525,46.558913399818856],[16.44,46.55792881388888],[16.44,46.557499315],[16.436321760928326,46.55860339113454],[16.43523423918784,46.556554001524574],[16.435687177504743,46.55555823968505],[16.44,46.55477906255301],[16.44,46.55264084520188],[16.439748533513317,46.552868194641434],[16.439199481826638,46.55205262846539],[16.436836753155035,46.55293092557],[16.433400006582886,46.55266414499647],[16.431105416956512,46.54950498316609],[16.434123059163873,46.547910885752124],[16.434993255564372,46.54863076665761],[16.43453691566511,46.55076746520527],[16.43525950211336,46.54901844251676],[16.438280264962316,46.54887797574985],[16.44,46.54937973510102],[16.44,46.549133606263496],[16.43860792180406,46.54869107866411],[16.435019780897182,46.54814986596],[16.43554502944583,46.547408776332766],[16.44,46.54701966527798],[16.44,46.54674583159536],[16.433713251737952,46.547603844308384],[16.43103181264643,46.54897218467406],[16.430444471554463,46.550722185317746],[16.425312132089775,46.54932672305766],[16.42589876572261,46.546948417463305],[16.425585593146078,46.545491879527845],[16.428843242787956,46.546959712820765],[16.425808835492543,46.544922864347086],[16.428778420404505,46.54070134940799],[16.428566921061716,46.53974148045775],[16.43901915557671,46.53846135389986],[16.44,46.53892024625013],[16.44,46.5375306075346],[16.439991875807703,46.538128253855646],[16.427607804281593,46.53912081773321],[16.42844453698194,46.54062276802202],[16.425490370465766,46.54456515978037],[16.42487781888489,46.53981784219998],[16.424309324453816,46.54238678568979],[16.422581996886443,46.54334058285985],[16.4185885218815,46.542049267507544],[16.418132734214165,46.5403075491176],[16.420914919458312,46.53973023870198],[16.41757179802545,46.54000310611059],[16.415141883108806,46.53670679721782],[16.44,46.53252029292264],[16.44,46.5318831674693],[16.438370210511916,46.53211417154305],[16.437815241758063,46.531406542979305],[16.437338352375814,46.53226307463748],[16.43393967490375,46.53269846011794],[16.433396165128425,46.53179403725755],[16.43606495916171,46.53081872877474],[16.436737068790265,46.52938340448563],[16.43934045997082,46.53101147279003],[16.439300204067848,46.52926121984708],[16.43809790347857,46.52831832127607],[16.439460013477763,46.527347700585274],[16.44,46.52792598452862],[16.44,46.5263800538192],[16.437617121446923,46.528238302705205],[16.434618144412592,46.527915454504985],[16.435579641352657,46.53078728202089],[16.43376151464169,46.531068212866145],[16.432692605465316,46.52929296595377],[16.431583571695317,46.52917851949423],[16.432477322656972,46.529585224557984],[16.43264468205196,46.53299096709181],[16.425270215304586,46.53423402071056],[16.42319938010417,46.53004300039884],[16.42085414235305,46.529737065505444],[16.418848217468494,46.53008318743115],[16.415336776482153,46.53263897421022],[16.416240807997895,46.535826193459755],[16.409534341416133,46.53903525802398],[16.408161866490847,46.540508170257134],[16.405602979864177,46.540282043136635],[16.40526937689355,46.53749412344454],[16.409340268855463,46.536536546724435],[16.404955587211965,46.53649406916874],[16.40785169722397,46.53566595897407],[16.409052179721794,46.53381629146294],[16.407057153389566,46.53567805881297],[16.405141185468274,46.535959141343504],[16.403589853981078,46.5348875690953],[16.40492512333336,46.53765706403963],[16.40338545064284,46.539947393140565],[16.400556664808764,46.53955754586362],[16.400000000000002,46.53982090199828],[16.400000000000002,46.540310477637796],[16.400369838868063,46.540534227673824],[16.400061429522086,46.54416534645057],[16.400786915716743,46.5431527265885],[16.403074224257367,46.54332356154293],[16.40057740321316,46.54271626280825],[16.401083912365685,46.539958024519606],[16.405540538781437,46.54205100147928],[16.407564555074217,46.54770286314626],[16.40097307673926,46.54647175379562],[16.400000000000002,46.545405569839986],[16.400000000000002,46.54583247609932],[16.400612183236237,46.54673993979399],[16.400000000000002,46.54717075006598],[16.400000000000002,46.550133108272945],[16.401075980752875,46.54760563819075],[16.402901704616653,46.54754199840513],[16.40273524058709,46.55532531436462],[16.400000000000002,46.55470289358115],[16.400000000000002,46.55657051178188],[16.401333465325614,46.55625074290944],[16.403169654836073,46.55816969678211],[16.400000000000002,46.557926392884696],[16.400000000000002,46.55808022990175],[16.401217586778493,46.558077672702645],[16.401413858321853,46.56]],[[16.438241528810895,46.554886820936254],[16.436495733201113,46.5551765333231],[16.43591200355346,46.554414772582504],[16.437678955400358,46.554321969016605],[16.438241528810895,46.554886820936254]],[[16.435013019396727,46.55483294390895],[16.43369154203058,46.555143722147925],[16.434791230096746,46.55437109194609],[16.435013019396727,46.55483294390895]],[[16.43321983359381,46.55482240922614],[16.431240017722864,46.55460171877481],[16.429524349911194,46.55506388034154],[16.430799685221782,46.55351048120956],[16.43321624016782,46.55389416756791],[16.43321983359381,46.55482240922614]],[[16.43074697097606,46.551658030912975],[16.429169426502217,46.55198533714563],[16.428191187293546,46.55100049388358],[16.430513398940576,46.551013203713445],[16.43074697097606,46.551658030912975]],[[16.427329744513305,46.55068288010726],[16.425539035473147,46.55100566873761],[16.425128024918816,46.54965054692825],[16.427329744513305,46.55068288010726]],[[16.421264338113968,46.548522187939334],[16.421504704556483,46.54623198979106],[16.425046010099365,46.545607837929246],[16.425556938873704,46.546919583171714],[16.424121940043193,46.54998886141105],[16.420051112068606,46.549415413620565],[16.421264338113968,46.548522187939334]],[[16.422230925340934,46.54364576515304],[16.424207131365485,46.54274864929826],[16.424940035892483,46.54345729467686],[16.424118581503684,46.54544579944578],[16.42115631247325,46.546077284481505],[16.420865910062314,46.54855450565886],[16.41761618870938,46.55011686031324],[16.415486037922285,46.5491716369077],[16.41860207831961,46.54727622661712],[16.416158015785182,46.54695541975779],[16.418342587230207,46.5422762220579],[16.422230925340934,46.54364576515304]],[[16.423296920519483,46.53212886341378],[16.424643572029748,46.53416060090014],[16.41698746099519,46.53564290154559],[16.41626114039998,46.53393760589719],[16.420490829554495,46.533576180711854],[16.423296920519483,46.53212886341378]],[[16.420633716629627,46.53000147365902],[16.422952445764885,46.53042346716444],[16.423457448762456,46.531586135519376],[16.419837992107546,46.53346339572401],[16.417040917313763,46.53325775381422],[16.416675405117314,46.532114292864534],[16.418512381120312,46.530437309020144],[16.420633716629627,46.53000147365902]],[[16.421439140179277,46.55096625435398],[16.41946374682653,46.55176004052079],[16.419683095701618,46.54972790375982],[16.421439140179277,46.55096625435398]],[[16.409907708043104,46.53914055032836],[16.41499615409101,46.5371814118965],[16.41806766088004,46.54121179572293],[16.415763571382158,46.54678882787629],[16.416615527464113,46.54783425102867],[16.41468825072489,46.54881626500238],[16.41335873438775,46.545717073069994],[16.411173657526295,46.544606761140095],[16.408635327473082,46.54050287266539],[16.409907708043104,46.53914055032836]],[[16.41762399196161,46.55688547864172],[16.41687387256209,46.559036771823926],[16.415964824486068,46.558121115477],[16.41691948982474,46.55681471206936],[16.41762399196161,46.55688547864172]],[[16.413072675526248,46.545852837243594],[16.41419368258139,46.54869482495728],[16.415218594415514,46.549685213280426],[16.414807869752867,46.55173085797441],[16.415936860859524,46.55227260896114],[16.41202172676831,46.554167043296026],[16.411355285964028,46.55307626086903],[16.412434837582044,46.55270768349611],[16.41314876735034,46.55006105327926],[16.411779029270008,46.54982754618732],[16.411829128376752,46.545169948338255],[16.413072675526248,46.545852837243594]],[[16.411335783224462,46.548996452057786],[16.41115404982176,46.54984883317426],[16.409726476947515,46.54960808680377],[16.41005720453148,46.548986570004885],[16.411335783224462,46.548996452057786]],[[16.411109198462,46.54716126973022],[16.411104972210182,46.54851878547221],[16.409291819432312,46.548243216812],[16.40982711179866,46.547256309206],[16.411109198462,46.54716126973022]],[[16.411081217975262,46.54642669161477],[16.410864793633095,46.5467941419267],[16.410438413621364,46.54624795121942],[16.411081217975262,46.54642669161477]],[[16.410924364983607,46.54580915566529],[16.40821275457544,46.545364866870386],[16.40769192621885,46.5433592538311],[16.406052178494694,46.54231573674058],[16.40837011675714,46.54096345596994],[16.410924364983607,46.54580915566529]],[[16.40373626591342,46.54755302197717],[16.40745283855225,46.54863295948066],[16.40875602540787,46.55269505958329],[16.40991528948377,46.552652858049676],[16.410800054785593,46.55415132057416],[16.406148650016966,46.555775574909596],[16.403149441477385,46.555197651061356],[16.40373626591342,46.54755302197717]],[[16.406133083330342,46.54106579028071],[16.405063534222947,46.54165895072958],[16.403659595363614,46.540478075180026],[16.404780817771115,46.53952147014449],[16.406133083330342,46.54106579028071]]]}},{"type":"Feature","properties":{"_zoneType":"SI_BUILT","name":"Pozidano zemljišče","authority":"MKGP","dataSource":"raba-3000"},"geometry":{"type":"Polygon","coordinates":[[[16.400000000000002,46.552458366717936],[16.400000000000002,46.55256697833015],[16.400166893812788,46.55244674193131],[16.400000000000002,46.552458366717936]]]}},{"type":"Feature","properties":{"_zoneType":"SI_BUILT","name":"Pozidano zemljišče","authority":"MKGP","dataSource":"raba-3000"},"geometry":{"type":"Polygon","coordinates":[[[16.401805427779202,46.56383511865144],[16.401719711087132,46.56],[16.401413858321853,46.56],[16.401805427779202,46.56383511865144]]]}},{"type":"Feature","properties":{"_zoneType":"SI_BUILT","name":"Pozidano zemljišče","authority":"MKGP","dataSource":"raba-3000"},"geometry":{"type":"Polygon","coordinates":[[[16.407963871896413,46.56675615585225],[16.408367814941826,46.56515657484684],[16.411954771200616,46.56599716182877],[16.414207878475516,46.5691736518048],[16.409762760243296,46.57094469697498],[16.42419970982268,46.56675699120012],[16.42892914919997,46.57070685250689],[16.425083609573623,46.56666889233477],[16.439659906202785,46.56209752045484],[16.44,46.56246539220291],[16.44,46.56141394427755],[16.438331659832457,46.561880905226566],[16.43712788488246,46.56],[16.43563836887991,46.56],[16.422402479869476,46.56456988517482],[16.420082033922554,46.56196297762333],[16.421638045746835,46.56477390440923],[16.41627335577794,46.56656332539788],[16.407896230793256,46.5647451968034],[16.406939650915554,46.56240393859959],[16.40841521211731,46.56126106702283],[16.406610335036284,46.561325079881556],[16.40619588828023,46.56],[16.405678054499276,46.56],[16.407963871896413,46.56675615585225]],[[16.41253990686787,46.566468304477],[16.41691114344035,46.56668013699345],[16.43708068557326,46.56031522445158],[16.43626128160445,46.56153964931152],[16.436806312532614,46.56239407118836],[16.41478752359121,46.56898786269762],[16.41253990686787,46.566468304477]]]}},{"type":"Feature","properties":{"_zoneType":"SI_BUILT","name":"Pozidano zemljišče","authority":"MKGP","dataSource":"raba-3000"},"geometry":{"type":"Polygon","coordinates":[[[16.43700198344072,46.570605711295585],[16.439055672982047,46.570373844541365],[16.44,46.569530542423664],[16.44,46.56830725932459],[16.43700198344072,46.570605711295585]]]}},{"type":"Feature","properties":{"_zoneType":"SI_BUILT","name":"Pozidano zemljišče","authority":"MKGP","dataSource":"raba-3000"},"geometry":{"type":"Polygon","coordinates":[[[16.41259824900562,46.56074936168947],[16.412252699902147,46.56],[16.412141128521505,46.56],[16.41259824900562,46.56074936168947]]]}},{"type":"Feature","properties":{"_zoneType":"SI_BUILT","name":"Pozidano zemljišče","authority":"MKGP","dataSource":"raba-3000"},"geometry":{"type":"Polygon","coordinates":[[[16.417080255893758,46.56023200597227],[16.4193495035111,46.56017311768712],[16.41986386191843,46.561381602414656],[16.420170934612475,46.560297508512384],[16.424852956438617,46.56028059766905],[16.424892473822798,46.56],[16.424494700089994,46.56],[16.42449462187221,46.56000053892573],[16.417254490078967,46.56003376366047],[16.417272911892862,46.56],[16.4168953505094,46.56],[16.417080255893758,46.56023200597227]]]}},{"type":"Feature","properties":{"_zoneType":"SI_BUILT","name":"Pozidano zemljišče","authority":"MKGP","dataSource":"raba-3000"},"geometry":{"type":"Polygon","coordinates":[[[16.472694906425485,46.51525704268517],[16.470836845779445,46.51172444048575],[16.471587706639312,46.5170007277564],[16.464888107941245,46.518995875208724],[16.46635218200471,46.519186844439524],[16.466274082071003,46.52],[16.466768488574143,46.52],[16.46688791738111,46.519870757290434],[16.47623927316342,46.518831118039856],[16.47695126312168,46.51957826484512],[16.477510091691634,46.51868595043623],[16.48,46.51846300280736],[16.48,46.51807559563871],[16.467277729684024,46.51956718704417],[16.466777129168882,46.51929188453556],[16.471246863554047,46.517692501256604],[16.472349759438686,46.51573369739492],[16.48,46.51155687573918],[16.48,46.51126767868217],[16.472694906425485,46.51525704268517]]]}},{"type":"Feature","properties":{"_zoneType":"SI_BUILT","name":"Pozidano zemljišče","authority":"MKGP","dataSource":"raba-3000"},"geometry":{"type":"Polygon","coordinates":[[[16.46139725795337,46.519836919881],[16.460262243722887,46.52],[16.46126016239161,46.52],[16.46139725795337,46.519836919881]]]}},{"type":"Feature","properties":{"_zoneType":"SI_BUILT","name":"Pozidano zemljišče","authority":"MKGP","dataSource":"raba-3000"},"geometry":{"type":"Polygon","coordinates":[[[16.44849260550325,46.518922619973644],[16.447496279713572,46.5170476889324],[16.444046707198172,46.51530477615034],[16.443185300080454,46.52],[16.445026055264087,46.52],[16.443512625097906,46.51950753655933],[16.445746405381474,46.51912302288834],[16.44797167836908,46.519408793506045],[16.447324770150008,46.52],[16.448586930172134,46.52],[16.448673448259665,46.51919017573519],[16.45185006338605,46.51985075816667],[16.451681400022032,46.52],[16.45262289990226,46.52],[16.45241496434703,46.519786754814106],[16.453092934428497,46.52],[16.45385875120105,46.52],[16.44849260550325,46.518922619973644]],[[16.44718247804771,46.517227050729026],[16.447823170372597,46.51857546443837],[16.443924970434143,46.518985885986694],[16.444219485519824,46.51635668058858],[16.44718247804771,46.517227050729026]]]}},{"type":"Feature","properties":{"_zoneType":"SI_BUILT","name":"Pozidano zemljišče","authority":"MKGP","dataSource":"raba-3000"},"geometry":{"type":"Polygon","coordinates":[[[16.44054769017326,46.514911077994626],[16.441002694424036,46.52],[16.442126830432315,46.52],[16.44054769017326,46.514911077994626]]]}},{"type":"Feature","properties":{"_zoneType":"SI_BUILT","name":"Pozidano zemljišče","authority":"MKGP","dataSource":"raba-3000"},"geometry":{"type":"Polygon","coordinates":[[[16.476399851476057,46.555166826457665],[16.475448023018544,46.555119599463644],[16.475143674703936,46.556734771928554],[16.473168170013885,46.55519355590474],[16.473923408268085,46.553176622185255],[16.477402501834046,46.553198284274714],[16.478250693239193,46.554210305902345],[16.47784838351077,46.55593179487036],[16.47978457267917,46.5573931848355],[16.479869142146036,46.55970188220841],[16.48,46.5591927273036],[16.48,46.5481300679196],[16.478714546375308,46.548911543052355],[16.475148083014982,46.54601277434444],[16.48,46.543304127667405],[16.48,46.54323662964903],[16.474827233520134,46.5457290376908],[16.473865070833998,46.54487719065964],[16.48,46.53950176340787],[16.48,46.53888856432294],[16.47397484939125,46.54432432266101],[16.472812657102107,46.5435124121939],[16.473933588996193,46.54243228239042],[16.47240045832324,46.54191797156187],[16.47744044591213,46.53645029970689],[16.48,46.5369690104676],[16.48,46.53471338110158],[16.479134068933405,46.53496042507744],[16.48,46.53348627446006],[16.48,46.53094081948142],[16.479849529688206,46.53109299330404],[16.476473262469437,46.53106083142015],[16.477857669471806,46.53039824432254],[16.47640622338577,46.529114175202764],[16.47051958641325,46.53070282125938],[16.46802269626059,46.52822908943058],[16.472530649474955,46.52406389235392],[16.476676563570198,46.52434761814449],[16.48,46.52351909540959],[16.48,46.52297208075749],[16.476436656753048,46.523818756325056],[16.47333295610305,46.523428486994874],[16.467220905140024,46.52796981855245],[16.464838349329185,46.52793526883933],[16.465064207151077,46.52643302909792],[16.46359532400161,46.525109074965485],[16.464560989272204,46.52323190553112],[16.4663463249267,46.522680626036674],[16.464647485586198,46.522295293573876],[16.466768488574143,46.52],[16.466274082071003,46.52],[16.46624542614992,46.52029835776374],[16.464007100472042,46.522214127435184],[16.460063735322287,46.52142319318249],[16.46126016239161,46.52],[16.460262243722887,46.52],[16.456529816845762,46.520536279284386],[16.45385875120105,46.52],[16.453092934428497,46.52],[16.453452549633518,46.52011311149761],[16.453039749182455,46.52042749351908],[16.45262289990226,46.52],[16.451681400022032,46.52],[16.451224027415776,46.52040470630164],[16.4485662214239,46.52019383746557],[16.448586930172134,46.52],[16.447324770150008,46.52],[16.446721206032322,46.52055159451585],[16.445026055264087,46.52],[16.443185300080454,46.52],[16.443179526427876,46.520031470126874],[16.442192196085614,46.52021064671714],[16.442126830432315,46.52],[16.441002694424036,46.52],[16.441470601307525,46.52523322942988],[16.44,46.5263800538192],[16.44,46.52792598452862],[16.440338237430197,46.528288210745146],[16.440181042709387,46.526874780246914],[16.441797350736103,46.52658401078458],[16.44178992460399,46.53162946606906],[16.44,46.5318831674693],[16.44,46.53252029292264],[16.442026299170564,46.532179031747546],[16.442131970131094,46.533449838429576],[16.44004918539102,46.53391234409244],[16.44,46.5375306075346],[16.44,46.53892024625013],[16.440758714373917,46.53927521408596],[16.44023632392489,46.54262321364761],[16.441588491500536,46.546529034955],[16.44,46.54674583159536],[16.44,46.54701966527798],[16.442015488444436,46.54684362621667],[16.443976459070356,46.55251805670454],[16.441433196902363,46.55318337869838],[16.44107914786921,46.552331472406266],[16.44204228079335,46.55118020445235],[16.44188726572196,46.54973354897631],[16.44,46.549133606263496],[16.44,46.54937973510102],[16.441585722017777,46.54984239407658],[16.44174787923159,46.551060597396486],[16.44,46.55264084520188],[16.44,46.55477906255301],[16.44106576940373,46.554586515062745],[16.443377374634906,46.5555285617059],[16.442504310136343,46.556747610447594],[16.44,46.557499315],[16.44,46.55792881388888],[16.44252759195847,46.55723123690729],[16.442203981859347,46.56],[16.443750660941742,46.56],[16.443962542080357,46.556566565996626],[16.445610853848848,46.55633317634108],[16.446169434714,46.559460429290326],[16.44457222422458,46.56],[16.445679493206484,46.56],[16.445910443638365,46.55991592665766],[16.44595143301322,46.56],[16.45821965444669,46.56],[16.45830278034863,46.55937120862917],[16.462103085897382,46.557028342860356],[16.463811587590044,46.56],[16.46864116235293,46.56],[16.46838818139533,46.559692499112906],[16.469324492440155,46.55840558411426],[16.470283042661517,46.56],[16.47169770473838,46.56],[16.471691081450004,46.559890280703705],[16.470379984449618,46.55851168681493],[16.466690468552038,46.556671343045345],[16.465502163131713,46.55684237839513],[16.46521048509692,46.558361593849675],[16.463448520473147,46.55672361237866],[16.467229455783066,46.55541505627308],[16.46849419369733,46.5563856208315],[16.470795812847967,46.55556015697332],[16.470535747263007,46.55726619106394],[16.47186221823317,46.55653552765199],[16.47285102429367,46.55767841168988],[16.472817566980666,46.56],[16.475588038084982,46.56],[16.476124631378855,46.55881491432011],[16.475490801979745,46.55773263463759],[16.476235733794198,46.557558251835005],[16.47731522951274,46.56],[16.47822826603439,46.56],[16.476399851476057,46.555166826457665]],[[16.47763529474448,46.53490183305612],[16.4753076112679,46.533977704626174],[16.47888097207136,46.53304947375781],[16.479261841893834,46.53366581226544],[16.47763529474448,46.53490183305612]],[[16.478893971504387,46.54982590024955],[16.478316032292327,46.55134796920515],[16.47605692751132,46.55103935704394],[16.478209714953117,46.54961941149775],[16.478893971504387,46.54982590024955]],[[16.474021026836944,46.5459306056347],[16.478042902746722,46.54908689891636],[16.47270710156187,46.55211476040041],[16.466382054631865,46.55363613543135],[16.464849878976953,46.55207889617141],[16.472272391979335,46.54928541245862],[16.474021026836944,46.5459306056347]],[[16.470807038424038,46.53426058011549],[16.473253049811017,46.533940158156184],[16.477144921245078,46.535292090827795],[16.47091382614947,46.53793514219176],[16.469806417808837,46.53522671647081],[16.470807038424038,46.53426058011549]],[[16.469776113954378,46.539785513554286],[16.46971738883172,46.53833682800787],[16.476028115139087,46.53738676705638],[16.467951781212136,46.543950825802575],[16.465622352074845,46.54344415880384],[16.466197293710714,46.542272838264005],[16.46482331152136,46.5395268866258],[16.468764399203287,46.53835904771351],[16.469776113954378,46.539785513554286]],[[16.472972552515973,46.530274210358385],[16.474198892474785,46.5312535898195],[16.47171116748334,46.53197156115894],[16.470882080242742,46.53105194202187],[16.472972552515973,46.530274210358385]],[[16.46227200110947,46.55283784721651],[16.46191477436578,46.55172489345416],[16.468037216509696,46.544381690573715],[16.47093638748495,46.54325585355149],[16.472816439746634,46.54404408355016],[16.4700165337491,46.546663515882344],[16.472696223653198,46.54471069888153],[16.47384899092717,46.545433064385556],[16.471797903327943,46.54757034842685],[16.472562323957263,46.54796367501416],[16.472124166620816,46.54906871711761],[16.463640065783093,46.551552910297076],[16.464635173091555,46.552626168687986],[16.46227200110947,46.55283784721651]],[[16.46805437285846,46.53278670905816],[16.46862535212967,46.53220848947217],[16.472381190832905,46.532992157549735],[16.46891955023205,46.533743988524236],[16.46805437285846,46.53278670905816]],[[16.470664966299708,46.553395234543],[16.472876240838932,46.553381228335454],[16.47258503591046,46.554549142590126],[16.4711789258041,46.55436524387866],[16.470664966299708,46.553395234543]],[[16.467074634151327,46.528361974170274],[16.470767130352677,46.531866867437],[16.4633983833483,46.53144856108245],[16.462440882554088,46.530347310215696],[16.462724249631464,46.528600888537426],[16.467074634151327,46.528361974170274]],[[16.468374836536086,46.534634108754176],[16.470431279717214,46.53776070754046],[16.468425238732003,46.53741728428563],[16.464797119459977,46.53895553204475],[16.464006877889858,46.537257419150144],[16.46617491137028,46.53658141511477],[16.465006124120432,46.536143097217106],[16.46369050744481,46.53688682941423],[16.463908411009463,46.53899308614206],[16.461710678007876,46.53843450047052],[16.460798402618916,46.5391153899476],[16.459903704362986,46.53775078382763],[16.460971708606337,46.53433554296569],[16.468374836536086,46.534634108754176]],[[16.468098584073907,46.53357191886532],[16.460624159568688,46.53361555834663],[16.459738143482703,46.53153042180244],[16.467573843634735,46.53210998190321],[16.468098584073907,46.53357191886532]],[[16.468286572697867,46.558196316171085],[16.46761050624037,46.55845329186211],[16.467889706236036,46.55780975993787],[16.468286572697867,46.558196316171085]],[[16.468127866946563,46.55896532183565],[16.467469817112388,46.5597493451696],[16.467707553286633,46.558644842795374],[16.468127866946563,46.55896532183565]],[[16.467249695215198,46.55706403244741],[16.467366605690408,46.557588994303195],[16.46616151371104,46.55725879891421],[16.467249695215198,46.55706403244741]],[[16.466650847966264,46.54519973384776],[16.46359523267846,46.54874434161421],[16.462234573486853,46.547967792638104],[16.464642631872316,46.545127042070625],[16.466650847966264,46.54519973384776]],[[16.46539610177713,46.54157032046864],[16.462124120992293,46.541428075411396],[16.461038224646256,46.539739955267706],[16.46424595406511,46.539295977096],[16.46539610177713,46.54157032046864]],[[16.4642114619687,46.5228782212053],[16.46084840739687,46.52410785429817],[16.459782269000705,46.52221273434312],[16.461006259547947,46.52187488657794],[16.4642114619687,46.5228782212053]],[[16.46285975475176,46.526865149602926],[16.462540947667378,46.527451310099266],[16.461884541387253,46.52643487655935],[16.46285975475176,46.526865149602926]],[[16.462530581136555,46.53110195920593],[16.460086309261484,46.531174263702624],[16.459501652327276,46.53000083352348],[16.461042327533203,46.528964021753865],[16.462530581136555,46.53110195920593]],[[16.452157345797342,46.547821053383984],[16.46042229190352,46.54580925954736],[16.46046963287123,46.544380009220646],[16.46214788439033,46.543970295360765],[16.461620581429283,46.5480225233433],[16.45702534407759,46.55263920607404],[16.449932369327513,46.55343213191145],[16.452508584012676,46.54986873817392],[16.452157345797342,46.547821053383984]],[[16.46232194281432,46.55341081399012],[16.461561644365823,46.553599808711645],[16.461661575896603,46.55274495805436],[16.46232194281432,46.55341081399012]],[[16.44856806008486,46.5445237052314],[16.448373053911357,46.54280483515652],[16.45357213591672,46.542679116616235],[16.454908241100895,46.54075109543919],[16.46093964053939,46.54071717009266],[16.46180825452676,46.5418126885687],[16.457526921882067,46.543609404495406],[16.45840142340536,46.54411943162431],[16.457733973546503,46.545146951429025],[16.45140826909833,46.54752593888048],[16.450379368030354,46.54465879767423],[16.44856806008486,46.5445237052314]],[[16.461955576049274,46.55110746810623],[16.460950043156764,46.55225517961981],[16.45920115048697,46.55138166081408],[16.460129033037592,46.550187050960886],[16.461955576049274,46.55110746810623]],[[16.460238952973484,46.52400909886551],[16.460081348699124,46.526176361466526],[16.458460260162866,46.52662766232891],[16.456439698300738,46.52497580728861],[16.460238952973484,46.52400909886551]],[[16.459797905398375,46.536435997993664],[16.459091990428767,46.536473487743116],[16.457659085035342,46.53462669832615],[16.459790151392408,46.53433227626668],[16.459797905398375,46.536435997993664]],[[16.460096920032765,46.53930637487421],[16.458720815555324,46.53935237555356],[16.457714999210776,46.53714071400351],[16.455711449008046,46.5370419898729],[16.456169062659637,46.535920948210396],[16.458333856132114,46.536078836828736],[16.460096920032765,46.53930637487421]],[[16.458312404792675,46.521835641797814],[16.459453820178584,46.52309366043256],[16.453379428902185,46.526406756535124],[16.45063371158442,46.5254895612022],[16.455110086100618,46.52209296037302],[16.458312404792675,46.521835641797814]],[[16.459519404546924,46.533404349323995],[16.45754118961512,46.53357228489856],[16.45707095384345,46.533167052482554],[16.458690619415542,46.5320695485563],[16.459519404546924,46.533404349323995]],[[16.45834658636806,46.555126354984935],[16.455888743496203,46.55558490768253],[16.455092547673573,46.55436677318353],[16.456313609658444,46.55372339975545],[16.45834658636806,46.555126354984935]],[[16.455795610846963,46.53413974779427],[16.457478830301042,46.53526648583932],[16.45376755826776,46.534793876631674],[16.453619266886598,46.534020061422886],[16.455795610846963,46.53413974779427]],[[16.450987290107122,46.55553697203952],[16.450797528252988,46.55410011510735],[16.455371656719002,46.55337625294951],[16.45395078205705,46.55473579457304],[16.456525054502638,46.55685502757687],[16.453156468964387,46.55829778432996],[16.449905164938514,46.55764453774338],[16.448927870667504,46.55618304531667],[16.450987290107122,46.55553697203952]],[[16.44996928877033,46.52906258496691],[16.451914307959978,46.529073761669835],[16.452376606789638,46.52993394508301],[16.451268678693946,46.53052042368146],[16.453668242877875,46.53144799601112],[16.45202996589563,46.53204250452613],[16.455139585345524,46.53096939785709],[16.455930528020446,46.532539938383096],[16.445043315628467,46.53484486235001],[16.444369818928305,46.52906548305758],[16.4468076265744,46.52645288910589],[16.44996928877033,46.52906258496691]],[[16.45393751304054,46.522322134285794],[16.449314000729263,46.525350955031534],[16.44608710544471,46.525731297573344],[16.444964579918935,46.52519484543383],[16.44483030578765,46.52125556692722],[16.45029553667034,46.52152525982893],[16.45393751304054,46.522322134285794]],[[16.45412803509466,46.54100541916512],[16.45334011866892,46.54159450699894],[16.452921945157218,46.54076536561034],[16.45412803509466,46.54100541916512]],[[16.45349055773878,46.53568133897197],[16.452416565529482,46.5371928575557],[16.45055963970648,46.5373180280887],[16.45144520211303,46.53589667054446],[16.45349055773878,46.53568133897197]],[[16.452983023649395,46.534543835772034],[16.449557165213196,46.53691010287489],[16.44955406462975,46.53543831079258],[16.448766748594288,46.53524547625795],[16.449301307125076,46.53438889432005],[16.452983023649395,46.534543835772034]],[[16.452870469442807,46.54225249484334],[16.448484954369206,46.54244627020053],[16.45101134189413,46.54080660868639],[16.452870469442807,46.54225249484334]],[[16.452215598648625,46.53974663642735],[16.452030696150068,46.540117308670766],[16.45087291250853,46.53958916300922],[16.452215598648625,46.53974663642735]],[[16.449205630276175,46.54824925999257],[16.44932274197337,46.54766664847468],[16.45034458285249,46.547564744936516],[16.45041944458998,46.54833906275113],[16.449205630276175,46.54824925999257]],[[16.44657163899949,46.53832057726765],[16.447985840173484,46.540653046386296],[16.44576231237645,46.54161519165205],[16.44501085040626,46.53870763919269],[16.44657163899949,46.53832057726765]],[[16.44735400343298,46.535563981518834],[16.44754806838373,46.53722223135298],[16.44588419117914,46.537302008102245],[16.44498878810378,46.535945721643],[16.44735400343298,46.535563981518834]],[[16.445855591104465,46.5261317694664],[16.445946143180105,46.52648118298803],[16.444908105432003,46.52757845689747],[16.4441238911018,46.52626925239734],[16.445855591104465,46.5261317694664]],[[16.444388559922007,46.53776065638336],[16.444440840443047,46.53872677705509],[16.443005231643497,46.53828700770228],[16.444388559922007,46.53776065638336]],[[16.443233333021915,46.52616912654586],[16.444042484225708,46.534254708511654],[16.442770885577367,46.5333823937149],[16.442186038277754,46.526483440103895],[16.443233333021915,46.52616912654586]],[[16.442314663977232,46.53381871004813],[16.443952461356343,46.53583537013806],[16.441734178482676,46.53778154265112],[16.44087994527971,46.537510117723485],[16.44040566036968,46.53412261861746],[16.442314663977232,46.53381871004813]],[[16.44333451055234,46.525872714382636],[16.44212142076906,46.525726126328664],[16.44159560335462,46.52104886369259],[16.44327759835312,46.52117699198289],[16.44333451055234,46.525872714382636]],[[16.44297713039496,46.54667489295145],[16.443588523067255,46.546426203565744],[16.443364471736494,46.54711700553537],[16.44297713039496,46.54667489295145]],[[16.441344255214375,46.54295041802816],[16.44303829962222,46.544006635501795],[16.443793424750833,46.545859641768075],[16.44255198075021,46.546112422332605],[16.441344255214375,46.54295041802816]],[[16.44267228646306,46.54233211840023],[16.442078228011635,46.54206710929504],[16.442338228683667,46.53993633662622],[16.443398241721102,46.54002092438039],[16.44267228646306,46.54233211840023]],[[16.440549896096986,46.538035915785116],[16.441312537253214,46.53788487140545],[16.440694572327153,46.53854585655067],[16.440549896096986,46.538035915785116]]]}},{"type":"Feature","properties":{"_zoneType":"SI_BUILT","name":"Pozidano zemljišče","authority":"MKGP","dataSource":"raba-3000"},"geometry":{"type":"Polygon","coordinates":[[[16.460022040648838,46.55999407055399],[16.4591909335273,46.55956250284076],[16.45918148123698,46.56],[16.460017300229673,46.56],[16.460022040648838,46.55999407055399]]]}},{"type":"Feature","properties":{"_zoneType":"SI_BUILT","name":"Pozidano zemljišče","authority":"MKGP","dataSource":"raba-3000"},"geometry":{"type":"Polygon","coordinates":[[[16.461079784575173,46.55842375194483],[16.46029993275601,46.559081944913494],[16.461078849501416,46.56],[16.462053429391858,46.56],[16.461079784575173,46.55842375194483]]]}},{"type":"Feature","properties":{"_zoneType":"SI_BUILT","name":"Pozidano zemljišče","authority":"MKGP","dataSource":"raba-3000"},"geometry":{"type":"Polygon","coordinates":[[[16.440902841269185,46.56344197512985],[16.443176606603714,46.56371148797103],[16.44359454988364,46.565551470588424],[16.44,46.56830725932459],[16.44,46.569530542423664],[16.443345139207693,46.56654326902768],[16.44305397910623,46.57052951447027],[16.444125812497667,46.57051598630351],[16.444683762528026,46.565920949695276],[16.445675633334346,46.56554526498598],[16.446771539618123,46.567209641669145],[16.44527610451087,46.57050145669032],[16.453135278659204,46.570401875902306],[16.45409894877343,46.569262213189155],[16.456013344268072,46.56961424830159],[16.45507738702612,46.57037718488834],[16.459747958211405,46.570317670455225],[16.459391610523387,46.569778175617],[16.460794443915052,46.56979573595692],[16.461948268540194,46.56791794449327],[16.46419858042821,46.56685747862186],[16.466319720962378,46.56753962499729],[16.467372702947095,46.56874728038123],[16.46635844840542,46.57023311057824],[16.467567708513624,46.57021760064179],[16.468743968904388,46.56777520360981],[16.472331441549507,46.56588587196356],[16.472739097708068,46.56673699153113],[16.475738546003846,46.56654909433488],[16.47558040049126,46.57011450689287],[16.47706900103992,46.56647891883817],[16.48,46.566327183540686],[16.48,46.565750118811856],[16.477535303678902,46.56534080502813],[16.47881791865793,46.561558669201304],[16.47822826603439,46.56],[16.47731522951274,46.56],[16.477952179863166,46.561440739710804],[16.47738302042438,46.56363403300518],[16.476423851573625,46.563921503257234],[16.476769856317087,46.56502954425965],[16.474674447660764,46.565754017180616],[16.472002860629466,46.565055115788134],[16.47169770473838,46.56],[16.470283042661517,46.56],[16.471111132466174,46.561377413003456],[16.469844166189496,46.561462263209194],[16.46864116235293,46.56],[16.463811587590044,46.56],[16.464614265434605,46.56139612583229],[16.463292250393454,46.56333460923432],[16.464840736056843,46.56378718643309],[16.465903349056614,46.56278124242933],[16.466382444868938,46.564115763751936],[16.464958593899205,46.56447082627557],[16.465204336495752,46.56560910248272],[16.46376026487057,46.566463160026984],[16.46208195752568,46.56604195826245],[16.46313658466383,46.565020684536464],[16.461221749095355,46.565148920443946],[16.462010290970788,46.56164831931149],[16.46338123971133,46.5604522745255],[16.462273456845963,46.5603562057135],[16.462053429391858,46.56],[16.461078849501416,46.56],[16.461551947012328,46.56055760718828],[16.460770370433668,46.561891003521104],[16.45696820333255,46.56217459943177],[16.456821381817583,46.56126331729869],[16.45877799752407,46.561550153737706],[16.460017300229673,46.56],[16.45918148123698,46.56],[16.459168714526093,46.56059090437932],[16.45810983713699,46.5608306938643],[16.45821965444669,46.56],[16.44595143301322,46.56],[16.44724298718881,46.56264910789064],[16.44446047484607,46.564486972771064],[16.443466929489592,46.560805443944446],[16.445679493206484,46.56],[16.44457222422458,46.56],[16.44373316890414,46.56028345022632],[16.443750660941742,46.56],[16.442203981859347,46.56],[16.442107671694917,46.560824016399515],[16.44,46.56141394427755],[16.44,46.56246539220291],[16.440902841269185,46.56344197512985]],[[16.466721101754626,46.56066056686506],[16.468797895638257,46.56105631905051],[16.468292698668602,46.56358308139107],[16.46987689335948,46.56190609757238],[16.471420197705037,46.56274062829863],[16.471264118742912,46.56487975517519],[16.469473972647506,46.56659101566452],[16.46651553298025,46.56657767400058],[16.46605634428236,46.565774076167955],[16.467182811644882,46.56343157107637],[16.466721101754626,46.56066056686506]],[[16.455035575000615,46.564948225207274],[16.458066817038347,46.562750299428515],[16.461025225799364,46.56264541030583],[16.460837222687857,46.56423738161787],[16.459441572878898,46.563686514793545],[16.459156765438863,46.56460225193505],[16.46061708159715,46.56573927628018],[16.458141999595487,46.56766712103374],[16.457100346737185,46.567903430081884],[16.456713436059992,46.56691133473652],[16.454631988521815,46.567377162357836],[16.454688993301694,46.56657789747652],[16.457080484125353,46.5658412655585],[16.455035575000615,46.564948225207274]],[[16.460797747683646,46.56732914611966],[16.459956133920045,46.56844569115885],[16.457689060260165,46.569073703156356],[16.45905565177713,46.56705089095242],[16.460797747683646,46.56732914611966]],[[16.457137885584732,46.56906282606969],[16.4556143041242,46.56915930649754],[16.456927953737072,46.56872073354792],[16.457137885584732,46.56906282606969]],[[16.45286288481955,46.568105373975285],[16.451956516413908,46.568971552032835],[16.452443036379645,46.569811358366344],[16.45078992700309,46.569166779309974],[16.45136965243066,46.56778688686805],[16.45286288481955,46.568105373975285]],[[16.449796170449066,46.56281168824294],[16.449036586645736,46.56365232717291],[16.44831119244366,46.563533957029925],[16.448925662887447,46.5625761004987],[16.449796170449066,46.56281168824294]],[[16.446791059462225,46.560770472867524],[16.447751707441,46.56093116906096],[16.44676610066284,46.561306005127825],[16.446791059462225,46.560770472867524]],[[16.446139385913117,46.56487658187723],[16.445921071727806,46.56547786397726],[16.445496650256153,46.564714266988986],[16.446139385913117,46.56487658187723]],[[16.443021089326418,46.56314554384308],[16.44111394619656,46.56322302755384],[16.440213672387756,46.56194012124563],[16.442349168601762,46.56112273798387],[16.443021089326418,46.56314554384308]]]}},{"type":"Feature","properties":{"_zoneType":"SI_BUILT","name":"Pozidano zemljišče","authority":"MKGP","dataSource":"raba-3000"},"geometry":{"type":"Polygon","coordinates":[[[16.47277749181078,46.56278079850334],[16.47417888784543,46.56403183400779],[16.475838076631927,46.562295347213734],[16.475190422984134,46.56087814731847],[16.475588038084982,46.56],[16.472817566980666,46.56],[16.47277749181078,46.56278079850334]],[[16.475042510007356,46.56191759779533],[16.474393503710985,46.56236927717548],[16.4746492893635,46.561576649172544],[16.475042510007356,46.56191759779533]]]}},{"type":"Feature","properties":{"_zoneType":"SI_BUILT","name":"Pozidano zemljišče","authority":"MKGP","dataSource":"raba-3000"},"geometry":{"type":"Polygon","coordinates":[[[16.51801453576341,46.51018874608879],[16.51638456170635,46.51053341822936],[16.507839334400863,46.51525636687571],[16.505838942796593,46.51559866193763],[16.504226862144893,46.51359160786223],[16.51917049720002,46.507845094788216],[16.52,46.507350489621366],[16.52,46.50705692125934],[16.518956719786853,46.50766232908347],[16.511034610728483,46.50923036680474],[16.5084093319914,46.5055071112135],[16.511856716619633,46.5037332881772],[16.503065706781303,46.50662604968257],[16.501977553188105,46.50374562220174],[16.505318767724283,46.50353367106664],[16.501811354276512,46.50329826765232],[16.50015829380976,46.50020529676735],[16.50080355655755,46.49973061215469],[16.500203842978376,46.49812316497572],[16.5079504102979,46.49682441278445],[16.500019246068895,46.49773356032689],[16.499467958236686,46.49604798976488],[16.499575851966405,46.49865718260698],[16.49606346758477,46.4991966758859],[16.4997656474502,46.49914625039506],[16.499823480458993,46.500241902734885],[16.50170725978148,46.504346004567],[16.500679079094706,46.50487887939258],[16.501932626415904,46.50503070544119],[16.502457443956153,46.50694214487126],[16.49971126908617,46.50785308194615],[16.499082368888676,46.50706472890227],[16.498637506768173,46.50822127368592],[16.494716803778328,46.50955492465365],[16.494078397393682,46.50742768387374],[16.491907730502415,46.508030004980824],[16.48963145256475,46.510158529546224],[16.48141724874843,46.51049370897424],[16.48,46.51126767868217],[16.48,46.51155687573918],[16.48139459186481,46.51079546680633],[16.489803998658473,46.51036814492458],[16.492189253036187,46.50817841344258],[16.493627375077676,46.50802377114042],[16.493782781686047,46.51010430996691],[16.496524790629223,46.516138187057756],[16.48,46.51807559563871],[16.48,46.51846300280736],[16.490108902310816,46.51755784666441],[16.490682800141016,46.52],[16.492026010313836,46.52],[16.494270400043668,46.51827862474038],[16.49400526476283,46.516910448657605],[16.495800518973414,46.51704877871376],[16.503412251918096,46.513814101670704],[16.504508646635554,46.51458223006428],[16.503605328280695,46.515282170473554],[16.50429513065258,46.516771166042844],[16.497012121105865,46.52],[16.497925874066404,46.52],[16.50479284332319,46.516844797812944],[16.50758306339582,46.5183768741688],[16.504758809053346,46.519154503295596],[16.50647648195653,46.519652661929534],[16.50675308236777,46.52],[16.507559522312306,46.52],[16.50711925160559,46.51908715958501],[16.51104420157178,46.52],[16.513174784300464,46.52],[16.50874506630412,46.518248972809744],[16.50901791217706,46.517425603734],[16.50761209560972,46.51726867541785],[16.507286703449264,46.51632780320962],[16.511927854525496,46.51463357342316],[16.512580933705003,46.51354636380829],[16.513442266106065,46.51549274288661],[16.515000753498025,46.51565970551416],[16.51274190273951,46.51273326605996],[16.517799458189824,46.51046303017596],[16.52,46.51255809046959],[16.52,46.51204732922947],[16.51801453576341,46.51018874608879]],[[16.51056676456752,46.50938644738127],[16.51189659164331,46.50978858345517],[16.507055961581997,46.51187278005474],[16.504994107414692,46.51065362423762],[16.50277131343131,46.50742072148175],[16.507844740536967,46.50549759128907],[16.51056676456752,46.50938644738127]],[[16.505211098612556,46.512138827921966],[16.496849399466754,46.51550578237422],[16.494285764513513,46.51025350405229],[16.502165279956127,46.50739709680822],[16.505211098612556,46.512138827921966]]]}},{"type":"Feature","properties":{"_zoneType":"SI_BUILT","name":"Pozidano zemljišče","authority":"MKGP","dataSource":"raba-3000"},"geometry":{"type":"Polygon","coordinates":[[[16.517568279804074,46.519763151710514],[16.515287713274365,46.52],[16.52,46.52],[16.52,46.51962203011387],[16.51874391372683,46.5198825135219],[16.52,46.51903428111392],[16.52,46.51844856656892],[16.517568279804074,46.519763151710514]]]}},{"type":"Feature","properties":{"_zoneType":"SI_BUILT","name":"Pozidano zemljišče","authority":"MKGP","dataSource":"raba-3000"},"geometry":{"type":"Polygon","coordinates":[[[16.480585725339854,46.556913728217054],[16.48235102218359,46.55713169417291],[16.48061559986437,46.55434744737431],[16.48346403800725,46.55386697961957],[16.485094890177677,46.558191624930444],[16.486367919598965,46.55959188276393],[16.488240490951654,46.55961762145185],[16.488438106373316,46.56],[16.491014743467723,46.56],[16.491645559344644,46.559310673283655],[16.49094898038753,46.557770316237956],[16.488340593949026,46.558356223668625],[16.487100414327863,46.556646115887474],[16.486951195312052,46.55428074315773],[16.488177818857377,46.553522975520615],[16.48922233703586,46.55448109216342],[16.489450586589424,46.55306442246596],[16.49340689890562,46.55580015537526],[16.495690328707624,46.55602704794381],[16.500253399119256,46.558493685856156],[16.502635810467282,46.557343751551],[16.501622544980822,46.55604787155648],[16.500678168479283,46.55778700311328],[16.49866206950553,46.55705167221889],[16.497329814781185,46.555941818497026],[16.497914984399035,46.555087738465794],[16.4962900259843,46.554929206872146],[16.497404073864374,46.554667624138396],[16.49739370740397,46.55334814124821],[16.49599001127229,46.55298199966302],[16.498521131926726,46.55253472661299],[16.500281273590378,46.55393230171685],[16.499256447167095,46.55459082705109],[16.50129374845771,46.554846487915725],[16.501446624802874,46.55261086782813],[16.499985580962917,46.55192467322044],[16.502078258667414,46.55157954923962],[16.502748676468592,46.54948889612403],[16.501642359072402,46.54804859206482],[16.50294524870457,46.547674595125464],[16.50352994572497,46.54614789448184],[16.502587213081178,46.545245908054206],[16.50485464316925,46.54374642345985],[16.505558193349966,46.544109632432836],[16.504066021101107,46.54535158439882],[16.506841068426013,46.54576257813801],[16.50660317108234,46.54876408101712],[16.5074580975739,46.54924415776126],[16.505735145917253,46.5503987848889],[16.506155070716574,46.55255572168865],[16.508460411387684,46.55494096453277],[16.507790515373536,46.55629463018644],[16.509084492373983,46.55556062442069],[16.507129225171816,46.55326003313639],[16.506767198900853,46.55047774324731],[16.5085678224983,46.55000036133908],[16.510824649759183,46.553161603076965],[16.512259253245105,46.55292364914234],[16.50778483138019,46.54845506033143],[16.5073415248939,46.54709732102309],[16.508357603686665,46.545403577356815],[16.510652466215042,46.54656027217833],[16.508973876352886,46.54763428912149],[16.510141914976227,46.548014403303405],[16.51151501277912,46.54668605050906],[16.51400538573205,46.54914347748966],[16.514868215680842,46.552694872825434],[16.517286261585923,46.5528091861608],[16.51747506409672,46.55206931562975],[16.515736685032607,46.552396454749875],[16.51491208510627,46.55115209213599],[16.514435329577214,46.54880728301805],[16.512188491483247,46.545175217479354],[16.51334630777493,46.544779031039866],[16.51118594974308,46.54399971013501],[16.50901550422755,46.54174277582649],[16.512156383839006,46.5409451344227],[16.51450635419877,46.54206177117532],[16.514193862585508,46.541228624178366],[16.515835954547672,46.54028534066633],[16.51564828080377,46.53843453372353],[16.517472708013095,46.535438848647075],[16.52,46.53530342708227],[16.52,46.53477362205594],[16.519824360306675,46.53477062268746],[16.518904344143078,46.533737185355264],[16.51962189291852,46.533091203182344],[16.51900028487553,46.53149921240217],[16.52,46.53119459663914],[16.52,46.52933553938925],[16.5185230155285,46.53032939141845],[16.517266970891836,46.535093301346905],[16.514830427198895,46.53639666334101],[16.515501970554432,46.53794326878328],[16.514918611056743,46.53985140572072],[16.512441803127512,46.537552603466004],[16.512966759895704,46.53661976953462],[16.512263361959345,46.53549440772748],[16.51426452201214,46.53391561292252],[16.511887503065513,46.53490755415915],[16.510581561454835,46.533321983035165],[16.513362451105483,46.53180974820384],[16.515686215500292,46.534135615957986],[16.51638799513354,46.53267585249634],[16.513657251538884,46.531302019834676],[16.51666116759276,46.529335943089045],[16.51801714596185,46.529880319920025],[16.517206709037993,46.528988902513284],[16.51828882579743,46.52812502197183],[16.51939656872292,46.52864509358382],[16.52,46.52807569564542],[16.52,46.525556015020896],[16.51951398544796,46.524960234734095],[16.518100799072602,46.52579317563581],[16.51896199289538,46.5271358264318],[16.506310798754562,46.534855776148646],[16.50458166092382,46.53451204767549],[16.50251514549415,46.53145643106106],[16.505955501034723,46.53004888953701],[16.5021382170592,46.5309091263311],[16.500640043739015,46.528037109887],[16.509063776024476,46.52576524458633],[16.509842466735588,46.52633932928046],[16.509784188800207,46.525563870116095],[16.51911987066843,46.52300330415971],[16.52,46.523539707572986],[16.52,46.523010694476845],[16.51983608669877,46.52290515132131],[16.52,46.52271132483202],[16.52,46.52],[16.515287713274365,46.52],[16.513614411831107,46.52017378075995],[16.513174784300464,46.52],[16.51104420157178,46.52],[16.513698156052925,46.52061724020199],[16.517793453618264,46.5201816108611],[16.518366841207474,46.52082302811404],[16.511154743270804,46.52430241584783],[16.4973205874129,46.52742377006352],[16.492732221105445,46.522386354819496],[16.497925874066404,46.52],[16.497012121105865,46.52],[16.492735679094928,46.521895908702604],[16.49116216204894,46.52066254403658],[16.492026010313836,46.52],[16.490682800141016,46.52],[16.49082614604139,46.52060999127427],[16.48848770030779,46.52250253502341],[16.483539539536213,46.522131061120014],[16.48,46.52297208075749],[16.48,46.52351909540959],[16.483546978272482,46.522634844363715],[16.48760821479378,46.52324647024621],[16.48,46.53094081948142],[16.48,46.53348627446006],[16.480441680455332,46.532734362973066],[16.489302756538287,46.530238884910744],[16.490863475120968,46.531565716362934],[16.486651953823433,46.53549268034702],[16.485359162143173,46.53499019993551],[16.480881900535852,46.5356292373904],[16.480615709091573,46.53491109389424],[16.483086947319016,46.53383269698204],[16.48,46.53471338110158],[16.48,46.5369690104676],[16.48173741272632,46.53732110878082],[16.48,46.53888856432294],[16.48,46.53950176340787],[16.48174457321038,46.53797316770219],[16.48528290157188,46.5427482114982],[16.48434975140179,46.544215963758184],[16.484984351057538,46.54509989527893],[16.48,46.5481300679196],[16.48,46.5591927273036],[16.480585725339854,46.556913728217054]],[[16.519465312639568,46.5347634507489],[16.51888020449793,46.535169852055205],[16.518501069850075,46.53413955262333],[16.519465312639568,46.5347634507489]],[[16.510851055122647,46.538058712968244],[16.50942896164541,46.53824681005163],[16.51037719361762,46.539534362407494],[16.51344992367971,46.53984600340361],[16.514053843041676,46.54070473968121],[16.509105583765706,46.54046457070348],[16.508327766845895,46.53769137631971],[16.51151278691963,46.53649126927317],[16.510851055122647,46.538058712968244]],[[16.51021321914895,46.5338190892309],[16.511458856682978,46.53563193703183],[16.5084434962317,46.53689509796822],[16.506884212470172,46.53510421114761],[16.51021321914895,46.5338190892309]],[[16.509660493872964,46.543013940529086],[16.5104836590001,46.54334712519425],[16.51071595336175,46.545212450409124],[16.508856328342226,46.54507022684926],[16.509660493872964,46.543013940529086]],[[16.50910905262469,46.54349845249561],[16.50795218477362,46.54420134731986],[16.50629394216362,46.54244178599025],[16.507068427980116,46.54194693877343],[16.50910905262469,46.54349845249561]],[[16.50662846568797,46.54538198912796],[16.506903616137105,46.54489550306732],[16.508111140222066,46.544640970473964],[16.507768270657714,46.545467434726326],[16.50662846568797,46.54538198912796]],[[16.506748370977643,46.54342897994772],[16.505261014523334,46.543492144991454],[16.504053430445214,46.54267249184835],[16.504774283142773,46.54161774309232],[16.506748370977643,46.54342897994772]],[[16.506084861887658,46.539214008549145],[16.506630193517566,46.54104278759048],[16.50495260477887,46.54078714442108],[16.503965540597886,46.5394077396617],[16.506084861887658,46.539214008549145]],[[16.50550718194883,46.537035715752005],[16.50355152009865,46.53769598983062],[16.502935022565705,46.53738402227681],[16.504015024479475,46.536476104463766],[16.50550718194883,46.537035715752005]],[[16.49754788705708,46.534496744945464],[16.50206214316428,46.53153974169419],[16.504281751921678,46.534944263428024],[16.499753607099986,46.53876229686151],[16.49623857170009,46.5365314265896],[16.49754788705708,46.534496744945464]],[[16.49680898399385,46.54530460927819],[16.497442182503004,46.54818097902549],[16.49884337051452,46.54689593812713],[16.497265374773107,46.54369110823194],[16.497616701217,46.542224027777806],[16.500536333685158,46.54016930624176],[16.501888042047568,46.5406280367401],[16.501916331269165,46.53958994817796],[16.503492828510964,46.54023508432254],[16.503413650191394,46.54332888789134],[16.49974689300983,46.548334213739295],[16.501324396639305,46.549465134201476],[16.50138180204788,46.550856210544524],[16.498883890668395,46.54966045827392],[16.498603476068116,46.54862526748054],[16.496833476186342,46.54960278989616],[16.495777932936665,46.54678085963488],[16.49308536288993,46.54477493567841],[16.494054051785266,46.543890297779896],[16.49680898399385,46.54530460927819]],[[16.49916756615291,46.52981927750685],[16.500268497051785,46.53065597530792],[16.49972703039925,46.53131236730416],[16.50105259637068,46.5312081302579],[16.49727019304539,46.534354699487835],[16.495788309777392,46.536583089165546],[16.499397277310088,46.53932814556578],[16.496998686171292,46.542152133797316],[16.496177354300183,46.5421932909497],[16.493596396404836,46.537207354526934],[16.491944851453326,46.53582069804919],[16.492317010701875,46.53505485249989],[16.48963252395633,46.53333443532913],[16.496320192138963,46.52946402944385],[16.49916756615291,46.52981927750685]],[[16.499989548981038,46.5276583390334],[16.5008634156533,46.53001374823367],[16.497860290462995,46.52808273902704],[16.499989548981038,46.5276583390334]],[[16.500592728178358,46.551107520491406],[16.49999030557495,46.551427631017624],[16.499930779931166,46.550617501475855],[16.500592728178358,46.551107520491406]],[[16.489199860189128,46.54942771994957],[16.494500828902122,46.55051646977234],[16.49767188977075,46.55008827746158],[16.499202730160434,46.551301679634896],[16.492745797696593,46.552463506905795],[16.490324326367364,46.55129777695771],[16.49120296721307,46.55050991997744],[16.48865177110021,46.55074727427226],[16.487615532961012,46.54898666129946],[16.488209381239468,46.5481689520052],[16.489199860189128,46.54942771994957]],[[16.49151576345651,46.53137258913692],[16.49006280687167,46.53025530822411],[16.49684208491533,46.52884861635018],[16.49151576345651,46.53137258913692]],[[16.49655151538512,46.52738439101603],[16.481947352150005,46.53179354227376],[16.480812967404518,46.53124859659302],[16.491177059429983,46.52148878867476],[16.49655151538512,46.52738439101603]],[[16.48677385937152,46.53593024055008],[16.48954702543361,46.53363024092379],[16.491807247453117,46.535041680528266],[16.491364996762172,46.53575017433314],[16.493328458194366,46.537328242990455],[16.495962524090867,46.54259008696308],[16.490606126027245,46.544423918800874],[16.48957423652654,46.542354907098975],[16.490962986193004,46.54156015572701],[16.489728067332347,46.54151352241098],[16.48909715747277,46.54191235832709],[16.489887559911487,46.54439194801021],[16.487447967974767,46.54439391498895],[16.486037524008847,46.540852810057714],[16.48404420979237,46.540489073860726],[16.4846583883561,46.53829910309811],[16.482401945056225,46.53676992207704],[16.48515278509925,46.53529437323356],[16.48677385937152,46.53593024055008]],[[16.495824560223003,46.549280561450516],[16.49465475980608,46.54966620213089],[16.49430249552254,46.54816659655339],[16.495227812168938,46.547994300441744],[16.495824560223003,46.549280561450516]],[[16.49593196019176,46.555137375650254],[16.494952913734206,46.55525301620343],[16.494533748017336,46.554500164420595],[16.495399267811983,46.55426713061957],[16.49593196019176,46.555137375650254]],[[16.49470159101536,46.54625491776917],[16.493484374966155,46.54667394227452],[16.493906538308305,46.54577932392472],[16.49470159101536,46.54625491776917]],[[16.494114954003148,46.55517680183221],[16.49286110680965,46.554316729691145],[16.494251677013388,46.55462629630203],[16.494114954003148,46.55517680183221]],[[16.49047472714479,46.54645073533959],[16.489735531995986,46.547759107061175],[16.49175361282398,46.547723280469064],[16.493612244355138,46.54940553359598],[16.489799018276972,46.548996220839776],[16.488843636585585,46.5468021932404],[16.489852961366402,46.54531788999375],[16.49047472714479,46.54645073533959]],[[16.49130379369606,46.55937806016821],[16.490276789837722,46.559922504834354],[16.4891928576326,46.559492607023394],[16.489554307697954,46.558628749464425],[16.49130379369606,46.55937806016821]],[[16.48881606155624,46.54570463083428],[16.487668265433484,46.54663422446661],[16.486482502420294,46.54536325655789],[16.487179128947204,46.545070965470465],[16.48881606155624,46.54570463083428]],[[16.488882405628893,46.55249897129304],[16.487105510840433,46.55327568505024],[16.48676783645894,46.552244763581],[16.48805053724272,46.55196290270096],[16.488882405628893,46.55249897129304]],[[16.487111487468,46.54944525954188],[16.484056834492794,46.5508086652351],[16.482332480337394,46.54923631498397],[16.48492627376013,46.54834660484918],[16.487111487468,46.54944525954188]],[[16.48457475010396,46.54730148670854],[16.483746089042395,46.546427788838095],[16.485205246439214,46.545448019351774],[16.48632655199882,46.54681712087542],[16.48457475010396,46.54730148670854]],[[16.485643607164143,46.557449349798745],[16.48616098078395,46.55718044827123],[16.48605916989969,46.5578218268584],[16.485643607164143,46.557449349798745]],[[16.486022545204072,46.55419634177632],[16.485021094244125,46.55419831487145],[16.48446312250831,46.552905987056256],[16.48521438071665,46.55229856774268],[16.486022545204072,46.55419634177632]],[[16.48214526978729,46.54766928237691],[16.483280061798236,46.54675930409145],[16.48436876750477,46.54752687705471],[16.48356248578054,46.54846108363243],[16.48214526978729,46.54766928237691]],[[16.482488753561643,46.548402110536564],[16.482128738387587,46.548910883924385],[16.48077864410716,46.54942408047935],[16.4802553418171,46.54858350886222],[16.482488753561643,46.548402110536564]],[[16.48231711324363,46.549750995159],[16.482175430314015,46.55076508584681],[16.481165451232442,46.55069570510792],[16.481607419200923,46.54969593935282],[16.48231711324363,46.549750995159]]]}},{"type":"Feature","properties":{"_zoneType":"SI_BUILT","name":"Pozidano zemljišče","authority":"MKGP","dataSource":"raba-3000"},"geometry":{"type":"Polygon","coordinates":[[[16.50794602291508,46.52149802260246],[16.50712274834673,46.52243092856463],[16.508367895410018,46.52167604980919],[16.507559522312306,46.52],[16.50675308236777,46.52],[16.50794602291508,46.52149802260246]]]}},{"type":"Feature","properties":{"_zoneType":"SI_BUILT","name":"Pozidano zemljišče","authority":"MKGP","dataSource":"raba-3000"},"geometry":{"type":"Polygon","coordinates":[[[16.48088312942282,46.54281110901439],[16.48,46.54323662964903],[16.48,46.543304127667405],[16.48088312942282,46.54281110901439]]]}},{"type":"Feature","properties":{"_zoneType":"SI_BUILT","name":"Pozidano zemljišče","authority":"MKGP","dataSource":"raba-3000"},"geometry":{"type":"Polygon","coordinates":[[[16.48082137345515,46.56628466174274],[16.481378397240324,46.56699788413229],[16.483066813013146,46.56623613633173],[16.48397137592257,46.56436065156767],[16.483432766973493,46.56360038389092],[16.482842010191476,46.565680726389324],[16.48181106037438,46.56605088283217],[16.48,46.565750118811856],[16.48,46.566327183540686],[16.48082137345515,46.56628466174274]]]}},{"type":"Feature","properties":{"_zoneType":"SI_BUILT","name":"Pozidano zemljišče","authority":"MKGP","dataSource":"raba-3000"},"geometry":{"type":"Polygon","coordinates":[[[16.49047793397074,46.563946991123615],[16.491515764106804,46.563582692448065],[16.49018527922002,46.560906400563326],[16.491014743467723,46.56],[16.488438106373316,46.56],[16.49047793397074,46.563946991123615]]]}},{"type":"Feature","properties":{"_zoneType":"SI_BUILT","name":"Pozidano zemljišče","authority":"MKGP","dataSource":"raba-3000"},"geometry":{"type":"Polygon","coordinates":[[[16.52523676416211,46.519263831956884],[16.522956817323568,46.51998129642729],[16.5219719086461,46.51930245393813],[16.524102160801924,46.51668426225995],[16.528929295228792,46.514708258875054],[16.52427276740463,46.51604704542477],[16.52,46.51204732922947],[16.52,46.51255809046959],[16.523946282674135,46.51631521069325],[16.52,46.51844856656892],[16.52,46.51903428111392],[16.52140171504295,46.5180877059052],[16.522063408995056,46.51821345869309],[16.521533655813055,46.519303985166275],[16.52,46.51962203011387],[16.52,46.52],[16.521568513509063,46.52],[16.521434932444112,46.51961496447648],[16.522122901819472,46.52],[16.525218370533747,46.52],[16.52523676416211,46.519263831956884]]]}},{"type":"Feature","properties":{"_zoneType":"SI_BUILT","name":"Pozidano zemljišče","authority":"MKGP","dataSource":"raba-3000"},"geometry":{"type":"Polygon","coordinates":[[[16.5320306622544,46.50017700242902],[16.531191054523056,46.49905209344691],[16.531509380933255,46.50037811226812],[16.52,46.50705692125934],[16.52,46.507350489621366],[16.5320306622544,46.50017700242902]]]}},{"type":"Feature","properties":{"_zoneType":"SI_BUILT","name":"Pozidano zemljišče","authority":"MKGP","dataSource":"raba-3000"},"geometry":{"type":"Polygon","coordinates":[[[16.526673404613685,46.534945841611325],[16.52765873425704,46.534116621391696],[16.525191734544922,46.53450179393061],[16.52601376252601,46.532345539045274],[16.527715429260827,46.531925174703375],[16.528851601088775,46.532809691648396],[16.52717014480673,46.53070998192638],[16.527732074574132,46.530113561785456],[16.5256960184241,46.53039756852131],[16.524935502619456,46.52934962423574],[16.530205437251787,46.52738208107048],[16.529247881556675,46.52490394964713],[16.528116041080974,46.52485611784936],[16.527445281081548,46.52629070255747],[16.524419270507565,46.52812154388399],[16.526039528923008,46.52353415388482],[16.527725294042188,46.52278695803401],[16.52419140634286,46.52320835096842],[16.52310738874942,46.521126092122906],[16.52519925641457,46.52076500424122],[16.525218370533747,46.52],[16.522122901819472,46.52],[16.522234079991183,46.5200622230394],[16.521715857575654,46.520424706150074],[16.521568513509063,46.52],[16.52,46.52],[16.52,46.52271132483202],[16.520594155194345,46.52200873990111],[16.522160873325973,46.52236862524155],[16.520796555506863,46.52352359355899],[16.52,46.523010694476845],[16.52,46.523539707572986],[16.52053189337511,46.52386387518299],[16.522950906264995,46.522732609379766],[16.523771379740896,46.52337865617843],[16.520252274937814,46.52586526591508],[16.52,46.525556015020896],[16.52,46.52807569564542],[16.521065108712765,46.527070658736896],[16.522848299517662,46.5271852393113],[16.52262796913942,46.52855984955725],[16.520511209437743,46.52805374013445],[16.520463343631352,46.52902375885457],[16.52,46.52933553938925],[16.52,46.53119459663914],[16.521885232357853,46.53062016150346],[16.5223842048368,46.53116101927977],[16.52109901222974,46.53137084390096],[16.521697608887667,46.53216088638087],[16.523619412802894,46.53101538518247],[16.52293420569375,46.52990412286254],[16.524184502735896,46.529266333331435],[16.52551469174673,46.53111221965888],[16.52407017862922,46.532141907110805],[16.525051671843453,46.53237048808492],[16.525075156187643,46.533679193887494],[16.522869274009732,46.534822620148844],[16.52,46.53477362205594],[16.52,46.53530342708227],[16.526673404613685,46.534945841611325]],[[16.529587441371905,46.526987541691014],[16.528539446896573,46.526895521992124],[16.52825448452286,46.52580092928478],[16.529298310969875,46.52580919948195],[16.529587441371905,46.526987541691014]],[[16.528193578027338,46.52695562377769],[16.527907855074414,46.52727491129851],[16.527071491716626,46.52721460846506],[16.52739529153602,46.52640411494022],[16.528193578027338,46.52695562377769]],[[16.5272412144926,46.531816138814975],[16.52623123012774,46.531838726557645],[16.526823884708836,46.53072407720643],[16.5272412144926,46.531816138814975]],[[16.526978125566675,46.527596551021844],[16.526310958218282,46.528215728811354],[16.52634674534771,46.527248629596606],[16.526978125566675,46.527596551021844]],[[16.524257376822522,46.528723799451214],[16.523951088455345,46.52905315197516],[16.523411566378734,46.52839140773263],[16.524257376822522,46.528723799451214]],[[16.521275004421263,46.5296440083487],[16.521262971017812,46.53000033052697],[16.52031699041247,46.529638341014056],[16.521275004421263,46.5296440083487]]]}},{"type":"Feature","properties":{"_zoneType":"SI_BUILT","name":"Pozidano zemljišče","authority":"MKGP","dataSource":"raba-3000"},"geometry":{"type":"Polygon","coordinates":[[[16.46276437660928,46.570279132537756],[16.464194222858133,46.570260836942595],[16.465106676513205,46.569396738470836],[16.46276437660928,46.570279132537756]]]}},{"type":"Feature","properties":{"_zoneType":"SI_BUILT","name":"Pozidano zemljišče","authority":"MKGP","dataSource":"raba-3000"},"geometry":{"type":"Polygon","coordinates":[[[16.510495026850084,46.54902801163095],[16.51013574155847,46.54884555233296],[16.510165845927865,46.54920366080048],[16.510495026850084,46.54902801163095]]]}},{"type":"Feature","properties":{"_zoneType":"SI_BUILT","name":"Pozidano zemljišče","authority":"MKGP","dataSource":"raba-3000"},"geometry":{"type":"Polygon","coordinates":[[[16.48977298554001,46.55739931704956],[16.48959039435588,46.557531351123444],[16.489966851591394,46.557523722214384],[16.48977298554001,46.55739931704956]]]}},{"type":"Feature","properties":{"_zoneType":"SI_BUILT","name":"Pozidano zemljišče","authority":"MKGP","dataSource":"raba-3000"},"geometry":{"type":"Polygon","coordinates":[[[16.52939132728898,46.52855324543115],[16.529386702395826,46.52838979378366],[16.529091472970812,46.52856882760355],[16.52939132728898,46.52855324543115]]]}},{"type":"Feature","properties":{"_zoneType":"SI_BUILT","name":"Pozidano zemljišče","authority":"MKGP","dataSource":"raba-3000"},"geometry":{"type":"Polygon","coordinates":[[[16.52614770860921,46.48161529677277],[16.526088539835474,46.48141246700851],[16.525773354997213,46.481661428056654],[16.52614770860921,46.48161529677277]]]}},{"type":"Feature","properties":{"_zoneType":"SI_BUILT","name":"Pozidano zemljišče","authority":"MKGP","dataSource":"raba-3000"},"geometry":{"type":"Polygon","coordinates":[[[16.522278858694904,46.499406779134574],[16.522127501700883,46.49931064797463],[16.520216849544628,46.49964794099452],[16.522278858694904,46.499406779134574]]]}},{"type":"Feature","properties":{"_zoneType":"SI_BUILT","name":"Pozidano zemljišče","authority":"MKGP","dataSource":"raba-3000"},"geometry":{"type":"Polygon","coordinates":[[[16.521216616556174,46.49253450255249],[16.52156313891308,46.493275859677865],[16.521498964610863,46.49253904629519],[16.521216616556174,46.49253450255249]]]}},{"type":"Feature","properties":{"_zoneType":"SI_BUILT","name":"Pozidano zemljišče","authority":"MKGP","dataSource":"raba-3000"},"geometry":{"type":"Polygon","coordinates":[[[16.518396175855823,46.4798350527769],[16.52,46.47872550673993],[16.52,46.47794737839352],[16.519047375111935,46.47795038437818],[16.518671743981397,46.47910019084991],[16.51539937457032,46.47996653318609],[16.514362933159408,46.478220841268495],[16.513889299120784,46.480000000000004],[16.517830593872034,46.480000000000004],[16.518396175855823,46.4798350527769]]]}},{"type":"Feature","properties":{"_zoneType":"SI_BUILT","name":"Pozidano zemljišče","authority":"MKGP","dataSource":"raba-3000"},"geometry":{"type":"Polygon","coordinates":[[[16.517830593872034,46.480000000000004],[16.513889299120784,46.480000000000004],[16.513557545674498,46.48124619852573],[16.517830593872034,46.480000000000004]]]}},{"type":"Feature","properties":{"_zoneType":"SI_BUILT","name":"Pozidano zemljišče","authority":"MKGP","dataSource":"raba-3000"},"geometry":{"type":"Polygon","coordinates":[[[16.521129920997737,46.47794381295531],[16.52,46.47794737839352],[16.52,46.47872550673993],[16.521129920997737,46.47794381295531]]]}},{"type":"Feature","properties":{"_zoneType":"SI_BUILT","name":"Pozidano zemljišče","authority":"MKGP","dataSource":"raba-3000"},"geometry":{"type":"Polygon","coordinates":[[[16.522593548197015,46.533634783712394],[16.521925578923334,46.53352987755207],[16.52249228900876,46.53375200362752],[16.522593548197015,46.533634783712394]]]}},{"type":"Feature","properties":{"_zoneType":"SI_BUILT","name":"Pozidano zemljišče","authority":"MKGP","dataSource":"raba-3000"},"geometry":{"type":"Polygon","coordinates":[[[16.5173076949386,46.52478270644909],[16.517386283365596,46.525007556296586],[16.517663591560282,46.524733013847175],[16.5173076949386,46.52478270644909]]]}},{"type":"Feature","properties":{"_zoneType":"SI_BUILT","name":"Pozidano zemljišče","authority":"MKGP","dataSource":"raba-3000"},"geometry":{"type":"Polygon","coordinates":[[[16.51575103180987,46.54410969519896],[16.515745230927863,46.543231736510926],[16.51475276909451,46.543865045305694],[16.51575103180987,46.54410969519896]]]}},{"type":"Feature","properties":{"_zoneType":"SI_BUILT","name":"Pozidano zemljišče","authority":"MKGP","dataSource":"raba-3000"},"geometry":{"type":"Polygon","coordinates":[[[16.513432910438777,46.5254775052792],[16.513472273233585,46.52564770217645],[16.513726475837537,46.525437145917785],[16.513432910438777,46.5254775052792]]]}},{"type":"Feature","properties":{"_zoneType":"SI_BUILT","name":"Pozidano zemljišče","authority":"MKGP","dataSource":"raba-3000"},"geometry":{"type":"Polygon","coordinates":[[[16.510825231023492,46.49978127318988],[16.51109591012797,46.50016688498012],[16.512458573003627,46.499294983992584],[16.510825231023492,46.49978127318988]]]}},{"type":"Feature","properties":{"_zoneType":"SI_BUILT","name":"Pozidano zemljišče","authority":"MKGP","dataSource":"raba-3000"},"geometry":{"type":"Polygon","coordinates":[[[16.50229783409885,46.55246599803653],[16.502556838264713,46.55255953586842],[16.502413106462953,46.55231279339354],[16.50229783409885,46.55246599803653]]]}},{"type":"Feature","properties":{"_zoneType":"SI_BUILT","name":"Pozidano zemljišče","authority":"MKGP","dataSource":"raba-3000"},"geometry":{"type":"Polygon","coordinates":[[[16.502203552878065,46.54344007737238],[16.501834137992685,46.54332267985281],[16.50204852511849,46.543614364949924],[16.502203552878065,46.54344007737238]]]}},{"type":"Feature","properties":{"_zoneType":"SI_BUILT","name":"Pozidano zemljišče","authority":"MKGP","dataSource":"raba-3000"},"geometry":{"type":"Polygon","coordinates":[[[16.49435650002638,46.49758663876411],[16.49562803643261,46.496768474784936],[16.49293972695206,46.497503869133205],[16.49435650002638,46.49758663876411]]]}},{"type":"Feature","properties":{"_zoneType":"SI_BUILT","name":"Pozidano zemljišče","authority":"MKGP","dataSource":"raba-3000"},"geometry":{"type":"Polygon","coordinates":[[[16.496203093448536,46.5331508730658],[16.496106085614816,46.532991283017886],[16.495898324798944,46.53329274406932],[16.496203093448536,46.5331508730658]]]}},{"type":"Feature","properties":{"_zoneType":"SI_BUILT","name":"Pozidano zemljišče","authority":"MKGP","dataSource":"raba-3000"},"geometry":{"type":"Polygon","coordinates":[[[16.492670236447825,46.55151236772828],[16.49330482687621,46.551511969789686],[16.492842003196074,46.55122353095941],[16.492670236447825,46.55151236772828]]]}},{"type":"Feature","properties":{"_zoneType":"SI_BUILT","name":"Pozidano zemljišče","authority":"MKGP","dataSource":"raba-3000"},"geometry":{"type":"Polygon","coordinates":[[[16.48508600167397,46.54956499947168],[16.48545288977281,46.549638329518764],[16.485177148690333,46.54941823219098],[16.48508600167397,46.54956499947168]]]}},{"type":"Feature","properties":{"_zoneType":"SI_BUILT","name":"Pozidano zemljišče","authority":"MKGP","dataSource":"raba-3000"},"geometry":{"type":"Polygon","coordinates":[[[16.48580141807266,46.502851347039766],[16.48562631700165,46.502697139378434],[16.485505885687814,46.502992740911814],[16.48580141807266,46.502851347039766]]]}},{"type":"Feature","properties":{"_zoneType":"SI_BUILT","name":"Pozidano zemljišče","authority":"MKGP","dataSource":"raba-3000"},"geometry":{"type":"Polygon","coordinates":[[[16.47570125560278,46.54171367246762],[16.47567050881416,46.54157091514976],[16.47510554052303,46.541644351487335],[16.47570125560278,46.54171367246762]]]}},{"type":"Feature","properties":{"_zoneType":"SI_BUILT","name":"Pozidano zemljišče","authority":"MKGP","dataSource":"raba-3000"},"geometry":{"type":"Polygon","coordinates":[[[16.473771780446736,46.5673033019844],[16.473511682894678,46.5672300108778],[16.473671056828664,46.567454216323654],[16.473771780446736,46.5673033019844]]]}},{"type":"Feature","properties":{"_zoneType":"SI_BUILT","name":"Pozidano zemljišče","authority":"MKGP","dataSource":"raba-3000"},"geometry":{"type":"Polygon","coordinates":[[[16.4723971359971,46.536628246102616],[16.47291372003456,46.536548315672945],[16.472285953103345,46.53630454129329],[16.4723971359971,46.536628246102616]]]}},{"type":"Feature","properties":{"_zoneType":"SI_BUILT","name":"Pozidano zemljišče","authority":"MKGP","dataSource":"raba-3000"},"geometry":{"type":"Polygon","coordinates":[[[16.462220794363,46.569388555674365],[16.462198373449414,46.56959781713996],[16.462680896782043,46.56940671336353],[16.462220794363,46.569388555674365]]]}},{"type":"Feature","properties":{"_zoneType":"SI_BUILT","name":"Pozidano zemljišče","authority":"MKGP","dataSource":"raba-3000"},"geometry":{"type":"Polygon","coordinates":[[[16.4384145837652,46.549746863449485],[16.439314760123683,46.55184449146094],[16.438677355519378,46.54978204774829],[16.4384145837652,46.549746863449485]]]}},{"type":"Feature","properties":{"_zoneType":"SI_BUILT","name":"Pozidano zemljišče","authority":"MKGP","dataSource":"raba-3000"},"geometry":{"type":"Polygon","coordinates":[[[16.433533616189195,46.56261464394824],[16.433320989436137,46.56249663812467],[16.43334851557314,46.56275634926691],[16.433533616189195,46.56261464394824]]]}},{"type":"Feature","properties":{"_zoneType":"SI_BUILT","name":"Pozidano zemljišče","authority":"MKGP","dataSource":"raba-3000"},"geometry":{"type":"Polygon","coordinates":[[[16.423108815088135,46.53988482184623],[16.42310430754186,46.53971233176463],[16.422780017660415,46.539888912647214],[16.423108815088135,46.53988482184623]]]}},{"type":"Feature","properties":{"_zoneType":"SI_BUILT","name":"Pozidano zemljišče","authority":"MKGP","dataSource":"raba-3000"},"geometry":{"type":"Polygon","coordinates":[[[16.415179598112303,46.540810892696484],[16.41517531399385,46.54064743297771],[16.414879636723946,46.54082617646287],[16.415179598112303,46.540810892696484]]]}},{"type":"Feature","properties":{"_zoneType":"SI_BUILT","name":"Pozidano zemljišče","authority":"MKGP","dataSource":"raba-3000"},"geometry":{"type":"Polygon","coordinates":[[[16.41117262372328,46.5411506553984],[16.411376406545678,46.54131315892797],[16.411274816511003,46.54104198742828],[16.41117262372328,46.5411506553984]]]}},{"type":"Feature","properties":{"_zoneType":"SI_BUILT","name":"Pozidano zemljišče","authority":"MKGP","dataSource":"raba-3000"},"geometry":{"type":"Polygon","coordinates":[[[16.40740546581096,46.56755828116258],[16.404342809495745,46.56636978873455],[16.405849997370407,46.56818313707246],[16.40740546581096,46.56755828116258]]]}},{"type":"Feature","properties":{"_zoneType":"SI_BUILT","name":"Pozidano zemljišče","authority":"MKGP","dataSource":"raba-3000"},"geometry":{"type":"Polygon","coordinates":[[[16.404655830170253,46.53105475586661],[16.404309085664423,46.53135266427103],[16.405003012362567,46.53191143723361],[16.404655830170253,46.53105475586661]]]}},{"type":"Feature","properties":{"_zoneType":"SI_BUILT","name":"Pozidano zemljišče","authority":"MKGP","dataSource":"raba-3000"},"geometry":{"type":"Polygon","coordinates":[[[16.402147625663,46.532776346546925],[16.401925302764756,46.53242011805839],[16.401942562121054,46.53283590735757],[16.402147625663,46.532776346546925]]]}},{"type":"Feature","properties":{"_zoneType":"SI_BUILT","name":"Pozidano zemljišče","authority":"MKGP","dataSource":"raba-3000"},"geometry":{"type":"Polygon","coordinates":[[[16.475749790871276,46.57312999651438],[16.476290792065125,46.572187784528815],[16.474981060477393,46.5701313363792],[16.474334683747305,46.572021640718305],[16.475749790871276,46.57312999651438]]]}},{"type":"Feature","properties":{"_zoneType":"SI_BUILT","name":"Pozidano zemljišče","authority":"MKGP","dataSource":"raba-3000"},"geometry":{"type":"Polygon","coordinates":[[[16.435244046686257,46.59494990268055],[16.433326932942155,46.594974365041146],[16.43438899937214,46.59364506212018],[16.44,46.59341960222934],[16.44,46.59261374128705],[16.437311455184147,46.59225559243532],[16.44,46.59049470894518],[16.44,46.589699593652696],[16.438351501088206,46.59082015739629],[16.43477063449971,46.58711958547302],[16.44,46.58671141775368],[16.44,46.58516157573244],[16.438968629930457,46.58607020068674],[16.435699783563752,46.58588103312071],[16.435029658245416,46.58676502717006],[16.432447633253453,46.585507726718134],[16.439666439379106,46.577043105636484],[16.44,46.577093351361],[16.44,46.574507691949094],[16.439952057456047,46.57457014291618],[16.436682064766106,46.57411663180265],[16.43980370315719,46.57256133476473],[16.435464591430545,46.574110414470155],[16.431951200762196,46.573696173353916],[16.438656021937227,46.57058491816479],[16.431549091725085,46.57292416260122],[16.42854022639609,46.570711710767114],[16.430800505740997,46.573182641693855],[16.408577242418286,46.574135088442056],[16.403886947526853,46.575006869731915],[16.401012823227635,46.576321273013555],[16.400000000000002,46.57574428124936],[16.400000000000002,46.57618005831484],[16.400807075386673,46.57670410740792],[16.400000000000002,46.57739902896148],[16.400000000000002,46.57815915333165],[16.404997859564986,46.57499183445727],[16.419353751933873,46.57399059950333],[16.422667383822503,46.576497558490104],[16.42134798364035,46.57440323388062],[16.4303965234781,46.57397631319823],[16.4395658807023,46.57503487892711],[16.430911532667412,46.58445923078626],[16.42463906606938,46.58419171263377],[16.422801536731622,46.58266500833026],[16.425753671201832,46.58575027127767],[16.42550860096723,46.584448760727376],[16.429698304606937,46.585069132629975],[16.424575807682537,46.58745342706305],[16.42350683520549,46.589907162558454],[16.419951262998595,46.592424192566234],[16.418368938639627,46.5923715254428],[16.417689569445383,46.593649545719224],[16.4084091720329,46.597539852728964],[16.400000000000002,46.59275375990725],[16.400000000000002,46.59320238058398],[16.405949501238137,46.596920226957614],[16.405377470789357,46.59826662488799],[16.404239814566292,46.597811501359864],[16.404230188739866,46.59870083663418],[16.401103755801383,46.59923140364356],[16.400000000000002,46.59918163405665],[16.400000000000002,46.6],[16.403001413506885,46.6],[16.409624920861525,46.59924468346637],[16.409656794584993,46.6],[16.41070514082899,46.6],[16.41034817010654,46.599607165660636],[16.412489644286786,46.5985412233461],[16.411105387872286,46.598448905373324],[16.41135099720212,46.59728118033693],[16.420740202098425,46.593939977379726],[16.42080833400203,46.59290436052619],[16.42794484106209,46.58836806843587],[16.42965250247833,46.589444165984666],[16.43018446481486,46.59196647761404],[16.42516321909177,46.5950777484665],[16.423009112284927,46.59722736835725],[16.421342180081105,46.59751582737888],[16.421842775128482,46.5981664391815],[16.419380652048815,46.6],[16.419725561378492,46.6],[16.42544257497878,46.5952066780231],[16.430405044412346,46.59236068077661],[16.43209810551842,46.59497543668786],[16.42882710446603,46.59786498057079],[16.42312944200819,46.6],[16.424180899189604,46.6],[16.42824315511233,46.59883346688702],[16.427667456272,46.6],[16.429093551584675,46.6],[16.429041398159146,46.59985782897457],[16.43024435231432,46.5991522988432],[16.428861804469513,46.598647800350896],[16.432711025135966,46.598010702540655],[16.431777242408856,46.6],[16.43227618776235,46.6],[16.434443302439078,46.597222061239634],[16.436382127699158,46.6],[16.436786198585203,46.6],[16.434041851211212,46.59602781022074],[16.435244046686257,46.59494990268055]],[[16.436845848605117,46.5902136337637],[16.43474404897391,46.59096953052446],[16.432772386449884,46.589783958005604],[16.431526409098772,46.5861080109314],[16.43384843875041,46.58700157938789],[16.436845848605117,46.5902136337637]],[[16.43363898723152,46.59126655146915],[16.43432162493694,46.59258806081963],[16.432867865488284,46.59432891386742],[16.430642570955825,46.5920995185762],[16.43000091073286,46.589451236402944],[16.42876156879563,46.588309007130775],[16.430564128293074,46.588096243227234],[16.43363898723152,46.59126655146915]],[[16.43037543480988,46.597395079582284],[16.430383874239464,46.597069422297594],[16.432654605345913,46.595213536561694],[16.43366545825259,46.59638587621066],[16.43037543480988,46.597395079582284]],[[16.410661619563033,46.597934907109845],[16.410150214825865,46.59880164985977],[16.409333098987034,46.59861655515747],[16.409842424272462,46.59787010990455],[16.410661619563033,46.597934907109845]],[[16.406384753830626,46.59726420510633],[16.407156390461708,46.59773831116563],[16.405934314934797,46.59790578626577],[16.406384753830626,46.59726420510633]]]}},{"type":"Feature","properties":{"_zoneType":"SI_BUILT","name":"Pozidano zemljišče","authority":"MKGP","dataSource":"raba-3000"},"geometry":{"type":"Polygon","coordinates":[[[16.44262884631415,46.59331397055286],[16.446880800206156,46.5917222893021],[16.4503640956108,46.59653961292892],[16.453284793010642,46.59621641228524],[16.450990527470513,46.596191248570925],[16.44750659207339,46.59139365848186],[16.449762242511294,46.590008396411164],[16.452882173153696,46.58981054394311],[16.454827841106212,46.59043049431507],[16.454394494019407,46.59141583329198],[16.455813792958942,46.59101687804904],[16.458232408361276,46.592796247568145],[16.456105769301466,46.594072506509946],[16.459028588277512,46.593537167789215],[16.460086193971577,46.59682349688979],[16.461653293120428,46.59699375322889],[16.461160036214817,46.59395298897781],[16.45924848512761,46.59274841223232],[16.46371972170059,46.591957974591566],[16.4619606494642,46.59168945955216],[16.461520273063492,46.58969863758599],[16.466347579262834,46.58756624983044],[16.467179913989597,46.58545281009982],[16.466076094394435,46.58742817449032],[16.460800751694173,46.589868736384545],[16.45818317119988,46.58916810996284],[16.455046978622914,46.58976807131457],[16.453329120736683,46.588024867022696],[16.462318898921502,46.585108254670516],[16.464557076045196,46.58341732738612],[16.46320508400053,46.582862665187264],[16.458409812096704,46.586234266840805],[16.45598906192028,46.58577641288906],[16.456227807141815,46.57885461562518],[16.458116159886217,46.57700309587951],[16.45881500691122,46.57809242070195],[16.462678925168934,46.57848381784004],[16.463071406224742,46.57643852419419],[16.464486280613954,46.57594180759371],[16.463776293785056,46.57533830439114],[16.465217739835683,46.57401742583343],[16.466802329713058,46.57448653309014],[16.465527425993436,46.57498099058151],[16.4664713147993,46.575317000064345],[16.467418795991325,46.5782748395402],[16.46832496630147,46.577190140844976],[16.467980086970517,46.57408031595372],[16.466400261774563,46.57175268820725],[16.467567708513624,46.57021760064179],[16.46635844840542,46.57023311057824],[16.46458995163402,46.572879313369256],[16.463386663475983,46.57146124985873],[16.464194222858133,46.570260836942595],[16.46180183581569,46.57042013134404],[16.46090698445357,46.571424468255735],[16.459747958211405,46.570317670455225],[16.454507479817142,46.57044095333302],[16.453861527706724,46.57134228027215],[16.455453327260358,46.57272848991228],[16.45078646821644,46.57340066860133],[16.45067088415655,46.57179126785942],[16.453135278659204,46.570401875902306],[16.44527610451087,46.57050145669032],[16.444358610262537,46.57749581035134],[16.440106541955913,46.5765599281981],[16.444125812497667,46.57051598630351],[16.44305397910623,46.57052951447027],[16.44,46.574507691949094],[16.44,46.577093351361],[16.443273756369702,46.577586491888916],[16.442648132719388,46.5789595400252],[16.44489933311899,46.58199849256041],[16.443616281020795,46.58401726364486],[16.441678630660302,46.58368272177687],[16.44,46.58516157573244],[16.44,46.58671141775368],[16.44140273541515,46.586601930031854],[16.442974695151396,46.58767755074381],[16.44,46.589699593652696],[16.44,46.59049470894518],[16.443349398598198,46.58830099409293],[16.4461252034929,46.59090525984641],[16.441679521797386,46.59283747525632],[16.44,46.59261374128705],[16.44,46.59341960222934],[16.44262884631415,46.59331397055286]],[[16.466901328376466,46.573420285774695],[16.466057633147702,46.57352672214604],[16.466707401265992,46.572914484801856],[16.466901328376466,46.573420285774695]],[[16.45985578036686,46.572188050323],[16.462940611681436,46.571099301132506],[16.46404253852979,46.57322818020771],[16.462300651829814,46.575561288103934],[16.459614144233715,46.57541769524592],[16.460789258972348,46.57349552009416],[16.45985578036686,46.572188050323]],[[16.462569373929124,46.57799632712359],[16.460512570805708,46.578016624105],[16.459235233117656,46.57672449751425],[16.462118266065602,46.5763101605243],[16.462569373929124,46.57799632712359]],[[16.46104049469893,46.5901806872768],[16.461548618319068,46.59159970082654],[16.45834041133016,46.591856272321735],[16.456227464254958,46.59002578978986],[16.458132772532927,46.5893978770067],[16.46104049469893,46.5901806872768]],[[16.454777027018604,46.57696217191282],[16.45749927806205,46.57112127004812],[16.458966310107982,46.57103704593148],[16.45832674069147,46.572592114672716],[16.459817166619864,46.57333267120222],[16.456700533266993,46.57783971058668],[16.45300047975921,46.57802147416582],[16.454777027018604,46.57696217191282]],[[16.45020160238671,46.58134959389445],[16.452532667462663,46.580180632942195],[16.453262445563823,46.57861361012912],[16.45518200796418,46.57852338313637],[16.45545655255913,46.58492956453019],[16.453230176448997,46.58712511974384],[16.452423609626546,46.58705288974868],[16.45167332969556,46.583761071635266],[16.450854533320005,46.58314834516799],[16.449970823284715,46.584137312088245],[16.44934519580907,46.5825032582196],[16.451851432247754,46.58253883544212],[16.45020160238671,46.58134959389445]],[[16.45201261523034,46.57537388303693],[16.45195706875384,46.57400756445001],[16.454954102533833,46.57334681797078],[16.45384356339968,46.57401562630838],[16.454395434455915,46.57495989561756],[16.45321226800618,46.57622613217147],[16.451436067312137,46.576995897728466],[16.44918929169886,46.57639711169132],[16.449479268219516,46.577970469954636],[16.452039484908067,46.5789735271594],[16.45127747696693,46.58027743734337],[16.449046926007483,46.58085374354327],[16.44717634214662,46.57827283770794],[16.44825337944759,46.57745845784157],[16.446940681728485,46.577406418256494],[16.448211401163363,46.575681389511075],[16.45201261523034,46.57537388303693]],[[16.45277514825949,46.58889687982719],[16.452475854688803,46.58920441056224],[16.450313232912347,46.589346016647696],[16.450814531647797,46.587831604408784],[16.45277514825949,46.58889687982719]],[[16.45232484866691,46.577989164400485],[16.452001155826256,46.57834401702774],[16.45175729289471,46.577742197200244],[16.45232484866691,46.577989164400485]],[[16.45185465895784,46.58566491456979],[16.450509050836207,46.5856997716632],[16.44990669499728,46.58496809934832],[16.450991364272504,46.58444124557519],[16.45185465895784,46.58566491456979]],[[16.449147228089625,46.589540593763466],[16.44676337161799,46.59055900580444],[16.443633855152363,46.58772144818192],[16.44694807068811,46.58479629899747],[16.45103262075789,46.58732031748625],[16.449147228089625,46.589540593763466]],[[16.446223397991826,46.57551175744196],[16.44521747368907,46.57630176637175],[16.444811106482163,46.575168045512505],[16.445596534122583,46.57492137816969],[16.446223397991826,46.57551175744196]],[[16.446045233757538,46.572921838184364],[16.445499956779965,46.57334389328865],[16.44566876219211,46.572597079677024],[16.446045233757538,46.572921838184364]],[[16.445680119336863,46.58044618624331],[16.444002719330182,46.580374947920916],[16.44330820039305,46.579150414994245],[16.44486312861132,46.577979154877106],[16.445680119336863,46.58044618624331]],[[16.44463186690253,46.585685221433764],[16.443276857375835,46.58731766951658],[16.4420485416577,46.586620147044535],[16.444012918886024,46.585439013150655],[16.44463186690253,46.585685221433764]]]}},{"type":"Feature","properties":{"_zoneType":"SI_BUILT","name":"Pozidano zemljišče","authority":"MKGP","dataSource":"raba-3000"},"geometry":{"type":"Polygon","coordinates":[[[16.410052754221642,46.570941122247966],[16.409762760243296,46.57094469697498],[16.409892431775972,46.57098756210377],[16.410052754221642,46.570941122247966]]]}},{"type":"Feature","properties":{"_zoneType":"SI_BUILT","name":"Pozidano zemljišče","authority":"MKGP","dataSource":"raba-3000"},"geometry":{"type":"Polygon","coordinates":[[[16.465352385134867,46.584549250069216],[16.465385138399512,46.58465560264131],[16.466058026029867,46.58469013706086],[16.465352385134867,46.584549250069216]]]}},{"type":"Feature","properties":{"_zoneType":"SI_BUILT","name":"Pozidano zemljišče","authority":"MKGP","dataSource":"raba-3000"},"geometry":{"type":"Polygon","coordinates":[[[16.58131781817516,46.47284302290415],[16.5880094680653,46.47491161476508],[16.592719422378114,46.474695137916505],[16.589182406901585,46.47479648150576],[16.581331008912617,46.47261332435737],[16.56590540254612,46.474578544431985],[16.58131781817516,46.47284302290415]]]}},{"type":"Feature","properties":{"_zoneType":"SI_BUILT","name":"Pozidano zemljišče","authority":"MKGP","dataSource":"raba-3000"},"geometry":{"type":"Polygon","coordinates":[[[16.569439071747304,46.47832960066514],[16.564443400699496,46.480000000000004],[16.56549591425699,46.480000000000004],[16.569439071747304,46.47832960066514]]]}},{"type":"Feature","properties":{"_zoneType":"SI_BUILT","name":"Pozidano zemljišče","authority":"MKGP","dataSource":"raba-3000"},"geometry":{"type":"Polygon","coordinates":[[[16.569195773581693,46.48783075089219],[16.563245135355725,46.480953474363844],[16.56549591425699,46.480000000000004],[16.564443400699496,46.480000000000004],[16.56286961512625,46.480526225676115],[16.56868188515894,46.48757767526928],[16.569195773581693,46.48783075089219]]]}}]}