{"type":"FeatureCollection","features":[{"type":"Feature","properties":{"_zoneType":"SI_BUILT","name":"Pozidano zemljišče","authority":"MKGP","dataSource":"raba-3000"},"geometry":{"type":"Polygon","coordinates":[[[13.712702490423181,46.40448494390527],[13.714694764792945,46.40682065880717],[13.72,46.40836525498854],[13.72,46.40687742671222],[13.718498119957852,46.40609082451682],[13.716718759914551,46.406823516440234],[13.711484823599237,46.40326196617339],[13.71000792876599,46.40405168424078],[13.710266141977211,46.40210195942162],[13.70931622527842,46.4037951624811],[13.70635637077102,46.40258323860856],[13.703986786903824,46.40335149790169],[13.712702490423181,46.40448494390527]]]}},{"type":"Feature","properties":{"_zoneType":"SI_BUILT","name":"Pozidano zemljišče","authority":"MKGP","dataSource":"raba-3000"},"geometry":{"type":"Polygon","coordinates":[[[13.71721716138769,46.44897820089279],[13.7159279039929,46.44832696165988],[13.71772679655148,46.44702629432688],[13.715269692098293,46.44780603734047],[13.713982615971538,46.44586777659497],[13.71225504583758,46.445557616084685],[13.71400773338874,46.447650888599966],[13.71246474611468,46.44700472469497],[13.711132764462768,46.44759650137838],[13.716852013564967,46.449049684333104],[13.72,46.45360181547147],[13.72,46.45294764979774],[13.71721716138769,46.44897820089279]]]}},{"type":"Feature","properties":{"_zoneType":"SI_BUILT","name":"Pozidano zemljišče","authority":"MKGP","dataSource":"raba-3000"},"geometry":{"type":"Polygon","coordinates":[[[13.717845698764807,46.4684240593173],[13.71840576324188,46.46180671980055],[13.716096718110775,46.45778517088056],[13.718036728394214,46.461901335103796],[13.71745009784691,46.46847509462952],[13.72,46.470418896311166],[13.72,46.469854428871024],[13.717845698764807,46.4684240593173]]]}},{"type":"Feature","properties":{"_zoneType":"SI_BUILT","name":"Pozidano zemljišče","authority":"MKGP","dataSource":"raba-3000"},"geometry":{"type":"Polygon","coordinates":[[[13.719650654078539,46.47596339394914],[13.716414462084073,46.47737024114679],[13.71748383532226,46.47885320969344],[13.718801675827704,46.478322719248105],[13.72,46.478715039389336],[13.72,46.47526433361008],[13.719650654078539,46.47596339394914]]]}},{"type":"Feature","properties":{"_zoneType":"SI_BUILT","name":"Pozidano zemljišče","authority":"MKGP","dataSource":"raba-3000"},"geometry":{"type":"Polygon","coordinates":[[[13.718550466683444,46.490424915442105],[13.711792820190693,46.4927414928889],[13.71090874632282,46.49170816312101],[13.711018335690241,46.49290843739118],[13.709534772256768,46.49364160439397],[13.707658119654194,46.49336951063578],[13.707551778119774,46.49158588826075],[13.706032102666788,46.49137188344582],[13.707476537531232,46.494237934302724],[13.702792057223498,46.4960058226798],[13.703767353918414,46.49783493003555],[13.706269869470837,46.497792748057726],[13.704876557063022,46.4987677488973],[13.705911922911302,46.49969639702152],[13.703638915226865,46.50186012633562],[13.716161046231552,46.503402686033425],[13.718295206132009,46.505132890467735],[13.717459744467075,46.50656585976514],[13.718199498407987,46.507556730995304],[13.715890533058936,46.50912407325884],[13.717518935103724,46.51257514786881],[13.716066142040683,46.516557105429825],[13.72,46.5180174969773],[13.72,46.51797533492959],[13.717467386299527,46.51669585320174],[13.717702984296766,46.515829274318186],[13.719347100185118,46.51660569116544],[13.71961615357393,46.51563622013241],[13.71702576512538,46.51541730251351],[13.717908240518952,46.5123836561976],[13.716257261089732,46.50960507971493],[13.718670283903917,46.507657640547336],[13.717921038883777,46.50653554200293],[13.719262448786926,46.505622269035484],[13.716513941728437,46.503217772828066],[13.704893151154428,46.501648109475724],[13.706694882875126,46.49923034102034],[13.712343917119714,46.498183458351605],[13.713508566642295,46.499038420283895],[13.714179356354208,46.502008743801156],[13.715466381739084,46.50210401970407],[13.714984961772766,46.501270550720925],[13.716321767357162,46.50088529297039],[13.717883030336528,46.50244158389289],[13.717330698831558,46.50038944829775],[13.716060789244109,46.49974144344355],[13.718310754775823,46.500592745744974],[13.719420122660791,46.49985962879156],[13.7185882333923,46.49776261517535],[13.72,46.496614848462684],[13.72,46.49401217624273],[13.71950974198646,46.494179956285606],[13.715674396994343,46.494525280715735],[13.715904827572665,46.493511039651594],[13.711834940317138,46.49306085992107],[13.71780401193056,46.490962878856905],[13.72,46.4913187274926],[13.72,46.4906935244662],[13.718550466683444,46.490424915442105]],[[13.718499032642809,46.4949458621627],[13.718050871652931,46.496353456904366],[13.715982042208552,46.496668486108874],[13.716159766533798,46.494757072981336],[13.718499032642809,46.4949458621627]],[[13.714694564705573,46.49443618450318],[13.713301590992629,46.495198432244884],[13.713248445100165,46.49421378756347],[13.714694564705573,46.49443618450318]],[[13.705410159493816,46.49597438270239],[13.709166455667967,46.49400779055916],[13.712380941588401,46.49403709624691],[13.712017722141619,46.49555858458715],[13.706635756551956,46.49557279977612],[13.709887664759155,46.496039355396455],[13.709346108635348,46.496615109673364],[13.70401226757938,46.49679811559782],[13.703621401562572,46.49594929274762],[13.705410159493816,46.49597438270239]],[[13.711717539245457,46.49733445179524],[13.709838828594325,46.497122041494286],[13.711244328802922,46.49657570098015],[13.711717539245457,46.49733445179524]],[[13.707661790231782,46.498187010612384],[13.708483746686385,46.49812808389034],[13.707663975672347,46.49852124534208],[13.707661790231782,46.498187010612384]],[[13.706496751941597,46.49851374179668],[13.706451092184427,46.4988609529168],[13.705664163872477,46.498466728714035],[13.706496751941597,46.49851374179668]]]}},{"type":"Feature","properties":{"_zoneType":"SI_BUILT","name":"Pozidano zemljišče","authority":"MKGP","dataSource":"raba-3000"},"geometry":{"type":"Polygon","coordinates":[[[13.722815057164949,46.40918484665179],[13.724979944942795,46.409042481434106],[13.725092581461526,46.409977736422476],[13.727647637418588,46.40936396191529],[13.728260073477168,46.40835096805079],[13.73381402405918,46.408800014117254],[13.738224650487858,46.40609274246372],[13.7407252204081,46.406006447929244],[13.740756489601287,46.4072366804928],[13.751632899078528,46.40675126396943],[13.750212102300821,46.40749494172577],[13.75070816824856,46.40909018056312],[13.748927509514441,46.409521738415776],[13.7504777130291,46.41028357980188],[13.746254317360565,46.410193927803434],[13.744676158404387,46.413701521919045],[13.739985659897219,46.415433335397815],[13.744448898806226,46.42049583207016],[13.743203334926598,46.424373089357026],[13.741497209112708,46.42423036175682],[13.742062641666086,46.425085696943526],[13.74345768379338,46.42482015104985],[13.743934222123302,46.427307503301975],[13.74497207951752,46.42803241000868],[13.744461649625567,46.431727665040285],[13.742992363100619,46.43286164245421],[13.743280928391968,46.434560779589056],[13.748206482584974,46.44],[13.750261089691342,46.44],[13.749771771009655,46.43872778112974],[13.748004599445666,46.43857571536458],[13.747988528253163,46.4376660150043],[13.74655417305074,46.43788525194874],[13.745264305089954,46.43618420684705],[13.746727329956544,46.43596621204957],[13.743618406705137,46.434068721237665],[13.743922524232097,46.43303893821344],[13.747434210521831,46.4327461764372],[13.749561987219307,46.43157823119528],[13.747998732375045,46.430027725301095],[13.74470584619835,46.432204687171144],[13.745431499595337,46.42787264794502],[13.744065434824051,46.42657821266018],[13.744590781031071,46.42543459137157],[13.743661249937668,46.42404381440736],[13.744850001146478,46.42044063637559],[13.74137283284184,46.41541389529946],[13.74534183569025,46.41376740957437],[13.746683441036964,46.41067270840895],[13.751377366286382,46.41054774102534],[13.752927234169887,46.409645405191874],[13.75139412406687,46.40883665309377],[13.755003745610763,46.407559314081944],[13.750199512494722,46.40537412942818],[13.746317450007043,46.406153777032635],[13.745739172078244,46.404386948035956],[13.74524451040828,46.40551159973061],[13.74306712578863,46.40625608214379],[13.743456362769743,46.404663807426424],[13.742535813974914,46.40374236370852],[13.74218829827635,46.40518478481512],[13.73953331998337,46.40494371956688],[13.74072868286278,46.40322358820833],[13.744841899144369,46.40112569323059],[13.74451731935702,46.400000000000006],[13.744071829850537,46.400000000000006],[13.7442999222297,46.400923951939085],[13.737238776835255,46.40504305474553],[13.738417047502507,46.40570447778237],[13.732370008905539,46.40841982431062],[13.727027269195442,46.40777957735186],[13.726442362707385,46.408728158921676],[13.72510538291486,46.408230258005396],[13.72374668982144,46.408965780467895],[13.723334946928532,46.407981639645776],[13.72077024217417,46.40791845080075],[13.72250363210759,46.40754347102084],[13.722070402227429,46.406732927459345],[13.720589981408043,46.407186426537635],[13.72,46.40687742671222],[13.72,46.40836525498854],[13.722815057164949,46.40918484665179]],[[13.748841732886627,46.43162722732454],[13.747241423874135,46.432294662429825],[13.747610308105424,46.43125127861306],[13.748841732886627,46.43162722732454]]]}},{"type":"Feature","properties":{"_zoneType":"SI_BUILT","name":"Pozidano zemljišče","authority":"MKGP","dataSource":"raba-3000"},"geometry":{"type":"Polygon","coordinates":[[[13.75340099318679,46.4395569006108],[13.754818382613829,46.43906975180697],[13.757901304845785,46.44],[13.76,46.44],[13.76,46.438518198696435],[13.75713856970853,46.43953358038096],[13.756436857617448,46.4377784194661],[13.755866167583775,46.43884843878642],[13.753855386923886,46.438416731736964],[13.750314110848244,46.44],[13.753356400807984,46.44],[13.75340099318679,46.4395569006108]]]}},{"type":"Feature","properties":{"_zoneType":"SI_BUILT","name":"Pozidano zemljišče","authority":"MKGP","dataSource":"raba-3000"},"geometry":{"type":"Polygon","coordinates":[[[13.748310884977382,46.440115290097616],[13.751009122857694,46.44073717980213],[13.752303072665427,46.44000498982847],[13.753200162626744,46.4415524859747],[13.753356400807984,46.44],[13.750314110848244,46.44],[13.750268869367144,46.440020227002826],[13.750261089691342,46.44],[13.748206482584974,46.44],[13.748310884977382,46.440115290097616]]]}},{"type":"Feature","properties":{"_zoneType":"SI_BUILT","name":"Pozidano zemljišče","authority":"MKGP","dataSource":"raba-3000"},"geometry":{"type":"Polygon","coordinates":[[[13.759951606871319,46.44061866294733],[13.76,46.44058869483689],[13.76,46.44],[13.757901304845785,46.44],[13.759951606871319,46.44061866294733]]]}},{"type":"Feature","properties":{"_zoneType":"SI_BUILT","name":"Pozidano zemljišče","authority":"MKGP","dataSource":"raba-3000"},"geometry":{"type":"Polygon","coordinates":[[[13.723119615550049,46.47976748856808],[13.724929599491583,46.4789980289255],[13.725034040709229,46.480000000000004],[13.727525017884236,46.480000000000004],[13.728782598171957,46.47901359279667],[13.727853675116265,46.47688026297535],[13.728492017447655,46.47562303976967],[13.723076774343854,46.47435549744358],[13.723886656095935,46.469636827168095],[13.722298688792243,46.464167989365116],[13.72243230803423,46.45641710088997],[13.72,46.45294764979774],[13.72,46.45360181547147],[13.72208713385515,46.45661990567231],[13.721935084393904,46.464182782981396],[13.72352429927042,46.469495880345505],[13.722874941282733,46.471763274492226],[13.72,46.469854428871024],[13.72,46.470418896311166],[13.722185228301646,46.47208470550403],[13.720874028284516,46.47327761945301],[13.72185633904139,46.474287981382524],[13.720463075650814,46.47433769384823],[13.72,46.47526433361008],[13.72,46.478715039389336],[13.722078833198715,46.47939562996154],[13.722167124632627,46.480000000000004],[13.723175792775121,46.480000000000004],[13.723119615550049,46.47976748856808]],[[13.725168941131926,46.4783721446316],[13.726701789162801,46.47854791430648],[13.725785362178344,46.47995644609562],[13.725168941131926,46.4783721446316]]]}},{"type":"Feature","properties":{"_zoneType":"SI_BUILT","name":"Pozidano zemljišče","authority":"MKGP","dataSource":"raba-3000"},"geometry":{"type":"Polygon","coordinates":[[[13.75420985116069,46.4852652426253],[13.753596024846338,46.48598060449881],[13.755785489853347,46.486797093408605],[13.754902568666338,46.488143086147765],[13.751963888922328,46.48815744364599],[13.750869133042393,46.48905134226061],[13.751439927697405,46.489977696806235],[13.748418966508059,46.490774148415525],[13.74299618819567,46.48996464592396],[13.743749048078678,46.487031019572505],[13.742227445725597,46.48344284230821],[13.739313134345364,46.484590132602364],[13.742501783742409,46.48553430129192],[13.742971692287556,46.487357565822265],[13.741964548887845,46.48764647917289],[13.74288768328844,46.48799233624056],[13.742656913198507,46.48962004241343],[13.73790897323664,46.489526379031474],[13.742549807440929,46.49014309521445],[13.742650370530484,46.4910112971667],[13.733248705251864,46.48978570640655],[13.73149109317029,46.49106079428952],[13.729760022932401,46.49069745166539],[13.73018404655949,46.49170301948951],[13.729100878643449,46.49232669103056],[13.725859423427456,46.49272436522706],[13.725084190734918,46.4911322522464],[13.723365776060131,46.490669906477216],[13.724804572775446,46.48638835788342],[13.726841022689124,46.48579623602873],[13.7274170136128,46.484700843239246],[13.725966285029285,46.48590499966974],[13.72429584266066,46.48562511040579],[13.723209346191497,46.48396264032581],[13.724030685398516,46.48353830769939],[13.723175792775121,46.480000000000004],[13.722167124632627,46.480000000000004],[13.722755997590008,46.48403093659414],[13.724107084423983,46.48723983209523],[13.722260703660744,46.49111244923127],[13.72,46.4906935244662],[13.72,46.4913187274926],[13.722022089624215,46.491646396774605],[13.721398409275265,46.493533601366465],[13.72,46.49401217624273],[13.72,46.496614848462684],[13.720336739140704,46.49634107943143],[13.722994143267897,46.49726200285418],[13.726537530789763,46.49684091720945],[13.740782900459376,46.49343072322462],[13.751892706269075,46.49418990806929],[13.75362017018021,46.49386517707002],[13.754244875412914,46.49566805223142],[13.75767790468403,46.49695814757304],[13.75582870284117,46.498072649258134],[13.75388645243282,46.49674824259507],[13.752782217318451,46.49715654562995],[13.755400267310797,46.49879475674692],[13.758652605026311,46.49827694924151],[13.755790761710898,46.499904310709724],[13.753673912384107,46.50612397933099],[13.751628602894108,46.507684669122156],[13.751093591628347,46.50435160984717],[13.752056185383388,46.50352280764156],[13.752765636824263,46.499269649515654],[13.75144302175923,46.50277049284514],[13.748845174425083,46.500651174814486],[13.750974385476793,46.503842410690815],[13.750830067005952,46.50686058048717],[13.749204421983116,46.50756764488557],[13.750397522427857,46.507806803116694],[13.750161699656022,46.511850807989994],[13.750663093520169,46.51414211236898],[13.74969670856318,46.514539521310304],[13.75085302196895,46.515086600849145],[13.749090808936604,46.517172089020086],[13.752020870223431,46.51791520591243],[13.75055891045324,46.51192457193685],[13.750874550406818,46.50977774668552],[13.753985346601802,46.506311234526564],[13.756226234492123,46.50002487403327],[13.75938996588416,46.49853639868512],[13.76,46.49855307551484],[13.76,46.496856283268976],[13.75970677370671,46.49623842555264],[13.76,46.496041599465066],[13.76,46.49469792071537],[13.758143732732494,46.49490839639656],[13.758628817729743,46.492535056416905],[13.759882335416783,46.49159502042133],[13.76,46.491584260920185],[13.76,46.4901713467279],[13.753861212781704,46.48995933173279],[13.752676570875336,46.488757526026355],[13.75516437809028,46.48884806698334],[13.756141253903454,46.48677916928326],[13.755185904033768,46.485664376171805],[13.758880613040988,46.484553684693694],[13.76,46.48501159230552],[13.76,46.4834818205037],[13.75420985116069,46.4852652426253]],[[13.759735414163496,46.49066874518833],[13.755347848621172,46.49212121970633],[13.754296011636477,46.491663815335215],[13.754870333606814,46.490335744219706],[13.759735414163496,46.49066874518833]],[[13.75149683313074,46.49090805403932],[13.754136644947701,46.4924485422709],[13.747022779440652,46.4936778110197],[13.74238988968513,46.492485594213086],[13.742822148652012,46.49150191051274],[13.75149683313074,46.49090805403932]],[[13.753095151910046,46.48979038245753],[13.752139611330431,46.490056474128224],[13.752691411397448,46.48934813720552],[13.753095151910046,46.48979038245753]],[[13.734424022854402,46.49025960602338],[13.742219453662853,46.49156465771936],[13.741726393635208,46.492907726479956],[13.731348509922622,46.4950713106845],[13.724218886985868,46.49406294146899],[13.730823840216301,46.49206007835063],[13.734424022854402,46.49025960602338]],[[13.740973167729747,46.48458173146073],[13.740805337706306,46.48492423118622],[13.740315224380357,46.484421282595115],[13.740973167729747,46.48458173146073]],[[13.727832472344137,46.49548282941438],[13.726669904218435,46.49605877636712],[13.723668833560163,46.49540751253592],[13.725011943662508,46.494913524152274],[13.727832472344137,46.49548282941438]],[[13.7235111192545,46.49494775166616],[13.722878734414717,46.49553911846742],[13.721164737183566,46.49523819113767],[13.722552933794852,46.494643988119726],[13.7235111192545,46.49494775166616]]]}},{"type":"Feature","properties":{"_zoneType":"SI_BUILT","name":"Pozidano zemljišče","authority":"MKGP","dataSource":"raba-3000"},"geometry":{"type":"Polygon","coordinates":[[[13.725083087801936,46.480470539977304],[13.727380252645867,46.482628086875366],[13.726626531386582,46.48070474510617],[13.727525017884236,46.480000000000004],[13.725034040709229,46.480000000000004],[13.725083087801936,46.480470539977304]]]}},{"type":"Feature","properties":{"_zoneType":"SI_BUILT","name":"Pozidano zemljišče","authority":"MKGP","dataSource":"raba-3000"},"geometry":{"type":"Polygon","coordinates":[[[13.720314722904055,46.518134333597644],[13.72,46.51797533492959],[13.72,46.5180174969773],[13.720314722904055,46.518134333597644]]]}},{"type":"Feature","properties":{"_zoneType":"SI_BUILT","name":"Pozidano zemljišče","authority":"MKGP","dataSource":"raba-3000"},"geometry":{"type":"Polygon","coordinates":[[[13.761645891866895,46.43956945366404],[13.762005020443668,46.44],[13.762926396645321,46.44],[13.76306209096706,46.43921346697269],[13.761656962200675,46.437930223838016],[13.76,46.438518198696435],[13.76,46.44],[13.76095063667946,46.44],[13.761645891866895,46.43956945366404]]]}},{"type":"Feature","properties":{"_zoneType":"SI_BUILT","name":"Pozidano zemljišče","authority":"MKGP","dataSource":"raba-3000"},"geometry":{"type":"Polygon","coordinates":[[[13.76095063667946,46.44],[13.76,46.44],[13.76,46.44058869483689],[13.76095063667946,46.44]]]}},{"type":"Feature","properties":{"_zoneType":"SI_BUILT","name":"Pozidano zemljišče","authority":"MKGP","dataSource":"raba-3000"},"geometry":{"type":"Polygon","coordinates":[[[13.764898808210113,46.44346925808875],[13.768450554420012,46.444597123192814],[13.769849535424319,46.444454723199904],[13.77009540447861,46.443418887832024],[13.773939656185828,46.44441837780263],[13.778198198901935,46.453009040254734],[13.779685491268868,46.454266752866765],[13.779709936834616,46.46125205914634],[13.78159929284845,46.46219951420342],[13.782012036731755,46.463491502613785],[13.78075940344613,46.46554247363611],[13.782407802472447,46.46858232482048],[13.78459987280536,46.470322380166245],[13.783146951403488,46.47321322029202],[13.784529758664117,46.473000980591586],[13.784771767868092,46.47413481755224],[13.783325544580014,46.4736640075961],[13.782572664880067,46.474799369079264],[13.780272797596751,46.47544532803244],[13.780059579497188,46.480000000000004],[13.781729836219503,46.480000000000004],[13.78075862906176,46.479173556843314],[13.780715166799682,46.476420924893006],[13.782015765602631,46.47647905311301],[13.78266885611546,46.47765147283992],[13.7860870512355,46.476911071483144],[13.787557375413119,46.47448056048393],[13.785879791235471,46.47395441861981],[13.786850258897315,46.472919194495205],[13.785752120607675,46.47213933111695],[13.786151987230886,46.471122080985104],[13.782775833186221,46.46836784751548],[13.78494890929175,46.46475663944277],[13.784251823436664,46.46419807109501],[13.784861169023298,46.46289090869369],[13.784774569066137,46.46068128049425],[13.782775170089291,46.4588692403055],[13.783846850384451,46.456050587642004],[13.782222005244444,46.45751569605615],[13.78246446761684,46.45907424678408],[13.783891602813533,46.459882633236695],[13.782953234737777,46.46103917534942],[13.784429977741842,46.46071281732057],[13.784519245913804,46.46289240057547],[13.784017123747619,46.46483098357655],[13.782204927020876,46.46507284324799],[13.78271781572428,46.46320962435929],[13.781964140258594,46.46130589048056],[13.780167980616278,46.46114127212574],[13.780050885165238,46.454458240723426],[13.781047450097656,46.45377324194192],[13.778872669399991,46.453149273974816],[13.774608592117218,46.44415286667747],[13.768556677995281,46.44200037172832],[13.767469855480458,46.44244520699651],[13.767606802741884,46.443539388232566],[13.76554491861649,46.4433626733595],[13.762791006189927,46.44078477170883],[13.762926396645321,46.44],[13.762005020443668,46.44],[13.764898808210113,46.44346925808875]],[[13.784255910828225,46.47468207840754],[13.783710114843219,46.47520947742807],[13.783533050329153,46.474385784905095],[13.784255910828225,46.47468207840754]],[[13.782095921448622,46.466468654273385],[13.78190543710751,46.465549177600586],[13.782963786182862,46.4654780132875],[13.783058754705763,46.4665460809891],[13.782095921448622,46.466468654273385]]]}},{"type":"Feature","properties":{"_zoneType":"SI_BUILT","name":"Pozidano zemljišče","authority":"MKGP","dataSource":"raba-3000"},"geometry":{"type":"Polygon","coordinates":[[[13.780015864770872,46.48093381490091],[13.777888145022176,46.480844711718674],[13.777621712344722,46.481972960711865],[13.779935797930715,46.483672984868036],[13.778996499827587,46.48461938710412],[13.777080684729032,46.48440222341278],[13.775501093188815,46.48300338470834],[13.775807522419079,46.48407772604219],[13.774410516777538,46.484166825078695],[13.77547826362653,46.4848829584405],[13.774318360353991,46.485275258310686],[13.768686214232654,46.483599642433404],[13.768031961700114,46.48310086986408],[13.76866713089596,46.48244989660566],[13.767406668924089,46.48273069978804],[13.766949301112424,46.48157350625942],[13.766705554039328,46.48240419373204],[13.768419626139133,46.48421870073046],[13.764787498253327,46.48591130097023],[13.762415064873503,46.48562612162422],[13.760726194029862,46.48424536980221],[13.76268934328784,46.48377811289315],[13.761186259468124,46.483116441057305],[13.76,46.4834818205037],[13.76,46.48501159230552],[13.762307075034915,46.48595534746636],[13.76500002518921,46.48622592849964],[13.768581321654437,46.484502944425806],[13.769182878710136,46.48541333398204],[13.774434753389375,46.486681829186324],[13.773770380466711,46.48786109566811],[13.770905711050242,46.48899109007498],[13.760635632972965,46.49019329955292],[13.76,46.4901713467279],[13.76,46.491584260920185],[13.761303958179477,46.49146502419538],[13.761935092289065,46.49259777936743],[13.762855280961865,46.49170787575564],[13.768933146068617,46.492269416347796],[13.768866939212886,46.491506114806924],[13.76290028272265,46.49139720124002],[13.764302294970038,46.48991172744312],[13.767164155914834,46.49073791279518],[13.767728047843455,46.489894601317594],[13.771074657391381,46.4894710292445],[13.772360320241367,46.49036012598396],[13.772033593600963,46.48935690399864],[13.775416286738466,46.488123610513384],[13.774344653084146,46.49003435453169],[13.775547158455444,46.49059347932607],[13.77508136666978,46.48954541757146],[13.776317652184801,46.48861467128562],[13.778667771765505,46.48970808156676],[13.780110638976712,46.48876475830624],[13.78439983083425,46.48938223583078],[13.784826965375819,46.49137024555547],[13.780937166391183,46.492677337122096],[13.780733421049149,46.491356673156076],[13.778215634798764,46.49271249416295],[13.780451853610751,46.49252174673712],[13.780347481685686,46.494153028997765],[13.794978380565516,46.495211144360375],[13.797202037897826,46.496788055158724],[13.797528265087001,46.49541648165211],[13.798466730026073,46.495236020542386],[13.799591496453209,46.496141281711544],[13.798307776376422,46.49687370617663],[13.8,46.49786329796325],[13.8,46.49711557372926],[13.799741051214625,46.49669470666478],[13.8,46.49643887494638],[13.8,46.49574943749957],[13.799010130104373,46.49487718208305],[13.8,46.4946574527922],[13.8,46.49400014185782],[13.798046674627445,46.49423348029852],[13.796841193444543,46.4954503763965],[13.796518853235296,46.493504404829295],[13.795637606565927,46.49507465063511],[13.791798911442303,46.494407330536895],[13.79274821881696,46.49357715997083],[13.789018208509097,46.49372086918003],[13.787617515829393,46.49466842229336],[13.785960351817428,46.494329243778495],[13.785529687942125,46.493059780095116],[13.78368639449338,46.49386924986821],[13.782092410715942,46.49317297928577],[13.790408389414706,46.490110510608986],[13.795195368723812,46.49023402647709],[13.795059437732727,46.489340065021764],[13.798029572803376,46.48922979528771],[13.799085240215257,46.48780580629756],[13.8,46.48788077088389],[13.8,46.485492991470565],[13.792137500762204,46.483871998328695],[13.790226760881508,46.48451787396598],[13.787841144801078,46.48323789786457],[13.786790196440926,46.48118796523085],[13.786221991217044,46.48265092007308],[13.78494253516878,46.48273382773178],[13.781729836219503,46.480000000000004],[13.780059579497188,46.480000000000004],[13.780015864770872,46.48093381490091]],[[13.791449105974982,46.49447911072521],[13.790738171384515,46.49461018094412],[13.791325785492965,46.494147920073345],[13.791449105974982,46.49447911072521]],[[13.787318014895144,46.490995328587246],[13.786889187202783,46.48992883631162],[13.78861938114931,46.48908367785063],[13.789597264070046,46.490397417998324],[13.787318014895144,46.490995328587246]],[[13.788110382868814,46.48773936865251],[13.787905774358668,46.48856855210437],[13.785776057628825,46.488441895330865],[13.785945164354276,46.48748719275295],[13.788110382868814,46.48773936865251]],[[13.786540436284792,46.489557839990724],[13.78601276343657,46.490288173250434],[13.7853126173116,46.48949548116938],[13.786540436284792,46.489557839990724]],[[13.784870381658546,46.48826062763647],[13.779454797747997,46.488038498402666],[13.779699412175423,46.48712874741888],[13.784283868630565,46.487085169699114],[13.784870381658546,46.48826062763647]],[[13.777932691800913,46.48537887007257],[13.775764170599095,46.48643574609198],[13.773617038024241,46.4859838714632],[13.776905775408055,46.484769600675534],[13.777932691800913,46.48537887007257]],[[13.777109663922063,46.48706009908428],[13.777334580225748,46.48753334753151],[13.776381067054949,46.48727845503351],[13.777109663922063,46.48706009908428]]]}},{"type":"Feature","properties":{"_zoneType":"SI_BUILT","name":"Pozidano zemljišče","authority":"MKGP","dataSource":"raba-3000"},"geometry":{"type":"Polygon","coordinates":[[[13.762791860544546,46.498629398103546],[13.763491620503638,46.495795607849594],[13.767884771907207,46.49637403468557],[13.770253743788848,46.49438737575663],[13.767287398539343,46.49570215465641],[13.764247154995104,46.49569763642504],[13.761624532574054,46.49451372062408],[13.76,46.49469792071537],[13.76,46.496041599465066],[13.761094145533638,46.49530716196899],[13.762051647969491,46.497140109269466],[13.76037222640338,46.49764060227725],[13.76,46.496856283268976],[13.76,46.49855307551484],[13.762791860544546,46.498629398103546]]]}},{"type":"Feature","properties":{"_zoneType":"SI_BUILT","name":"Pozidano zemljišče","authority":"MKGP","dataSource":"raba-3000"},"geometry":{"type":"Polygon","coordinates":[[[13.739442501481488,46.488096511805246],[13.739944546543068,46.4886316441681],[13.740272221116648,46.48837699880258],[13.739442501481488,46.488096511805246]]]}},{"type":"Feature","properties":{"_zoneType":"SI_BUILT","name":"Pozidano zemljišče","authority":"MKGP","dataSource":"raba-3000"},"geometry":{"type":"Polygon","coordinates":[[[13.724912654405182,46.48286823313424],[13.724621459751653,46.48276774126694],[13.724786172076668,46.48303286568573],[13.724912654405182,46.48286823313424]]]}},{"type":"Feature","properties":{"_zoneType":"SI_BUILT","name":"Pozidano zemljišče","authority":"MKGP","dataSource":"raba-3000"},"geometry":{"type":"Polygon","coordinates":[[[13.7250509454844,46.481953704907745],[13.725556611823748,46.481992707980616],[13.7250895866487,46.48173773084874],[13.7250509454844,46.481953704907745]]]}},{"type":"Feature","properties":{"_zoneType":"SI_BUILT","name":"Pozidano zemljišče","authority":"MKGP","dataSource":"raba-3000"},"geometry":{"type":"Polygon","coordinates":[[[13.728408943829933,46.480643246537355],[13.72824588943555,46.48045616362555],[13.728088946440629,46.480789291657686],[13.728408943829933,46.480643246537355]]]}},{"type":"Feature","properties":{"_zoneType":"SI_BUILT","name":"Pozidano zemljišče","authority":"MKGP","dataSource":"raba-3000"},"geometry":{"type":"Polygon","coordinates":[[[13.71860429150072,46.48965455219335],[13.718616598414703,46.48976334270236],[13.718964297871144,46.48964640787658],[13.71860429150072,46.48965455219335]]]}},{"type":"Feature","properties":{"_zoneType":"SI_BUILT","name":"Pozidano zemljišče","authority":"MKGP","dataSource":"raba-3000"},"geometry":{"type":"Polygon","coordinates":[[[13.705262947647363,46.490952805364465],[13.705316128881648,46.491126980139036],[13.705543930949922,46.490892895130685],[13.705262947647363,46.490952805364465]]]}},{"type":"Feature","properties":{"_zoneType":"SI_BUILT","name":"Pozidano zemljišče","authority":"MKGP","dataSource":"raba-3000"},"geometry":{"type":"Polygon","coordinates":[[[13.709401164532109,46.50485938232786],[13.703078758252976,46.50279966963826],[13.703168845496409,46.50209818115414],[13.701017815591182,46.50288038990741],[13.709401164532109,46.50485938232786]]]}},{"type":"Feature","properties":{"_zoneType":"SI_BUILT","name":"Pozidano zemljišče","authority":"MKGP","dataSource":"raba-3000"},"geometry":{"type":"Polygon","coordinates":[[[13.71099666923983,46.50386435046195],[13.71075276722322,46.50380430877843],[13.709929921130204,46.504437234616134],[13.71081833096377,46.50414828327448],[13.71099666923983,46.50386435046195]]]}},{"type":"Feature","properties":{"_zoneType":"SI_BUILT","name":"Pozidano zemljišče","authority":"MKGP","dataSource":"raba-3000"},"geometry":{"type":"Polygon","coordinates":[[[13.796074144221864,46.49244898287261],[13.79618173416031,46.492762801758815],[13.796844033957063,46.49268631409859],[13.796074144221864,46.49244898287261]]]}},{"type":"Feature","properties":{"_zoneType":"SI_BUILT","name":"Pozidano zemljišče","authority":"MKGP","dataSource":"raba-3000"},"geometry":{"type":"Polygon","coordinates":[[[13.793278177934676,46.49309058527618],[13.792942377740165,46.49311615066441],[13.793265624878618,46.49336384056861],[13.793278177934676,46.49309058527618]]]}},{"type":"Feature","properties":{"_zoneType":"SI_BUILT","name":"Pozidano zemljišče","authority":"MKGP","dataSource":"raba-3000"},"geometry":{"type":"Polygon","coordinates":[[[13.72461076423084,46.40771124690183],[13.72471794892014,46.407928907581706],[13.725010997752923,46.40760806469632],[13.72461076423084,46.40771124690183]]]}},{"type":"Feature","properties":{"_zoneType":"SI_BUILT","name":"Pozidano zemljišče","authority":"MKGP","dataSource":"raba-3000"},"geometry":{"type":"Polygon","coordinates":[[[13.769299931004461,46.49056803537843],[13.76956399765069,46.490488229672295],[13.769193021921774,46.49032536563809],[13.769299931004461,46.49056803537843]]]}},{"type":"Feature","properties":{"_zoneType":"SI_BUILT","name":"Pozidano zemljišče","authority":"MKGP","dataSource":"raba-3000"},"geometry":{"type":"Polygon","coordinates":[[[13.74934981073576,46.515276605400686],[13.749754360455633,46.51531376438184],[13.749384262373054,46.51508664408651],[13.74934981073576,46.515276605400686]]]}},{"type":"Feature","properties":{"_zoneType":"SI_BUILT","name":"Pozidano zemljišče","authority":"MKGP","dataSource":"raba-3000"},"geometry":{"type":"Polygon","coordinates":[[[13.711155198263127,46.498875599749674],[13.711226924160318,46.49871044218079],[13.710887756871536,46.49882209621102],[13.711155198263127,46.498875599749674]]]}},{"type":"Feature","properties":{"_zoneType":"SI_BUILT","name":"Pozidano zemljišče","authority":"MKGP","dataSource":"raba-3000"},"geometry":{"type":"Polygon","coordinates":[[[13.7540982597538,46.48690935912836],[13.754159242009731,46.4867191904206],[13.753635692498023,46.48682951351815],[13.7540982597538,46.48690935912836]]]}},{"type":"Feature","properties":{"_zoneType":"SI_BUILT","name":"Pozidano zemljišče","authority":"MKGP","dataSource":"raba-3000"},"geometry":{"type":"Polygon","coordinates":[[[13.799574988463629,46.49336605418379],[13.8,46.49283332105526],[13.8,46.4926098122385],[13.799083282594951,46.49290432080398],[13.799574988463629,46.49336605418379]]]}},{"type":"Feature","properties":{"_zoneType":"SI_BUILT","name":"Pozidano zemljišče","authority":"MKGP","dataSource":"raba-3000"},"geometry":{"type":"Polygon","coordinates":[[[13.798336538267902,46.49173718045348],[13.797242477303964,46.49177708695432],[13.798003625438744,46.4919966878564],[13.798336538267902,46.49173718045348]]]}},{"type":"Feature","properties":{"_zoneType":"SI_BUILT","name":"Pozidano zemljišče","authority":"MKGP","dataSource":"raba-3000"},"geometry":{"type":"Polygon","coordinates":[[[13.795200132724858,46.494023347559214],[13.79489481656661,46.493898868697094],[13.795059684431068,46.49421817294679],[13.795200132724858,46.494023347559214]]]}},{"type":"Feature","properties":{"_zoneType":"SI_BUILT","name":"Pozidano zemljišče","authority":"MKGP","dataSource":"raba-3000"},"geometry":{"type":"Polygon","coordinates":[[[13.789788477191832,46.500246907702184],[13.78989981958381,46.50038117167167],[13.790918713434005,46.50019855795898],[13.789788477191832,46.500246907702184]]]}},{"type":"Feature","properties":{"_zoneType":"SI_BUILT","name":"Pozidano zemljišče","authority":"MKGP","dataSource":"raba-3000"},"geometry":{"type":"Polygon","coordinates":[[[13.78805313582605,46.43195040849758],[13.787319150744235,46.43220715078929],[13.788062263617903,46.432475484950565],[13.78805313582605,46.43195040849758]]]}},{"type":"Feature","properties":{"_zoneType":"SI_BUILT","name":"Pozidano zemljišče","authority":"MKGP","dataSource":"raba-3000"},"geometry":{"type":"Polygon","coordinates":[[[13.783722635999371,46.49949988187234],[13.782978105472425,46.49938919065798],[13.783142765734206,46.50021701232206],[13.783722635999371,46.49949988187234]]]}},{"type":"Feature","properties":{"_zoneType":"SI_BUILT","name":"Pozidano zemljišče","authority":"MKGP","dataSource":"raba-3000"},"geometry":{"type":"Polygon","coordinates":[[[13.781586999727162,46.45634056915655],[13.781844899984662,46.456471827913724],[13.78180863350882,46.45618314599571],[13.781586999727162,46.45634056915655]]]}},{"type":"Feature","properties":{"_zoneType":"SI_BUILT","name":"Pozidano zemljišče","authority":"MKGP","dataSource":"raba-3000"},"geometry":{"type":"Polygon","coordinates":[[[13.781581281393171,46.442370554071275],[13.781003993083834,46.44109810192783],[13.778739740655917,46.44124813421611],[13.777654203261674,46.44229018685763],[13.779895684885055,46.44141729956862],[13.781581281393171,46.442370554071275]]]}},{"type":"Feature","properties":{"_zoneType":"SI_BUILT","name":"Pozidano zemljišče","authority":"MKGP","dataSource":"raba-3000"},"geometry":{"type":"Polygon","coordinates":[[[13.779900044922233,46.498617662773775],[13.780013811438764,46.49877509295092],[13.780176649270247,46.49852079590794],[13.779900044922233,46.498617662773775]]]}},{"type":"Feature","properties":{"_zoneType":"SI_BUILT","name":"Pozidano zemljišče","authority":"MKGP","dataSource":"raba-3000"},"geometry":{"type":"Polygon","coordinates":[[[13.780074933410717,46.463191247079756],[13.779782468658725,46.463038365085495],[13.779696793092324,46.463358656824944],[13.780074933410717,46.463191247079756]]]}},{"type":"Feature","properties":{"_zoneType":"SI_BUILT","name":"Pozidano zemljišče","authority":"MKGP","dataSource":"raba-3000"},"geometry":{"type":"Polygon","coordinates":[[[13.779602467406072,46.44762558586085],[13.778346431433866,46.44759360414879],[13.778472644018292,46.44821206467392],[13.779602467406072,46.44762558586085]]]}},{"type":"Feature","properties":{"_zoneType":"SI_BUILT","name":"Pozidano zemljišče","authority":"MKGP","dataSource":"raba-3000"},"geometry":{"type":"Polygon","coordinates":[[[13.778345629526143,46.49902874777542],[13.778333116670428,46.49886634689095],[13.778007360636973,46.49905375131364],[13.778345629526143,46.49902874777542]]]}},{"type":"Feature","properties":{"_zoneType":"SI_BUILT","name":"Pozidano zemljišče","authority":"MKGP","dataSource":"raba-3000"},"geometry":{"type":"Polygon","coordinates":[[[13.778792557133269,46.446006064852035],[13.777781655152328,46.44547236327701],[13.777345797561106,46.4460891469622],[13.778647107285778,46.446182046874156],[13.778792557133269,46.446006064852035]]]}},{"type":"Feature","properties":{"_zoneType":"SI_BUILT","name":"Pozidano zemljišče","authority":"MKGP","dataSource":"raba-3000"},"geometry":{"type":"Polygon","coordinates":[[[13.772220673316166,46.491956763733484],[13.772319914313744,46.49214293045779],[13.772578564037588,46.49186849643156],[13.772220673316166,46.491956763733484]]]}},{"type":"Feature","properties":{"_zoneType":"SI_BUILT","name":"Pozidano zemljišče","authority":"MKGP","dataSource":"raba-3000"},"geometry":{"type":"Polygon","coordinates":[[[13.774595400173462,46.49455012653412],[13.776483595271765,46.49213539186748],[13.775308008359879,46.491869723747364],[13.773217320388163,46.49251293884817],[13.774798088646524,46.492738687003545],[13.774595400173462,46.49455012653412]],[[13.775126773266912,46.49267711336688],[13.775182734971834,46.492160280825445],[13.775822901738232,46.49277635218136],[13.775126773266912,46.49267711336688]]]}},{"type":"Feature","properties":{"_zoneType":"SI_BUILT","name":"Pozidano zemljišče","authority":"MKGP","dataSource":"raba-3000"},"geometry":{"type":"Polygon","coordinates":[[[13.773821650785884,46.47902512359178],[13.773629680215793,46.47890604279795],[13.7731837020381,46.47935891052088],[13.773821650785884,46.47902512359178]]]}},{"type":"Feature","properties":{"_zoneType":"SI_BUILT","name":"Pozidano zemljišče","authority":"MKGP","dataSource":"raba-3000"},"geometry":{"type":"Polygon","coordinates":[[[13.772537579431855,46.49992630230469],[13.772239913219597,46.499995431587955],[13.771553987053487,46.50113756461359],[13.772537579431855,46.49992630230469]]]}},{"type":"Feature","properties":{"_zoneType":"SI_BUILT","name":"Pozidano zemljišče","authority":"MKGP","dataSource":"raba-3000"},"geometry":{"type":"Polygon","coordinates":[[[13.773328850452806,46.49950275274055],[13.77304022406549,46.49936508435491],[13.773033305118773,46.49973027648038],[13.773328850452806,46.49950275274055]]]}},{"type":"Feature","properties":{"_zoneType":"SI_BUILT","name":"Pozidano zemljišče","authority":"MKGP","dataSource":"raba-3000"},"geometry":{"type":"Polygon","coordinates":[[[13.772419235654581,46.49619602137125],[13.772174919320483,46.49604773871286],[13.772214085058788,46.49630618585412],[13.772419235654581,46.49619602137125]]]}},{"type":"Feature","properties":{"_zoneType":"SI_BUILT","name":"Pozidano zemljišče","authority":"MKGP","dataSource":"raba-3000"},"geometry":{"type":"Polygon","coordinates":[[[13.768098553342513,46.486796991439626],[13.768066221241185,46.48698786889211],[13.768465139765876,46.486811942899735],[13.768098553342513,46.486796991439626]]]}},{"type":"Feature","properties":{"_zoneType":"SI_BUILT","name":"Pozidano zemljišče","authority":"MKGP","dataSource":"raba-3000"},"geometry":{"type":"Polygon","coordinates":[[[13.76714661604515,46.50573608903919],[13.766898912429525,46.50560782919561],[13.766962192753606,46.50588584050008],[13.76714661604515,46.50573608903919]]]}},{"type":"Feature","properties":{"_zoneType":"SI_BUILT","name":"Pozidano zemljišče","authority":"MKGP","dataSource":"raba-3000"},"geometry":{"type":"Polygon","coordinates":[[[13.76,46.513763846395406],[13.76,46.51254039042868],[13.75944319487886,46.51251088303351],[13.759611534415015,46.51438161110037],[13.76,46.513763846395406]]]}},{"type":"Feature","properties":{"_zoneType":"SI_BUILT","name":"Pozidano zemljišče","authority":"MKGP","dataSource":"raba-3000"},"geometry":{"type":"Polygon","coordinates":[[[13.760744528428573,46.51257984605459],[13.76,46.51254039042868],[13.76,46.513763846395406],[13.760744528428573,46.51257984605459]]]}},{"type":"Feature","properties":{"_zoneType":"SI_BUILT","name":"Pozidano zemljišče","authority":"MKGP","dataSource":"raba-3000"},"geometry":{"type":"Polygon","coordinates":[[[13.75954617772049,46.475956233469475],[13.76,46.47615466362349],[13.76,46.47601092819524],[13.75954617772049,46.475956233469475]]]}},{"type":"Feature","properties":{"_zoneType":"SI_BUILT","name":"Pozidano zemljišče","authority":"MKGP","dataSource":"raba-3000"},"geometry":{"type":"Polygon","coordinates":[[[13.760693078629787,46.476094458130405],[13.76,46.47601092819524],[13.76,46.47615466362349],[13.760483058468344,46.476365877066726],[13.760693078629787,46.476094458130405]]]}},{"type":"Feature","properties":{"_zoneType":"SI_BUILT","name":"Pozidano zemljišče","authority":"MKGP","dataSource":"raba-3000"},"geometry":{"type":"Polygon","coordinates":[[[13.75853932188466,46.48883853301289],[13.758528213414353,46.488639398625004],[13.75817233214283,46.4888597078853],[13.75853932188466,46.48883853301289]]]}},{"type":"Feature","properties":{"_zoneType":"SI_BUILT","name":"Pozidano zemljišče","authority":"MKGP","dataSource":"raba-3000"},"geometry":{"type":"Polygon","coordinates":[[[13.758009383748329,46.48049932193549],[13.758472316355787,46.480483927893545],[13.758104259152413,46.48016181057116],[13.758009383748329,46.48049932193549]]]}},{"type":"Feature","properties":{"_zoneType":"SI_BUILT","name":"Pozidano zemljišče","authority":"MKGP","dataSource":"raba-3000"},"geometry":{"type":"Polygon","coordinates":[[[13.757342990757257,46.502341183735425],[13.756566103227222,46.503066695781364],[13.757199299072994,46.50391642865841],[13.757402627182708,46.50246355485522],[13.757342990757257,46.502341183735425]]]}},{"type":"Feature","properties":{"_zoneType":"SI_BUILT","name":"Pozidano zemljišče","authority":"MKGP","dataSource":"raba-3000"},"geometry":{"type":"Polygon","coordinates":[[[13.75205141595422,46.496447089107335],[13.751803564233615,46.49630362208979],[13.751843407701028,46.496636146678384],[13.75205141595422,46.496447089107335]]]}},{"type":"Feature","properties":{"_zoneType":"SI_BUILT","name":"Pozidano zemljišče","authority":"MKGP","dataSource":"raba-3000"},"geometry":{"type":"Polygon","coordinates":[[[13.750785575911676,46.49511296249858],[13.75109485498359,46.495091194354664],[13.750803467198919,46.494921832109526],[13.750785575911676,46.49511296249858]]]}},{"type":"Feature","properties":{"_zoneType":"SI_BUILT","name":"Pozidano zemljišče","authority":"MKGP","dataSource":"raba-3000"},"geometry":{"type":"Polygon","coordinates":[[[13.74988983184252,46.49815551367396],[13.750933726176205,46.49848019767509],[13.750060142775858,46.49803929495598],[13.74988983184252,46.49815551367396]]]}},{"type":"Feature","properties":{"_zoneType":"SI_BUILT","name":"Pozidano zemljišče","authority":"MKGP","dataSource":"raba-3000"},"geometry":{"type":"Polygon","coordinates":[[[13.751870419219241,46.43521281472127],[13.751900587985407,46.43498514235451],[13.751562645595731,46.435202734395745],[13.751870419219241,46.43521281472127]]]}},{"type":"Feature","properties":{"_zoneType":"SI_BUILT","name":"Pozidano zemljišče","authority":"MKGP","dataSource":"raba-3000"},"geometry":{"type":"Polygon","coordinates":[[[13.748758504726673,46.51103600880865],[13.749058110190584,46.51113075433785],[13.7488542106019,46.51087850238919],[13.748758504726673,46.51103600880865]]]}},{"type":"Feature","properties":{"_zoneType":"SI_BUILT","name":"Pozidano zemljišče","authority":"MKGP","dataSource":"raba-3000"},"geometry":{"type":"Polygon","coordinates":[[[13.747493995922284,46.497259955476224],[13.747858821531123,46.4973278849712],[13.747573021089995,46.497078551482645],[13.747493995922284,46.497259955476224]]]}},{"type":"Feature","properties":{"_zoneType":"SI_BUILT","name":"Pozidano zemljišče","authority":"MKGP","dataSource":"raba-3000"},"geometry":{"type":"Polygon","coordinates":[[[13.74944011716075,46.40002523695927],[13.74938309891063,46.400000000000006],[13.749192849373461,46.400000000000006],[13.749265195772802,46.40018669812569],[13.74944011716075,46.40002523695927]]]}},{"type":"Feature","properties":{"_zoneType":"SI_BUILT","name":"Pozidano zemljišče","authority":"MKGP","dataSource":"raba-3000"},"geometry":{"type":"Polygon","coordinates":[[[13.745373016143859,46.49845791777749],[13.744436588853956,46.49796346651981],[13.744351930115538,46.498592014393225],[13.745373016143859,46.49845791777749]]]}},{"type":"Feature","properties":{"_zoneType":"SI_BUILT","name":"Pozidano zemljišče","authority":"MKGP","dataSource":"raba-3000"},"geometry":{"type":"Polygon","coordinates":[[[13.746404223314018,46.497942749759886],[13.7460519159343,46.49791856205545],[13.746383072450218,46.49814722226617],[13.746404223314018,46.497942749759886]]]}},{"type":"Feature","properties":{"_zoneType":"SI_BUILT","name":"Pozidano zemljišče","authority":"MKGP","dataSource":"raba-3000"},"geometry":{"type":"Polygon","coordinates":[[[13.746266789558337,46.401833373082255],[13.746586398330667,46.401840784515436],[13.74630150284634,46.401635687034556],[13.746266789558337,46.401833373082255]]]}},{"type":"Feature","properties":{"_zoneType":"SI_BUILT","name":"Pozidano zemljišče","authority":"MKGP","dataSource":"raba-3000"},"geometry":{"type":"Polygon","coordinates":[[[13.744797712142462,46.459419541208185],[13.745120397400415,46.45952798383996],[13.744935339896285,46.45924614743861],[13.744797712142462,46.459419541208185]]]}},{"type":"Feature","properties":{"_zoneType":"SI_BUILT","name":"Pozidano zemljišče","authority":"MKGP","dataSource":"raba-3000"},"geometry":{"type":"Polygon","coordinates":[[[13.745636319351027,46.40273975452273],[13.745945730732865,46.40281087686483],[13.745722820725408,46.40254135376836],[13.745636319351027,46.40273975452273]]]}},{"type":"Feature","properties":{"_zoneType":"SI_BUILT","name":"Pozidano zemljišče","authority":"MKGP","dataSource":"raba-3000"},"geometry":{"type":"Polygon","coordinates":[[[13.743344646567488,46.501454185239844],[13.743024844363571,46.50139233037537],[13.743271548783582,46.501667514251075],[13.743344646567488,46.501454185239844]]]}},{"type":"Feature","properties":{"_zoneType":"SI_BUILT","name":"Pozidano zemljišče","authority":"MKGP","dataSource":"raba-3000"},"geometry":{"type":"Polygon","coordinates":[[[13.743046859325807,46.5032541666201],[13.742809690308116,46.50312322601148],[13.742829947079972,46.5033971958369],[13.743046859325807,46.5032541666201]]]}},{"type":"Feature","properties":{"_zoneType":"SI_BUILT","name":"Pozidano zemljišče","authority":"MKGP","dataSource":"raba-3000"},"geometry":{"type":"Polygon","coordinates":[[[13.731474497339516,46.492475805473],[13.731438684868136,46.49229186152433],[13.73114017035494,46.492504330234475],[13.731474497339516,46.492475805473]]]}},{"type":"Feature","properties":{"_zoneType":"SI_BUILT","name":"Pozidano zemljišče","authority":"MKGP","dataSource":"raba-3000"},"geometry":{"type":"Polygon","coordinates":[[[13.741308061458113,46.47975844095152],[13.740984547043444,46.47969208186433],[13.741179655117472,46.47993036379388],[13.741308061458113,46.47975844095152]]]}},{"type":"Feature","properties":{"_zoneType":"SI_BUILT","name":"Pozidano zemljišče","authority":"MKGP","dataSource":"raba-3000"},"geometry":{"type":"Polygon","coordinates":[[[13.740057019496351,46.50965363171657],[13.738472812332907,46.51089263451223],[13.739295532559453,46.511762062619034],[13.740057019496351,46.50965363171657]]]}},{"type":"Feature","properties":{"_zoneType":"SI_BUILT","name":"Pozidano zemljišče","authority":"MKGP","dataSource":"raba-3000"},"geometry":{"type":"Polygon","coordinates":[[[13.73965793467254,46.503476355853564],[13.73966233747305,46.5032858638487],[13.739303282664231,46.50347244694197],[13.73965793467254,46.503476355853564]]]}},{"type":"Feature","properties":{"_zoneType":"SI_BUILT","name":"Pozidano zemljišče","authority":"MKGP","dataSource":"raba-3000"},"geometry":{"type":"Polygon","coordinates":[[[13.738411116187772,46.51520937055831],[13.738691920754103,46.51408289594078],[13.738190284348098,46.515104761091166],[13.738411116187772,46.51520937055831]]]}},{"type":"Feature","properties":{"_zoneType":"SI_BUILT","name":"Pozidano zemljišče","authority":"MKGP","dataSource":"raba-3000"},"geometry":{"type":"Polygon","coordinates":[[[13.738851852490379,46.50119946162695],[13.738797431296462,46.50100252959973],[13.73852056746919,46.50125272890623],[13.738851852490379,46.50119946162695]]]}},{"type":"Feature","properties":{"_zoneType":"SI_BUILT","name":"Pozidano zemljišče","authority":"MKGP","dataSource":"raba-3000"},"geometry":{"type":"Polygon","coordinates":[[[13.737840078743087,46.505659338529256],[13.737852389956965,46.50548815218472],[13.737546045861196,46.5056483205477],[13.737840078743087,46.505659338529256]]]}},{"type":"Feature","properties":{"_zoneType":"SI_BUILT","name":"Pozidano zemljišče","authority":"MKGP","dataSource":"raba-3000"},"geometry":{"type":"Polygon","coordinates":[[[13.736993552181678,46.492488613864225],[13.737918109537263,46.49275773298494],[13.737216061566887,46.49231262359938],[13.736993552181678,46.492488613864225]]]}},{"type":"Feature","properties":{"_zoneType":"SI_BUILT","name":"Pozidano zemljišče","authority":"MKGP","dataSource":"raba-3000"},"geometry":{"type":"Polygon","coordinates":[[[13.737338327671033,46.515723580355264],[13.73705121862786,46.51568960018937],[13.73696954682152,46.51663878353255],[13.737338327671033,46.515723580355264]]]}},{"type":"Feature","properties":{"_zoneType":"SI_BUILT","name":"Pozidano zemljišče","authority":"MKGP","dataSource":"raba-3000"},"geometry":{"type":"Polygon","coordinates":[[[13.737116185577298,46.48693303891678],[13.737200694267264,46.48714436937554],[13.737449994063194,46.486876078589816],[13.737116185577298,46.48693303891678]]]}},{"type":"Feature","properties":{"_zoneType":"SI_BUILT","name":"Pozidano zemljišče","authority":"MKGP","dataSource":"raba-3000"},"geometry":{"type":"Polygon","coordinates":[[[13.736955107815037,46.50673820010423],[13.736969088989468,46.50649505668299],[13.736607610467413,46.50672510484205],[13.736955107815037,46.50673820010423]]]}},{"type":"Feature","properties":{"_zoneType":"SI_BUILT","name":"Pozidano zemljišče","authority":"MKGP","dataSource":"raba-3000"},"geometry":{"type":"Polygon","coordinates":[[[13.734279121044487,46.48886631693707],[13.733570046512686,46.48777338445553],[13.733780302540389,46.4891045391724],[13.734279121044487,46.48886631693707]]]}},{"type":"Feature","properties":{"_zoneType":"SI_BUILT","name":"Pozidano zemljišče","authority":"MKGP","dataSource":"raba-3000"},"geometry":{"type":"Polygon","coordinates":[[[13.733278167057648,46.48396295899411],[13.733221792705233,46.48407285756614],[13.7342984697053,46.48544206519754],[13.733278167057648,46.48396295899411]]]}},{"type":"Feature","properties":{"_zoneType":"SI_BUILT","name":"Pozidano zemljišče","authority":"MKGP","dataSource":"raba-3000"},"geometry":{"type":"Polygon","coordinates":[[[13.733852897035183,46.486255684619046],[13.734126488983572,46.486151965415694],[13.733705249589361,46.48606380065447],[13.733852897035183,46.486255684619046]]]}},{"type":"Feature","properties":{"_zoneType":"SI_BUILT","name":"Pozidano zemljišče","authority":"MKGP","dataSource":"raba-3000"},"geometry":{"type":"Polygon","coordinates":[[[13.733417842702725,46.49186291339269],[13.733426362239042,46.49163855067262],[13.733077874638447,46.491852903369534],[13.733417842702725,46.49186291339269]]]}},{"type":"Feature","properties":{"_zoneType":"SI_BUILT","name":"Pozidano zemljišče","authority":"MKGP","dataSource":"raba-3000"},"geometry":{"type":"Polygon","coordinates":[[[13.732992829025386,46.50218019001776],[13.733057575522377,46.50199270670781],[13.732677296247427,46.50212406452757],[13.732992829025386,46.50218019001776]]]}},{"type":"Feature","properties":{"_zoneType":"SI_BUILT","name":"Pozidano zemljišče","authority":"MKGP","dataSource":"raba-3000"},"geometry":{"type":"Polygon","coordinates":[[[13.732459293655232,46.50532863243056],[13.732290970410258,46.50519516370393],[13.732238599902221,46.505461209019636],[13.732459293655232,46.50532863243056]]]}},{"type":"Feature","properties":{"_zoneType":"SI_BUILT","name":"Pozidano zemljišče","authority":"MKGP","dataSource":"raba-3000"},"geometry":{"type":"Polygon","coordinates":[[[13.730397695770858,46.493862929012415],[13.731056129155474,46.49375290196246],[13.730432162581916,46.493710481291956],[13.730397695770858,46.493862929012415]]]}},{"type":"Feature","properties":{"_zoneType":"SI_BUILT","name":"Pozidano zemljišče","authority":"MKGP","dataSource":"raba-3000"},"geometry":{"type":"Polygon","coordinates":[[[13.727766387931187,46.488258478727765],[13.728241171523509,46.48747039071725],[13.72765337232266,46.48806770719926],[13.727766387931187,46.488258478727765]]]}},{"type":"Feature","properties":{"_zoneType":"SI_BUILT","name":"Pozidano zemljišče","authority":"MKGP","dataSource":"raba-3000"},"geometry":{"type":"Polygon","coordinates":[[[13.72664435074081,46.506102765883725],[13.726927826356112,46.50623080054885],[13.726825714946495,46.50591594524133],[13.72664435074081,46.506102765883725]]]}},{"type":"Feature","properties":{"_zoneType":"SI_BUILT","name":"Pozidano zemljišče","authority":"MKGP","dataSource":"raba-3000"},"geometry":{"type":"Polygon","coordinates":[[[13.72740682506194,46.486418941627555],[13.727088812269681,46.48638344902068],[13.727367912164485,46.486691405647576],[13.72740682506194,46.486418941627555]]]}},{"type":"Feature","properties":{"_zoneType":"SI_BUILT","name":"Pozidano zemljišče","authority":"MKGP","dataSource":"raba-3000"},"geometry":{"type":"Polygon","coordinates":[[[13.72897735144837,46.406342957193296],[13.728869760797707,46.40614608450074],[13.72857330968768,46.40645206543837],[13.72897735144837,46.406342957193296]]]}},{"type":"Feature","properties":{"_zoneType":"SI_BUILT","name":"Pozidano zemljišče","authority":"MKGP","dataSource":"raba-3000"},"geometry":{"type":"Polygon","coordinates":[[[13.72565625239805,46.4833923384052],[13.725761335828553,46.483780045792784],[13.726094542274797,46.48337668942726],[13.72565625239805,46.4833923384052]]]}},{"type":"Feature","properties":{"_zoneType":"SI_BUILT","name":"Pozidano zemljišče","authority":"MKGP","dataSource":"raba-3000"},"geometry":{"type":"Polygon","coordinates":[[[13.723866821976655,46.505052661787445],[13.723982398425541,46.50487626874879],[13.723549474526328,46.504952269893536],[13.723866821976655,46.505052661787445]]]}},{"type":"Feature","properties":{"_zoneType":"SI_BUILT","name":"Pozidano zemljišče","authority":"MKGP","dataSource":"raba-3000"},"geometry":{"type":"Polygon","coordinates":[[[13.724826690794552,46.50427517053092],[13.724494876869185,46.50415420255935],[13.724698794008104,46.50444898333328],[13.724826690794552,46.50427517053092]]]}},{"type":"Feature","properties":{"_zoneType":"SI_BUILT","name":"Pozidano zemljišče","authority":"MKGP","dataSource":"raba-3000"},"geometry":{"type":"Polygon","coordinates":[[[13.724122579574525,46.50056433089912],[13.724442285492358,46.500619259271375],[13.724250120610314,46.50033193244316],[13.724122579574525,46.50056433089912]]]}},{"type":"Feature","properties":{"_zoneType":"SI_BUILT","name":"Pozidano zemljišče","authority":"MKGP","dataSource":"raba-3000"},"geometry":{"type":"Polygon","coordinates":[[[13.7236102587046,46.51036607336863],[13.7236786832972,46.51016262285634],[13.7232282554957,46.510323414512065],[13.7236102587046,46.51036607336863]]]}},{"type":"Feature","properties":{"_zoneType":"SI_BUILT","name":"Pozidano zemljišče","authority":"MKGP","dataSource":"raba-3000"},"geometry":{"type":"Polygon","coordinates":[[[13.72,46.52252133940305],[13.72,46.5218816164852],[13.719134874290832,46.52152978221185],[13.714250179078732,46.52259252909162],[13.717839706289409,46.522093649641285],[13.72,46.52252133940305]]]}},{"type":"Feature","properties":{"_zoneType":"SI_BUILT","name":"Pozidano zemljišče","authority":"MKGP","dataSource":"raba-3000"},"geometry":{"type":"Polygon","coordinates":[[[13.723065155823551,46.52312817159328],[13.72,46.5218816164852],[13.72,46.52252133940305],[13.723065155823551,46.52312817159328]]]}},{"type":"Feature","properties":{"_zoneType":"SI_BUILT","name":"Pozidano zemljišče","authority":"MKGP","dataSource":"raba-3000"},"geometry":{"type":"Polygon","coordinates":[[[13.722855982484337,46.512673783820944],[13.722852912150673,46.512448445778865],[13.722470353581688,46.51267724945271],[13.722855982484337,46.512673783820944]]]}},{"type":"Feature","properties":{"_zoneType":"SI_BUILT","name":"Pozidano zemljišče","authority":"MKGP","dataSource":"raba-3000"},"geometry":{"type":"Polygon","coordinates":[[[13.722814992805816,46.51379078388412],[13.722790329545177,46.51355655149253],[13.722451262290862,46.513796369999014],[13.722814992805816,46.51379078388412]]]}},{"type":"Feature","properties":{"_zoneType":"SI_BUILT","name":"Pozidano zemljišče","authority":"MKGP","dataSource":"raba-3000"},"geometry":{"type":"Polygon","coordinates":[[[13.722509812732469,46.503176904937455],[13.721852270773855,46.50277762299284],[13.721153028600177,46.50159750771602],[13.72157931006532,46.50298538851941],[13.722509812732469,46.503176904937455]]]}},{"type":"Feature","properties":{"_zoneType":"SI_BUILT","name":"Pozidano zemljišče","authority":"MKGP","dataSource":"raba-3000"},"geometry":{"type":"Polygon","coordinates":[[[13.72208189828873,46.5041157845909],[13.720914703474483,46.5041576731621],[13.721786498931317,46.505405511668314],[13.72208189828873,46.5041157845909]]]}},{"type":"Feature","properties":{"_zoneType":"SI_BUILT","name":"Pozidano zemljišče","authority":"MKGP","dataSource":"raba-3000"},"geometry":{"type":"Polygon","coordinates":[[[13.72133073668194,46.5075927498304],[13.721477516962644,46.50737776496766],[13.7210238790129,46.507476163198426],[13.72133073668194,46.5075927498304]]]}},{"type":"Feature","properties":{"_zoneType":"SI_BUILT","name":"Pozidano zemljišče","authority":"MKGP","dataSource":"raba-3000"},"geometry":{"type":"Polygon","coordinates":[[[13.720997886926629,46.51554738958776],[13.721029300140707,46.51532391755542],[13.720655373019014,46.515511329641924],[13.720997886926629,46.51554738958776]]]}},{"type":"Feature","properties":{"_zoneType":"SI_BUILT","name":"Pozidano zemljišče","authority":"MKGP","dataSource":"raba-3000"},"geometry":{"type":"Polygon","coordinates":[[[13.719691633969653,46.509881023318826],[13.72,46.50991153019321],[13.72,46.50988164004755],[13.719754536550154,46.50967975872179],[13.719691633969653,46.509881023318826]]]}},{"type":"Feature","properties":{"_zoneType":"SI_BUILT","name":"Pozidano zemljišče","authority":"MKGP","dataSource":"raba-3000"},"geometry":{"type":"Polygon","coordinates":[[[13.72004131218271,46.50991561723732],[13.72,46.50988164004755],[13.72,46.50991153019321],[13.72004131218271,46.50991561723732]]]}},{"type":"Feature","properties":{"_zoneType":"SI_BUILT","name":"Pozidano zemljišče","authority":"MKGP","dataSource":"raba-3000"},"geometry":{"type":"Polygon","coordinates":[[[13.719315506088831,46.500919289207765],[13.719634266742432,46.50098296406618],[13.719398047115936,46.5007513843836],[13.719315506088831,46.500919289207765]]]}},{"type":"Feature","properties":{"_zoneType":"SI_BUILT","name":"Pozidano zemljišče","authority":"MKGP","dataSource":"raba-3000"},"geometry":{"type":"Polygon","coordinates":[[[13.718198109790647,46.51087879425557],[13.718536048194467,46.51094159556907],[13.71829457987481,46.51068824267353],[13.718198109790647,46.51087879425557]]]}},{"type":"Feature","properties":{"_zoneType":"SI_BUILT","name":"Pozidano zemljišče","authority":"MKGP","dataSource":"raba-3000"},"geometry":{"type":"Polygon","coordinates":[[[13.716054892864479,46.488104400928755],[13.715780137880845,46.48736244264096],[13.713243682418224,46.48808655039022],[13.716054892864479,46.488104400928755]]]}},{"type":"Feature","properties":{"_zoneType":"SI_BUILT","name":"Pozidano zemljišče","authority":"MKGP","dataSource":"raba-3000"},"geometry":{"type":"Polygon","coordinates":[[[13.712189173194231,46.405814363139434],[13.711995612459518,46.40535852044639],[13.711887303659434,46.40579046735395],[13.712189173194231,46.405814363139434]]]}},{"type":"Feature","properties":{"_zoneType":"SI_BUILT","name":"Pozidano zemljišče","authority":"MKGP","dataSource":"raba-3000"},"geometry":{"type":"Polygon","coordinates":[[[13.70871214121006,46.48872741901464],[13.708983182469234,46.48880234412015],[13.708805185362477,46.48855418925208],[13.70871214121006,46.48872741901464]]]}},{"type":"Feature","properties":{"_zoneType":"SI_BUILT","name":"Pozidano zemljišče","authority":"MKGP","dataSource":"raba-3000"},"geometry":{"type":"Polygon","coordinates":[[[13.708952096702564,46.48230055003522],[13.70864116970934,46.48226123989252],[13.708862554241879,46.48275812099506],[13.708952096702564,46.48230055003522]]]}},{"type":"Feature","properties":{"_zoneType":"SI_BUILT","name":"Pozidano zemljišče","authority":"MKGP","dataSource":"raba-3000"},"geometry":{"type":"Polygon","coordinates":[[[13.709527632960405,46.400000000000006],[13.709473899928332,46.400000000000006],[13.709465592379203,46.400049788760064],[13.709527632960405,46.400000000000006]]]}},{"type":"Feature","properties":{"_zoneType":"SI_BUILT","name":"Pozidano zemljišče","authority":"MKGP","dataSource":"raba-3000"},"geometry":{"type":"Polygon","coordinates":[[[13.707673310265372,46.400273746158504],[13.707364130543697,46.400000000000006],[13.707245433285134,46.400000000000006],[13.707124371949588,46.40041553552436],[13.707673310265372,46.400273746158504]]]}},{"type":"Feature","properties":{"_zoneType":"SI_BUILT","name":"Pozidano zemljišče","authority":"MKGP","dataSource":"raba-3000"},"geometry":{"type":"Polygon","coordinates":[[[13.707345066005448,46.40435889236608],[13.7067998310981,46.40399844580108],[13.707111502323272,46.40452112160803],[13.707345066005448,46.40435889236608]]]}},{"type":"Feature","properties":{"_zoneType":"SI_BUILT","name":"Pozidano zemljišče","authority":"MKGP","dataSource":"raba-3000"},"geometry":{"type":"Polygon","coordinates":[[[13.704658764513049,46.40064509286442],[13.704586722246539,46.400529929010034],[13.704239130907778,46.400664697883705],[13.704658764513049,46.40064509286442]]]}},{"type":"Feature","properties":{"_zoneType":"SI_BUILT","name":"Pozidano zemljišče","authority":"MKGP","dataSource":"raba-3000"},"geometry":{"type":"Polygon","coordinates":[[[13.706035086052442,46.400885216029884],[13.705599389013994,46.400613718695546],[13.705812081479555,46.40105817273032],[13.706035086052442,46.400885216029884]]]}},{"type":"Feature","properties":{"_zoneType":"SI_BUILT","name":"Pozidano zemljišče","authority":"MKGP","dataSource":"raba-3000"},"geometry":{"type":"Polygon","coordinates":[[[13.703152398436135,46.5004757285178],[13.70316174727075,46.50066682578883],[13.703463825247328,46.500447088832004],[13.703152398436135,46.5004757285178]]]}},{"type":"Feature","properties":{"_zoneType":"SI_BUILT","name":"Pozidano zemljišče","authority":"MKGP","dataSource":"raba-3000"},"geometry":{"type":"Polygon","coordinates":[[[13.700639165205454,46.412880853983104],[13.70049026825426,46.41272958338245],[13.700374715147845,46.413015957562216],[13.700639165205454,46.412880853983104]]]}},{"type":"Feature","properties":{"_zoneType":"SI_BUILT","name":"Pozidano zemljišče","authority":"MKGP","dataSource":"raba-3000"},"geometry":{"type":"Polygon","coordinates":[[[13.678044551029148,46.41008999773922],[13.677657226482788,46.41001485033475],[13.677941874769894,46.41030815614888],[13.678044551029148,46.41008999773922]]]}},{"type":"Feature","properties":{"_zoneType":"SI_BUILT","name":"Pozidano zemljišče","authority":"MKGP","dataSource":"raba-3000"},"geometry":{"type":"Polygon","coordinates":[[[13.658028567781557,46.42274188641382],[13.657758170027,46.42266358666853],[13.657926022521657,46.422908267174236],[13.658028567781557,46.42274188641382]]]}},{"type":"Feature","properties":{"_zoneType":"SI_BUILT","name":"Pozidano zemljišče","authority":"MKGP","dataSource":"raba-3000"},"geometry":{"type":"Polygon","coordinates":[[[13.654310757346558,46.419532045063036],[13.654201322373085,46.41934675872615],[13.653915221418025,46.41959465844657],[13.654310757346558,46.419532045063036]]]}},{"type":"Feature","properties":{"_zoneType":"SI_BUILT","name":"Pozidano zemljišče","authority":"MKGP","dataSource":"raba-3000"},"geometry":{"type":"Polygon","coordinates":[[[13.608319594629712,46.42824250568496],[13.608081596257536,46.429300993779236],[13.609082130338953,46.43008092095591],[13.613624739073536,46.431671706620435],[13.61166331173113,46.430546752666174],[13.611669079023887,46.42956305802033],[13.616606439404224,46.43076928026293],[13.616638780364713,46.429957557413324],[13.617785325372123,46.42979853517683],[13.622275981311699,46.432099148292],[13.623777098141346,46.43198017285207],[13.624759011536263,46.433560424458754],[13.624083703313438,46.43582078094264],[13.625739715333825,46.43509375174907],[13.625873855005176,46.43699027463846],[13.62690885709211,46.437324692478725],[13.626169772872023,46.4381935349607],[13.627468831730672,46.43900701280207],[13.629387085461843,46.43823231455965],[13.635714447127583,46.43855326921406],[13.630197455071553,46.43825249315097],[13.629475590980368,46.437221060376196],[13.627489205138426,46.436943798593404],[13.627255971497169,46.43517502399228],[13.625150613290227,46.43462736463962],[13.625056636472051,46.433319176477724],[13.623808932208632,46.43129109493188],[13.622430309213675,46.43188349780958],[13.619872254016641,46.430034547903816],[13.61251594821986,46.427584223232955],[13.6139206548012,46.4294382112902],[13.610238037346232,46.42890915961362],[13.60597675084321,46.42634716966817],[13.600000000000001,46.42465435449629],[13.600000000000001,46.42538518490938],[13.604759043535806,46.42638167492956],[13.608319594629712,46.42824250568496]]]}},{"type":"Feature","properties":{"_zoneType":"SI_BUILT","name":"Pozidano zemljišče","authority":"MKGP","dataSource":"raba-3000"},"geometry":{"type":"Polygon","coordinates":[[[13.609959412864708,46.416991385137116],[13.610325094257375,46.41570905692946],[13.61200725514062,46.41614462870363],[13.615089277962678,46.415133223282936],[13.624846034774897,46.41770885905578],[13.624787796807901,46.416923376850846],[13.619387473590814,46.41376567064904],[13.612487172600234,46.4118362659258],[13.613768729439222,46.410965589986745],[13.618954976047423,46.41277307258314],[13.621526852692574,46.41239940530254],[13.623438553191384,46.41387937323012],[13.62423611816504,46.41290782070539],[13.62495861912434,46.41391294341252],[13.626535763548663,46.4137988457399],[13.626661091384834,46.41503365138606],[13.627791049919013,46.41415396577206],[13.635846136838481,46.416182799125174],[13.64,46.4164218120849],[13.64,46.41612850331344],[13.635179395949217,46.415798888151414],[13.624083207373525,46.412421943827574],[13.620006963784146,46.412060047226994],[13.619805011475874,46.4108077609941],[13.618693785672638,46.411586987092704],[13.613921210053949,46.41035999649664],[13.611547983574079,46.410790070872764],[13.609276850430383,46.40942569566815],[13.606634119806765,46.40880323775557],[13.606079219106618,46.40760232960337],[13.607644477354473,46.407801672110644],[13.607835337445266,46.40711534542555],[13.604889932096237,46.40740758173674],[13.60596850998166,46.40605936390133],[13.60699250300043,46.406192600549645],[13.606882959449177,46.40483992000222],[13.605681316512399,46.40580509739555],[13.60334011750172,46.403364236623624],[13.600000000000001,46.40196176739048],[13.600000000000001,46.402585766666505],[13.60287544138916,46.40341192452292],[13.603261939621273,46.40414546615525],[13.60102687388823,46.404453592964934],[13.600000000000001,46.403522488876966],[13.600000000000001,46.40429777348426],[13.603428798610492,46.40782485659838],[13.602008954665003,46.40917606831496],[13.605259045050383,46.4083083928803],[13.60629833455773,46.41007770373794],[13.6190227339668,46.41393167041584],[13.622449587630213,46.41645410295396],[13.615157467592363,46.414828313216404],[13.61196515785689,46.41578649021132],[13.609188164763824,46.41543204900774],[13.609427295676694,46.41651150995874],[13.606985853010396,46.418382257904106],[13.600000000000001,46.42025255670209],[13.600000000000001,46.420543590787055],[13.607128844666462,46.418651689261466],[13.609959412864708,46.416991385137116]],[[13.611039799104649,46.411377329854076],[13.61130186917767,46.411053312106404],[13.611928461835092,46.41173119374074],[13.611039799104649,46.411377329854076]],[[13.610424957629089,46.41069504424643],[13.608458933505421,46.41051035020438],[13.606401179521683,46.40947907908371],[13.609050200291748,46.40960276495688],[13.610424957629089,46.41069504424643]],[[13.603916382885002,46.40453113670266],[13.604060793992145,46.40493493698903],[13.6029072918997,46.404773794591016],[13.603916382885002,46.40453113670266]]]}},{"type":"Feature","properties":{"_zoneType":"SI_BUILT","name":"Pozidano zemljišče","authority":"MKGP","dataSource":"raba-3000"},"geometry":{"type":"Polygon","coordinates":[[[13.644269836650643,46.41666749815007],[13.649969817269133,46.418804253549624],[13.651221472797733,46.41786956426917],[13.6542710003541,46.418525539638026],[13.65147977731118,46.41763957373474],[13.648899610581543,46.417796924900216],[13.644384355459056,46.41642828940244],[13.64,46.41612850331344],[13.64,46.4164218120849],[13.644269836650643,46.41666749815007]]]}},{"type":"Feature","properties":{"_zoneType":"SI_BUILT","name":"Pozidano zemljišče","authority":"MKGP","dataSource":"raba-3000"},"geometry":{"type":"Polygon","coordinates":[[[13.608274534608,46.40595935908254],[13.607901692765836,46.40586672970191],[13.608148812960488,46.40622170429336],[13.608274534608,46.40595935908254]]]}},{"type":"Feature","properties":{"_zoneType":"SI_BUILT","name":"Pozidano zemljišče","authority":"MKGP","dataSource":"raba-3000"},"geometry":{"type":"Polygon","coordinates":[[[13.609568730506316,46.407234901954986],[13.609339119581334,46.4064390552133],[13.609229315339501,46.407202638882836],[13.609568730506316,46.407234901954986]]]}},{"type":"Feature","properties":{"_zoneType":"SI_BUILT","name":"Pozidano zemljišče","authority":"MKGP","dataSource":"raba-3000"},"geometry":{"type":"Polygon","coordinates":[[[13.608638156444687,46.43061988066854],[13.608966300706895,46.43062387306121],[13.608642317768618,46.43045637924426],[13.608638156444687,46.43061988066854]]]}},{"type":"Feature","properties":{"_zoneType":"SI_BUILT","name":"Pozidano zemljišče","authority":"MKGP","dataSource":"raba-3000"},"geometry":{"type":"Polygon","coordinates":[[[13.646766932618062,46.4187538179828],[13.646764477190668,46.41856644956468],[13.644419294210019,46.41833033597371],[13.646766932618062,46.4187538179828]]]}},{"type":"Feature","properties":{"_zoneType":"SI_BUILT","name":"Pozidano zemljišče","authority":"MKGP","dataSource":"raba-3000"},"geometry":{"type":"Polygon","coordinates":[[[13.652336658294946,46.41941888924338],[13.652133786938752,46.41926472894985],[13.651998942816425,46.41962168682493],[13.652336658294946,46.41941888924338]]]}},{"type":"Feature","properties":{"_zoneType":"SI_BUILT","name":"Pozidano zemljišče","authority":"MKGP","dataSource":"raba-3000"},"geometry":{"type":"Polygon","coordinates":[[[13.650203205190552,46.42255159074726],[13.64997171226578,46.422451184005936],[13.64972534097643,46.42294041349133],[13.650203205190552,46.42255159074726]]]}},{"type":"Feature","properties":{"_zoneType":"SI_BUILT","name":"Pozidano zemljišče","authority":"MKGP","dataSource":"raba-3000"},"geometry":{"type":"Polygon","coordinates":[[[13.636349054377982,46.43971774405935],[13.636698372614054,46.43973378806269],[13.636406434198767,46.43946421112192],[13.636349054377982,46.43971774405935]]]}},{"type":"Feature","properties":{"_zoneType":"SI_BUILT","name":"Pozidano zemljišče","authority":"MKGP","dataSource":"raba-3000"},"geometry":{"type":"Polygon","coordinates":[[[13.639420296357967,46.438216413904556],[13.64,46.43761365750278],[13.64,46.437320511383504],[13.63890682083201,46.43616475177947],[13.639334687402334,46.434661517479796],[13.64,46.43492915538738],[13.64,46.434371750915005],[13.639177063021817,46.4339226366211],[13.638275133700285,46.43608872611334],[13.639284894381772,46.43718159156998],[13.637236123435487,46.439055752586476],[13.64,46.43894037178417],[13.64,46.43846959830121],[13.639420296357967,46.438216413904556]]]}},{"type":"Feature","properties":{"_zoneType":"SI_BUILT","name":"Pozidano zemljišče","authority":"MKGP","dataSource":"raba-3000"},"geometry":{"type":"Polygon","coordinates":[[[13.639718362868521,46.44151401712622],[13.64,46.44316576521773],[13.64,46.44225812441706],[13.639860221378022,46.44212769362158],[13.64,46.441940904254494],[13.64,46.44129382761336],[13.639718362868521,46.44151401712622]]]}},{"type":"Feature","properties":{"_zoneType":"SI_BUILT","name":"Pozidano zemljišče","authority":"MKGP","dataSource":"raba-3000"},"geometry":{"type":"Polygon","coordinates":[[[13.64,46.43846959830121],[13.64,46.43894037178417],[13.640983864991473,46.43889929935223],[13.64,46.43846959830121]]]}},{"type":"Feature","properties":{"_zoneType":"SI_BUILT","name":"Pozidano zemljišče","authority":"MKGP","dataSource":"raba-3000"},"geometry":{"type":"Polygon","coordinates":[[[13.64013979224578,46.437468306214726],[13.64,46.437320511383504],[13.64,46.43761365750278],[13.64013979224578,46.437468306214726]]]}},{"type":"Feature","properties":{"_zoneType":"SI_BUILT","name":"Pozidano zemljišče","authority":"MKGP","dataSource":"raba-3000"},"geometry":{"type":"Polygon","coordinates":[[[13.641936493152134,46.43570815608135],[13.643620885452428,46.43789965646122],[13.642725468575746,46.44],[13.643008653582852,46.44],[13.64394097182866,46.43719591479494],[13.642336883801384,46.43564709513481],[13.64,46.434371750915005],[13.64,46.43492915538738],[13.641936493152134,46.43570815608135]]]}},{"type":"Feature","properties":{"_zoneType":"SI_BUILT","name":"Pozidano zemljišče","authority":"MKGP","dataSource":"raba-3000"},"geometry":{"type":"Polygon","coordinates":[[[13.642284562105807,46.44103421666428],[13.640442328048179,46.44094800674471],[13.64,46.44129382761336],[13.64,46.441940904254494],[13.64054809839085,46.44120846784842],[13.64220332323223,46.441514135931264],[13.643337622281196,46.44381491504539],[13.64134997533152,46.443517818881624],[13.64,46.44225812441706],[13.64,46.44316576521773],[13.640131016624517,46.443934152746614],[13.647204080601938,46.44449816568186],[13.643531752320392,46.44330684749684],[13.642602196436734,46.44122248006519],[13.643008653582852,46.44],[13.642725468575746,46.44],[13.642284562105807,46.44103421666428]]]}},{"type":"Feature","properties":{"_zoneType":"SI_BUILT","name":"Pozidano zemljišče","authority":"MKGP","dataSource":"raba-3000"},"geometry":{"type":"Polygon","coordinates":[[[13.641984284256079,46.417650243071684],[13.642431057716646,46.41762040553781],[13.642030501048446,46.41745938027809],[13.641984284256079,46.417650243071684]]]}},{"type":"Feature","properties":{"_zoneType":"SI_BUILT","name":"Pozidano zemljišče","authority":"MKGP","dataSource":"raba-3000"},"geometry":{"type":"Polygon","coordinates":[[[13.637950931211902,46.41826176770785],[13.637839184752545,46.41816112948964],[13.637474443770962,46.41851872327096],[13.637950931211902,46.41826176770785]]]}},{"type":"Feature","properties":{"_zoneType":"SI_BUILT","name":"Pozidano zemljišče","authority":"MKGP","dataSource":"raba-3000"},"geometry":{"type":"Polygon","coordinates":[[[13.633720288246613,46.417316007524434],[13.633399508318174,46.41715288636122],[13.633384125286195,46.417448300339856],[13.633720288246613,46.417316007524434]]]}},{"type":"Feature","properties":{"_zoneType":"SI_BUILT","name":"Pozidano zemljišče","authority":"MKGP","dataSource":"raba-3000"},"geometry":{"type":"Polygon","coordinates":[[[13.631351303232153,46.4163173743615],[13.63106804405427,46.41621635794809],[13.630960821959679,46.41668969594304],[13.631351303232153,46.4163173743615]]]}},{"type":"Feature","properties":{"_zoneType":"SI_BUILT","name":"Pozidano zemljišče","authority":"MKGP","dataSource":"raba-3000"},"geometry":{"type":"Polygon","coordinates":[[[13.629138976386434,46.43477702295276],[13.628307133030086,46.43398576639138],[13.629062555285763,46.43331527046862],[13.626116945524029,46.43273728412221],[13.628304657271691,46.434750177717866],[13.629138976386434,46.43477702295276]]]}},{"type":"Feature","properties":{"_zoneType":"SI_BUILT","name":"Pozidano zemljišče","authority":"MKGP","dataSource":"raba-3000"},"geometry":{"type":"Polygon","coordinates":[[[13.628389477683708,46.41585702119504],[13.628700731524347,46.4158705894937],[13.628426142954249,46.415671386451905],[13.628389477683708,46.41585702119504]]]}},{"type":"Feature","properties":{"_zoneType":"SI_BUILT","name":"Pozidano zemljišče","authority":"MKGP","dataSource":"raba-3000"},"geometry":{"type":"Polygon","coordinates":[[[13.627266176203339,46.4163291596487],[13.626851755704035,46.41576424819666],[13.626863520042576,46.41637689442358],[13.627266176203339,46.4163291596487]]]}},{"type":"Feature","properties":{"_zoneType":"SI_BUILT","name":"Pozidano zemljišče","authority":"MKGP","dataSource":"raba-3000"},"geometry":{"type":"Polygon","coordinates":[[[13.623588306511909,46.41466265801794],[13.62339018283112,46.41453132875759],[13.6233837430678,46.41481824175007],[13.623588306511909,46.41466265801794]]]}},{"type":"Feature","properties":{"_zoneType":"SI_BUILT","name":"Pozidano zemljišče","authority":"MKGP","dataSource":"raba-3000"},"geometry":{"type":"Polygon","coordinates":[[[13.621155379287506,46.41354229898654],[13.621142103064443,46.4137060047421],[13.622093987818365,46.41407870906948],[13.621155379287506,46.41354229898654]]]}},{"type":"Feature","properties":{"_zoneType":"SI_BUILT","name":"Pozidano zemljišče","authority":"MKGP","dataSource":"raba-3000"},"geometry":{"type":"Polygon","coordinates":[[[13.619101148610872,46.409994278071075],[13.618801782834314,46.409815451644384],[13.618711495788297,46.41027231779245],[13.619101148610872,46.409994278071075]]]}},{"type":"Feature","properties":{"_zoneType":"SI_BUILT","name":"Pozidano zemljišče","authority":"MKGP","dataSource":"raba-3000"},"geometry":{"type":"Polygon","coordinates":[[[13.61499484610893,46.409179739606806],[13.614363157157918,46.40904781618283],[13.614866411048213,46.409377462812046],[13.61499484610893,46.409179739606806]]]}},{"type":"Feature","properties":{"_zoneType":"SI_BUILT","name":"Pozidano zemljišče","authority":"MKGP","dataSource":"raba-3000"},"geometry":{"type":"Polygon","coordinates":[[[13.61228264347065,46.40965435866198],[13.612478065259843,46.409807671264744],[13.612530651671792,46.409525370627186],[13.61228264347065,46.40965435866198]]]}},{"type":"Feature","properties":{"_zoneType":"SI_BUILT","name":"Pozidano zemljišče","authority":"MKGP","dataSource":"raba-3000"},"geometry":{"type":"Polygon","coordinates":[[[13.610805522736069,46.406225050516824],[13.610642031655084,46.406052211261226],[13.610572097578633,46.40633453460023],[13.610805522736069,46.406225050516824]]]}},{"type":"Feature","properties":{"_zoneType":"SI_BUILT","name":"Pozidano zemljišče","authority":"MKGP","dataSource":"raba-3000"},"geometry":{"type":"Polygon","coordinates":[[[13.607054732520451,46.40390339220188],[13.606797578608907,46.403787477963235],[13.606860846505453,46.40409981042413],[13.607054732520451,46.40390339220188]]]}},{"type":"Feature","properties":{"_zoneType":"SI_BUILT","name":"Pozidano zemljišče","authority":"MKGP","dataSource":"raba-3000"},"geometry":{"type":"Polygon","coordinates":[[[13.605969377808027,46.402635168791015],[13.605677686959904,46.402458429445026],[13.60575863568476,46.40280956964363],[13.605969377808027,46.402635168791015]]]}},{"type":"Feature","properties":{"_zoneType":"SI_BUILT","name":"Pozidano zemljišče","authority":"MKGP","dataSource":"raba-3000"},"geometry":{"type":"Polygon","coordinates":[[[13.601010830069207,46.40630504992132],[13.600345881116606,46.40621042031937],[13.600806489037078,46.406534075501234],[13.601010830069207,46.40630504992132]]]}}]}