{"type":"FeatureCollection","features":[{"type":"Feature","properties":{"_zoneType":"SI_BUILT","name":"Pozidano zemljišče","authority":"MKGP","dataSource":"raba-3000"},"geometry":{"type":"Polygon","coordinates":[[[13.589265768327811,45.839443191734695],[13.589143647034419,45.83721665791009],[13.590807880743103,45.83351374687655],[13.594710401701368,45.82759951205909],[13.596863107263385,45.82676886079907],[13.598914376661254,45.82759676668067],[13.5986383102246,45.82971360168259],[13.599921050507957,45.82791828719907],[13.6,45.827978980304884],[13.6,45.82777337223827],[13.597714851779305,45.826701585537776],[13.6,45.8258862972148],[13.6,45.8255100120476],[13.594398151932362,45.82742548665678],[13.593485670764315,45.82712193652901],[13.594497959016373,45.82513546073653],[13.59405476587327,45.82382827693414],[13.592443349699517,45.823284869747155],[13.594050536397122,45.82507698951264],[13.592423953731773,45.8275891834316],[13.594204701288179,45.828040753285144],[13.590501744592341,45.833463386424775],[13.588806146726949,45.837195831325495],[13.588849950777643,45.83948790660252],[13.587559709292533,45.84],[13.588629397628702,45.84],[13.589265768327811,45.839443191734695]]]}},{"type":"Feature","properties":{"_zoneType":"SI_BUILT","name":"Pozidano zemljišče","authority":"MKGP","dataSource":"raba-3000"},"geometry":{"type":"Polygon","coordinates":[[[13.583056370055184,45.83948515085478],[13.583076107839341,45.84],[13.583326529568614,45.84],[13.583056370055184,45.83948515085478]]]}},{"type":"Feature","properties":{"_zoneType":"SI_BUILT","name":"Pozidano zemljišče","authority":"MKGP","dataSource":"raba-3000"},"geometry":{"type":"Polygon","coordinates":[[[13.596305253399311,45.814940179105136],[13.599244755863191,45.8140077337654],[13.6,45.81402481381232],[13.6,45.813180047291894],[13.597670792483193,45.81353493345781],[13.596305253399311,45.814940179105136]]]}},{"type":"Feature","properties":{"_zoneType":"SI_BUILT","name":"Pozidano zemljišče","authority":"MKGP","dataSource":"raba-3000"},"geometry":{"type":"Polygon","coordinates":[[[13.579604138079738,45.845388369227436],[13.580936174302433,45.845403614676144],[13.580674758521845,45.846999727992376],[13.579469756478563,45.84746487267555],[13.580156943893092,45.84801401951111],[13.57921435534018,45.849731034889544],[13.577317442559064,45.84984647996016],[13.580347134017924,45.85102848376691],[13.59005189100328,45.85114866646075],[13.59057746385134,45.850398563701624],[13.592405971436726,45.851042360328854],[13.597088211493295,45.850346225446756],[13.5991914944246,45.85104367867906],[13.6,45.85089590279166],[13.6,45.85066042383947],[13.599358831694284,45.8507840315144],[13.59691981752996,45.850081481350664],[13.592353107362579,45.85078850565997],[13.589657774454478,45.84861730035823],[13.584289712670131,45.849379767799135],[13.584959998734407,45.847935182201844],[13.583896694420007,45.847463040177544],[13.585019161666832,45.844076645384995],[13.586635272787813,45.84508331046414],[13.588302141830304,45.84469527405518],[13.58443126472319,45.8432962521466],[13.584972684029411,45.841189358415356],[13.58660651101303,45.8409179919077],[13.589496985885267,45.84214388439914],[13.587763951263476,45.84075724367891],[13.588629397628702,45.84],[13.587559709292533,45.84],[13.584056193006141,45.8413905362515],[13.583326529568614,45.84],[13.583076107839341,45.84],[13.583150154071358,45.84193145486637],[13.581750487175016,45.841819720098634],[13.581896362148578,45.84288177473368],[13.580036118254368,45.84229141648535],[13.579421147085098,45.840786765752696],[13.579806012190105,45.8431624337152],[13.574699166126086,45.84313645321487],[13.578679475200206,45.84334361717458],[13.579604138079738,45.845388369227436]],[[13.58434905004315,45.843629707084766],[13.583466354285536,45.84761077421677],[13.583715493001982,45.849821941066786],[13.579538293781965,45.85005612797781],[13.581172471932781,45.84614390857512],[13.581502403719455,45.84429589949424],[13.58434905004315,45.843629707084766]]]}},{"type":"Feature","properties":{"_zoneType":"SI_BUILT","name":"Pozidano zemljišče","authority":"MKGP","dataSource":"raba-3000"},"geometry":{"type":"Polygon","coordinates":[[[13.600000000000001,45.827978980304884],[13.600000000000001,45.82777337223827],[13.6,45.82777337223827],[13.6,45.827978980304884],[13.600000000000001,45.827978980304884]]]}},{"type":"Feature","properties":{"_zoneType":"SI_BUILT","name":"Pozidano zemljišče","authority":"MKGP","dataSource":"raba-3000"},"geometry":{"type":"Polygon","coordinates":[[[13.600000000000001,45.8258862972148],[13.600000000000001,45.8255100120476],[13.6,45.8255100120476],[13.6,45.8258862972148],[13.600000000000001,45.8258862972148]]]}},{"type":"Feature","properties":{"_zoneType":"SI_BUILT","name":"Pozidano zemljišče","authority":"MKGP","dataSource":"raba-3000"},"geometry":{"type":"Polygon","coordinates":[[[13.600000000000001,45.81402481381232],[13.600000000000001,45.813180047291894],[13.6,45.813180047291894],[13.6,45.81402481381232],[13.600000000000001,45.81402481381232]]]}},{"type":"Feature","properties":{"_zoneType":"SI_BUILT","name":"Pozidano zemljišče","authority":"MKGP","dataSource":"raba-3000"},"geometry":{"type":"Polygon","coordinates":[[[13.600000000000001,45.85089590279166],[13.600000000000001,45.85066042383947],[13.6,45.85066042383947],[13.6,45.85089590279166],[13.600000000000001,45.85089590279166]]]}},{"type":"Feature","properties":{"_zoneType":"SI_BUILT","name":"Pozidano zemljišče","authority":"MKGP","dataSource":"raba-3000"},"geometry":{"type":"Polygon","coordinates":[[[13.576307603755364,45.849599499187505],[13.576483531798663,45.84973789946167],[13.576511864139759,45.84947866166872],[13.576307603755364,45.849599499187505]]]}},{"type":"Feature","properties":{"_zoneType":"SI_BUILT","name":"Pozidano zemljišče","authority":"MKGP","dataSource":"raba-3000"},"geometry":{"type":"Polygon","coordinates":[[[13.580819973100033,45.841361718198065],[13.580953911742968,45.841535915273255],[13.581051500466087,45.84127269837369],[13.580819973100033,45.841361718198065]]]}},{"type":"Feature","properties":{"_zoneType":"SI_BUILT","name":"Pozidano zemljišče","authority":"MKGP","dataSource":"raba-3000"},"geometry":{"type":"Polygon","coordinates":[[[13.594485999460414,45.84588337896277],[13.5951458071313,45.845028961921344],[13.59275456758726,45.846251861217226],[13.594485999460414,45.84588337896277]]]}},{"type":"Feature","properties":{"_zoneType":"SI_BUILT","name":"Pozidano zemljišče","authority":"MKGP","dataSource":"raba-3000"},"geometry":{"type":"Polygon","coordinates":[[[13.57841343046754,45.84516298378066],[13.577988312952478,45.84466824321711],[13.578072706087132,45.8453174426054],[13.57841343046754,45.84516298378066]]]}},{"type":"Feature","properties":{"_zoneType":"SI_BUILT","name":"Pozidano zemljišče","authority":"MKGP","dataSource":"raba-3000"},"geometry":{"type":"Polygon","coordinates":[[[13.576004565859757,45.84839485504776],[13.576360134897529,45.84854518747728],[13.57610825288024,45.848289574410686],[13.576004565859757,45.84839485504776]]]}},{"type":"Feature","properties":{"_zoneType":"SI_BUILT","name":"Pozidano zemljišče","authority":"MKGP","dataSource":"raba-3000"},"geometry":{"type":"Polygon","coordinates":[[[13.518275229130744,45.974577596808395],[13.517432410471608,45.97521316869469],[13.51809167326334,45.97731404695966],[13.516361673978396,45.977618279393006],[13.518924081972015,45.978457372217996],[13.51754762258558,45.981012712123324],[13.5112148410408,45.982697955844245],[13.509687463709664,45.98183380700702],[13.510775322498437,45.97998124453106],[13.509214225793416,45.98103626003077],[13.508271240432657,45.979500743299205],[13.507961127292848,45.980483933524276],[13.506493652122037,45.980310380861695],[13.50804787895827,45.98142250125997],[13.508096142135757,45.9826625547873],[13.506295932587689,45.98307740589804],[13.501849553172432,45.98025351775448],[13.498408443731332,45.98470737882151],[13.497082875719034,45.98456099918647],[13.498890083501959,45.985052684452285],[13.500879196529155,45.98231408353801],[13.503855718356427,45.98242370587904],[13.50552377520317,45.98414315570598],[13.50409335761713,45.98617011032078],[13.502719617940832,45.986216608176676],[13.503472903381239,45.98694113790722],[13.502996848713758,45.98847099451948],[13.50624468650298,45.987505778119676],[13.506275171180539,45.98635054998058],[13.508652373648406,45.98646193594588],[13.50555996502785,45.98561041024696],[13.506014332586366,45.98337065787076],[13.508983724781707,45.982667728964515],[13.512382653192558,45.983293479481134],[13.511333324556864,45.98512892091986],[13.51229506712325,45.985640222467296],[13.514322610902214,45.98285176358155],[13.518756345908395,45.981728346211845],[13.519074615762863,45.98263798787589],[13.517878546119606,45.98305377013833],[13.519581372434256,45.983390798367104],[13.51762694918998,45.984134378186596],[13.517086133541072,45.9862202691863],[13.517738394931307,45.987279706401935],[13.514002871872734,45.98858954817722],[13.517069862677097,45.98814950095671],[13.518188135923944,45.98720786929469],[13.518069253156133,45.98632556876661],[13.52,45.98654162440179],[13.52,45.985072661689586],[13.518907185606983,45.98560810785541],[13.518488510577585,45.98434611822014],[13.519926521384978,45.98446331355657],[13.52,45.98453669357958],[13.52,45.98161027857667],[13.518941433256936,45.98018997995466],[13.52,45.97985895362671],[13.52,45.976469548399315],[13.51895486295436,45.97606061158452],[13.52,45.97552283391418],[13.52,45.97439707553418],[13.518275229130744,45.974577596808395]],[[13.505392202278921,45.98695700402089],[13.503992434737446,45.987596134723134],[13.504659980298337,45.98642097217837],[13.505392202278921,45.98695700402089]],[[13.502998654696023,45.98213198036196],[13.501853421508432,45.98196295517807],[13.503100924272527,45.981175485168976],[13.502998654696023,45.98213198036196]]]}},{"type":"Feature","properties":{"_zoneType":"SI_BUILT","name":"Pozidano zemljišče","authority":"MKGP","dataSource":"raba-3000"},"geometry":{"type":"Polygon","coordinates":[[[13.518982685168314,45.99000526431331],[13.519892789365395,45.99062805165899],[13.51878143718514,45.99237636111639],[13.51575585929784,45.99472615924828],[13.512346413809318,45.99337543331416],[13.51158817311353,45.992093423832586],[13.51179576624652,45.99341627078045],[13.51540325255435,45.99497845848472],[13.51391959753176,45.99640626926228],[13.513829905270981,45.998413527840334],[13.512021907921792,45.998448692963706],[13.51319392478039,45.995118663421096],[13.509946183743947,45.99672769468179],[13.512490123290071,45.99708306933216],[13.510966943964736,45.998928225107484],[13.50629710437656,45.997440259665105],[13.504831323042227,45.99592975849704],[13.506054112512908,45.994751397964535],[13.503443801589047,45.99574410097819],[13.502434227772609,45.99376571013284],[13.50438285866836,45.99383410679267],[13.502556809826624,45.99332665380831],[13.502900959426242,45.99244998251949],[13.508478932099086,45.99189531840796],[13.505332813351911,45.99157172904961],[13.502115442379079,45.99262772590762],[13.501147635325964,45.99177835160673],[13.500811993437182,45.99303256104253],[13.502059911610415,45.99328700705918],[13.50315277277382,45.9970698296392],[13.499376316394894,45.997621076638715],[13.496765428779025,45.99597791708292],[13.497451633973496,45.99440876768219],[13.495541224447122,45.993748303716515],[13.496257143416097,45.99142313007963],[13.497778815651898,45.99193857475796],[13.499172627896192,45.9910240406115],[13.495291100051805,45.99042633444572],[13.49515888928495,45.991475454573994],[13.494003217246695,45.991251205884076],[13.495820179899026,45.99222484004684],[13.493969987494994,45.99365594248484],[13.494179808347049,45.99492930525972],[13.492019826676547,45.995311596242345],[13.490424776416935,45.99440315414936],[13.489425369108305,45.9953863928214],[13.490779264642123,45.99494880971708],[13.491317914296774,45.99578346259349],[13.486714964490151,45.99753285054886],[13.488284697312196,45.997749473621056],[13.487991879636237,45.99864736089181],[13.488700123188895,45.99982897886395],[13.48823650514307,46.0],[13.491354822825027,46.0],[13.492842902579973,45.99967832141676],[13.494087766909713,46.0],[13.494953246974559,46.0],[13.488402197172583,45.99870990900266],[13.488742146883036,45.99747191817192],[13.491146866487698,45.996126409964376],[13.49567046781831,45.99599609779358],[13.497854722981657,45.997232468526384],[13.495036496267158,45.997555045925274],[13.500007156453055,45.9983405729694],[13.49902306507265,45.9992228410113],[13.504608246038424,45.997777699733206],[13.50867212084711,45.999594665920135],[13.50919864112332,45.99886269997468],[13.5137777248107,45.99968833418046],[13.516087748229578,45.99951760401423],[13.5163691582515,46.0],[13.518711116101999,46.0],[13.52,45.99993417481607],[13.52,45.99887078969164],[13.518319951252913,45.99979297592049],[13.516683939060355,45.999171231162556],[13.518952527721655,45.99653638228855],[13.518026089500225,45.99637585586043],[13.51607322459808,45.999163423254544],[13.513494996179954,45.99936497489849],[13.514459383141478,45.99837942058543],[13.51429278907238,45.99639277397107],[13.5180901667018,45.99302645194697],[13.52,45.993227708336725],[13.52,45.98979865857922],[13.518982685168314,45.99000526431331]],[[13.496240562853576,45.99545032886201],[13.49398669066676,45.99586407729589],[13.495478664863768,45.9944596159303],[13.496240562853576,45.99545032886201]]]}},{"type":"Feature","properties":{"_zoneType":"SI_BUILT","name":"Pozidano zemljišče","authority":"MKGP","dataSource":"raba-3000"},"geometry":{"type":"Polygon","coordinates":[[[13.559562841719695,45.97099153931636],[13.558568591347246,45.96983648209438],[13.559080206369789,45.971758975275996],[13.558387628195725,45.97214955696974],[13.55503299460555,45.972168173195016],[13.554309127368231,45.97076902159206],[13.552072126726745,45.97305047309224],[13.550899679929042,45.97158914567387],[13.545470846551423,45.97007168742027],[13.5439081861234,45.96824072650715],[13.544246368407705,45.967474157565945],[13.541845771012115,45.96619890746735],[13.542312634866597,45.9646977357988],[13.538076896782208,45.96732147381364],[13.533465525691087,45.966251224608875],[13.531743670849249,45.96730317810515],[13.53235807184809,45.96869029975509],[13.52784054494726,45.96716058096569],[13.530146675764167,45.96877271948821],[13.530462116473567,45.97183482124588],[13.529168802309615,45.972165979647315],[13.529467287040482,45.97451765889837],[13.52489793553643,45.97519695884919],[13.522163585073748,45.97411966934079],[13.52187233191985,45.972819944422554],[13.520210569641776,45.973612267513175],[13.520786546117304,45.97431475253705],[13.52,45.97439707553418],[13.52,45.97552283391418],[13.521463244058815,45.97476991831867],[13.525127587744107,45.97548852023106],[13.526645671042303,45.97525764580327],[13.526088677804339,45.97638414673681],[13.527054320151832,45.97686294242991],[13.524984468905547,45.97898214727161],[13.523870038769752,45.97845685773827],[13.525024692612078,45.97727913375993],[13.521302641715053,45.97911644829052],[13.520173285806752,45.977363784371974],[13.5210352010693,45.97687459750719],[13.52,45.976469548399315],[13.52,45.97985895362671],[13.520419946836807,45.979727631288995],[13.522489887570696,45.981583750133666],[13.521066177879314,45.979488024009456],[13.52587579973654,45.979731636681876],[13.525392902955705,45.979052935833174],[13.52714000821901,45.9772604291755],[13.52823096990763,45.978682824673335],[13.528645072245235,45.977895291437946],[13.527238403516243,45.975508930480984],[13.52904373325996,45.97523901827258],[13.531109736100232,45.98169051410575],[13.527732390198947,45.98302834256904],[13.530473885731027,45.982449405840704],[13.530922088049513,45.98501881354488],[13.529289744118781,45.98730719571717],[13.52393244866119,45.98426358872951],[13.525217979336121,45.98346361862751],[13.528193599011768,45.9845928878737],[13.525594476096753,45.98322148032091],[13.527468661984038,45.98182509599393],[13.524603460359016,45.9825787086752],[13.523209491066266,45.98412329569946],[13.521391065635495,45.983476697126235],[13.52,45.98161027857667],[13.52,45.98453669357958],[13.520360041638261,45.98489625212179],[13.52,45.985072661689586],[13.52,45.98654162440179],[13.520070042742628,45.98654946236837],[13.520240840158317,45.98974974652549],[13.52,45.98979865857922],[13.52,45.993227708336725],[13.520333192107262,45.99326281979942],[13.521127483001234,45.99597011209094],[13.523075448298005,45.9971826624436],[13.52,45.99887078969164],[13.52,45.99993417481607],[13.522168533571248,45.999823424638016],[13.521550649310566,46.0],[13.524394175611162,46.0],[13.524279606419801,45.99992202381845],[13.5250617618335,45.99788807824013],[13.526998942534862,45.99926872769676],[13.528821172307067,45.99889137440212],[13.530904996517508,45.9998883335491],[13.531010992055698,46.0],[13.533599067528923,46.0],[13.531321084520814,45.99977659256013],[13.529125209001421,45.99757080254683],[13.529591397603204,45.996430513635424],[13.52834971840478,45.99416653879834],[13.529230465746165,45.99347551232174],[13.529309090214532,45.99108689128976],[13.528566176297558,45.99024408653013],[13.530363699681748,45.98628306157656],[13.532040230533186,45.98490464617512],[13.531832705462818,45.986888774934464],[13.5330570970005,45.987447049690665],[13.532306096675482,45.989427600446184],[13.531217862473772,45.98975759285874],[13.532848092675435,45.99076108860874],[13.5336963878854,45.99350336060375],[13.532930860519205,45.99400956069977],[13.534627615642126,45.99557308129108],[13.534302805599545,45.996913782706685],[13.533073039979223,45.997229623455574],[13.534071430420882,45.99816492208878],[13.533991016447606,46.0],[13.535268517378412,46.0],[13.53532728758515,45.99879519083732],[13.536518712850617,45.998446806088054],[13.535884807126823,45.99746511206954],[13.539561345033146,45.997248861439765],[13.535615233250848,45.996107107871126],[13.536863403135014,45.994668425559595],[13.539458438353206,45.99421643476908],[13.537366981550782,45.99336364850769],[13.53653309047688,45.99434511396283],[13.534229438766916,45.994177984346514],[13.533728808325282,45.992055911932],[13.536358797299622,45.991909433250335],[13.533364030094361,45.99115080390068],[13.534886780719525,45.990046813832876],[13.532875073743366,45.98989229932151],[13.532603545407556,45.988777067218905],[13.534157562680344,45.987841862192305],[13.532543096204181,45.98626447010624],[13.533848962296126,45.98575075462535],[13.536333428548234,45.9873793691397],[13.538729817750495,45.98978541720536],[13.53827637164941,45.990979284410315],[13.54067942927921,45.99104451272629],[13.538898456561961,45.99074910811856],[13.539304178799538,45.98982341739804],[13.5366635621028,45.98732040276026],[13.531347885407031,45.98416446280952],[13.531371062048747,45.97917288120407],[13.530537445885113,45.976635879861945],[13.532768942082821,45.975759853280294],[13.534298711659885,45.97635833546902],[13.534157357421677,45.97728842993412],[13.532288484497473,45.97735801439237],[13.533137854007679,45.977778937294],[13.536292216731455,45.97657386510555],[13.535662192515442,45.97787668153626],[13.537213491940532,45.978291357831544],[13.536406093065203,45.979048613906166],[13.536855670080454,45.97990579714398],[13.53343455416955,45.98221178599199],[13.537909971716838,45.98223341873691],[13.538499890520894,45.983625814571184],[13.537321116465886,45.98404777482657],[13.541260999926205,45.9844759869953],[13.54171279884005,45.9861883855545],[13.543264125020576,45.985880548696265],[13.544750766698664,45.98725334862264],[13.54283513962427,45.98900600762917],[13.547157263845195,45.98975170505396],[13.54550341114405,45.990512229578634],[13.546652946450012,45.99169483790204],[13.546177927635418,45.992417604792124],[13.543495704068176,45.99235115773677],[13.54541398283279,45.993153024974745],[13.542885127415712,45.993805279042114],[13.54473237657637,45.99402698315842],[13.547080476757628,45.992793161288034],[13.547751627622333,45.9939534027886],[13.549359486383803,45.99309675339241],[13.54880475567892,45.9939913822941],[13.550233258937805,45.99367884162483],[13.555953902763672,45.99844324874649],[13.556708655437342,46.0],[13.558942157602903,46.0],[13.55553074011233,45.997187706029266],[13.556308636614467,45.996025028635046],[13.554027759005727,45.99586498931662],[13.552042687021935,45.99393458680088],[13.555139797252295,45.99363360599572],[13.550994215276353,45.992991914010624],[13.54957048315556,45.99114994688477],[13.550737898938852,45.990725349508395],[13.549668256755071,45.99022966777202],[13.550390276898842,45.989678599593354],[13.547377624567382,45.98862639850704],[13.548300597499134,45.9873855925898],[13.54995603570293,45.987896035267774],[13.549984891868004,45.98672625692937],[13.549388934100486,45.986519734990075],[13.546964360805049,45.988160911398694],[13.545413375674286,45.98741758956207],[13.547014278044344,45.986986836712916],[13.544679153318983,45.98637723654696],[13.544236524565465,45.98443634602239],[13.546989363039927,45.984351438964644],[13.547470750452401,45.98299382949989],[13.548624069554128,45.982961719341965],[13.546442884206227,45.982976914472395],[13.546055886878799,45.98390225895606],[13.544175191143074,45.983442283556066],[13.54712560711903,45.97865646468969],[13.544735370071137,45.980314259134346],[13.544941002167455,45.98178933428143],[13.543383631177726,45.982533052867204],[13.543968020062344,45.9838508620199],[13.543177023682906,45.98540956600902],[13.542071644301224,45.984029828987715],[13.539578233157266,45.983442636434035],[13.539237133254959,45.9818864599893],[13.537756861761588,45.981767340619044],[13.537699845587845,45.98028475353976],[13.539296250338518,45.979314271430866],[13.541524487050173,45.98067316506278],[13.542885295799202,45.97979219003295],[13.541290659132068,45.98025327347931],[13.53956430447109,45.97849736750601],[13.543165563747229,45.97736783025453],[13.545856064926719,45.97783567796237],[13.54580048983077,45.97681480642815],[13.547178386849179,45.976413363117956],[13.549102045363936,45.97662960526385],[13.551049192839299,45.98228967227121],[13.554339407872224,45.98417457630125],[13.557913500893951,45.98820305422141],[13.56,45.98876571952031],[13.56,45.98857265033206],[13.558891134972518,45.98828455694737],[13.556867060714845,45.986547123687515],[13.557480743595127,45.985492548048704],[13.55585273644858,45.98523533992815],[13.556735961595756,45.98452155210869],[13.55525199115882,45.984631307511364],[13.551428682265245,45.98222396846329],[13.550698073204096,45.97961914558448],[13.553799616787863,45.97887206684018],[13.55471784990456,45.982451021217],[13.5559268365534,45.98202308965808],[13.554875630544961,45.98060347466461],[13.555670814970318,45.98014220655349],[13.559453831607378,45.981806348122575],[13.56,45.98179947644954],[13.56,45.980945191183736],[13.559664163280495,45.981354412013125],[13.557981284031726,45.980832199463265],[13.556881102424784,45.97922436373099],[13.557632213084238,45.9775079922774],[13.556195177896457,45.97895928894014],[13.552205006405872,45.97644244963037],[13.552008219151844,45.975203980910145],[13.554877862948162,45.9758241634463],[13.556108908897157,45.97567140335019],[13.555905615205637,45.97488196825169],[13.55754315096474,45.97514995659663],[13.55456267738264,45.97406237613668],[13.555009761561951,45.97252954996876],[13.558433908666633,45.97238765115857],[13.56,45.971677233586945],[13.56,45.97078577354214],[13.559562841719695,45.97099153931636]],[[13.556882554329846,45.98007030188149],[13.555895488140028,45.97961535556154],[13.556918672810129,45.97943133932561],[13.556882554329846,45.98007030188149]],[[13.55368888867427,45.97366915186602],[13.55253227096912,45.973474237054035],[13.553685403245662,45.9731437542184],[13.55368888867427,45.97366915186602]],[[13.553284847789097,45.97439726766171],[13.55234594399746,45.97476327239483],[13.549833195664348,45.97249659775319],[13.550583718097707,45.97242314501202],[13.553284847789097,45.97439726766171]],[[13.552290215429458,45.97810426893185],[13.550698035712864,45.979152795744355],[13.549900837991174,45.978262252383686],[13.5511279563174,45.97717572926106],[13.552290215429458,45.97810426893185]],[[13.54905630719573,45.974367883373596],[13.551511843531419,45.97475078164819],[13.550563652546426,45.97648541053552],[13.549393629906342,45.97640930201211],[13.54905630719573,45.974367883373596]],[[13.550347933159628,45.973906466381294],[13.549313732602265,45.974001553630245],[13.549987748141449,45.973359666622244],[13.550347933159628,45.973906466381294]],[[13.54867841127213,45.990682408799955],[13.548033665961384,45.990137540965556],[13.549277363000078,45.9900592237544],[13.54867841127213,45.990682408799955]],[[13.542173624052575,45.97451972744559],[13.543840706142976,45.97375254739993],[13.54100800247967,45.973812041908594],[13.540821470530654,45.97287245439439],[13.542650146046546,45.97232458423223],[13.537984454053522,45.97300090856242],[13.53920196553318,45.97086337399627],[13.543278428849195,45.97094507954317],[13.540420193505886,45.96977341825697],[13.541984567920565,45.96702257357053],[13.54618953975775,45.97117456611643],[13.546286479754308,45.97209486050693],[13.54491383878897,45.973011345694076],[13.54667661305293,45.97222124598998],[13.547019922243795,45.97101965988855],[13.548708986092208,45.97334649217123],[13.548094011962021,45.974737804246956],[13.548682907063023,45.97612331493821],[13.544643533689259,45.975805595124214],[13.54536210796496,45.976467628797636],[13.544435322200965,45.97756440206429],[13.542557800607327,45.976559860777726],[13.54106970876005,45.977728776694384],[13.538473016458143,45.977832282695175],[13.537332658071522,45.975354892711785],[13.537823924186323,45.97401032829526],[13.542173624052575,45.97451972744559]],[[13.53946949243093,45.96716889474523],[13.540250572917536,45.96848312019191],[13.539339074057942,45.970029792394655],[13.537572263795465,45.967900344115264],[13.53946949243093,45.96716889474523]],[[13.53770864334139,45.97328027570603],[13.537618109480109,45.97366892035274],[13.535997336114793,45.97350179059312],[13.53770864334139,45.97328027570603]],[[13.536542867574367,45.96753941937815],[13.537515297141292,45.97086008006508],[13.53506764240027,45.970596143305],[13.536092141929947,45.96931866172898],[13.535214755511012,45.967176323313375],[13.536542867574367,45.96753941937815]],[[13.535755708342089,45.9812788860241],[13.53686880383075,45.9812143055803],[13.536023500984976,45.98173748510467],[13.535755708342089,45.9812788860241]],[[13.536807327797819,45.9717708624525],[13.536432535496491,45.972662504862484],[13.532675385533686,45.97356136415622],[13.531153347789063,45.972431871573306],[13.530908160375393,45.96939251885927],[13.536807327797819,45.9717708624525]],[[13.535248863129116,45.97448396714852],[13.530616012208306,45.97587286407322],[13.529826899695887,45.974919108702174],[13.531242220591691,45.97375241860993],[13.535248863129116,45.97448396714852]],[[13.523108150553474,45.98810033394341],[13.523644603267659,45.989413055168455],[13.524765627752338,45.98877583419331],[13.52796639573678,45.99022202784113],[13.528608936664101,45.991281359765175],[13.527640560582153,45.99184490347319],[13.528772291706384,45.99304832315296],[13.526903833378135,45.994303186323684],[13.528463077408642,45.994703415617984],[13.528725420938317,45.995836193316194],[13.522837028372724,45.9960379913276],[13.523334611081566,45.99486466880012],[13.522350331935092,45.99305078623774],[13.52482006208226,45.99299715728565],[13.525241144907755,45.99203776961357],[13.527537344057825,45.99253039300816],[13.525215626542261,45.991687314238206],[13.521563485976019,45.99203345842416],[13.522281188309991,45.99009901463319],[13.52048693479968,45.98895636253576],[13.52077493255275,45.987947237013],[13.523108150553474,45.98810033394341]],[[13.522268889667552,45.98706399705548],[13.525469787021331,45.98616755529966],[13.528863394251477,45.988433977253585],[13.527248240018668,45.98986618075411],[13.526832088027872,45.98879596211862],[13.521173512900543,45.98753091536115],[13.521475119731571,45.98594725992655],[13.522494696386579,45.98606753903361],[13.522268889667552,45.98706399705548]],[[13.525053178971616,45.985647323247974],[13.523293017871241,45.98616048954627],[13.52273043587135,45.985784835705104],[13.523488460979937,45.98476902867172],[13.525053178971616,45.985647323247974]],[[13.522859300334844,45.99473231154458],[13.522129927833017,45.995926468357446],[13.521492723914914,45.99544872483538],[13.522021489971875,45.9943738904355],[13.522859300334844,45.99473231154458]],[[13.522151150673935,45.9938898277451],[13.521722644885408,45.99418939980929],[13.521567523520448,45.99336235520858],[13.522151150673935,45.9938898277451]],[[13.520809649244585,45.99158531933735],[13.52064738132273,45.99204467419062],[13.520029933135172,45.99145344878653],[13.520809649244585,45.99158531933735]]]}},{"type":"Feature","properties":{"_zoneType":"SI_BUILT","name":"Pozidano zemljišče","authority":"MKGP","dataSource":"raba-3000"},"geometry":{"type":"Polygon","coordinates":[[[13.559493686621815,45.98619592761751],[13.56,45.98591610874937],[13.56,45.98586419730369],[13.559493686621815,45.98619592761751]]]}},{"type":"Feature","properties":{"_zoneType":"SI_BUILT","name":"Pozidano zemljišče","authority":"MKGP","dataSource":"raba-3000"},"geometry":{"type":"Polygon","coordinates":[[[13.559913738226161,45.993106437192495],[13.557833261206623,45.99288433383593],[13.56,45.99432206330057],[13.56,45.99300413882404],[13.559913738226161,45.993106437192495]]]}},{"type":"Feature","properties":{"_zoneType":"SI_BUILT","name":"Pozidano zemljišče","authority":"MKGP","dataSource":"raba-3000"},"geometry":{"type":"Polygon","coordinates":[[[13.5596982569764,45.99815372344076],[13.56,45.99871466474823],[13.56,45.99812720457817],[13.5596982569764,45.99815372344076]]]}},{"type":"Feature","properties":{"_zoneType":"SI_BUILT","name":"Pozidano zemljišče","authority":"MKGP","dataSource":"raba-3000"},"geometry":{"type":"Polygon","coordinates":[[[13.55933441690683,46.0],[13.56,46.0],[13.56,45.999309857527784],[13.55933441690683,46.0]]]}},{"type":"Feature","properties":{"_zoneType":"SI_BUILT","name":"Pozidano zemljišče","authority":"MKGP","dataSource":"raba-3000"},"geometry":{"type":"Polygon","coordinates":[[[13.555006339517117,46.0],[13.555222424015206,46.0],[13.554847551794492,45.999753773751564],[13.555006339517117,46.0]]]}},{"type":"Feature","properties":{"_zoneType":"SI_BUILT","name":"Pozidano zemljišče","authority":"MKGP","dataSource":"raba-3000"},"geometry":{"type":"Polygon","coordinates":[[[13.548679958543328,45.99828953624521],[13.547122094806822,45.99650867030087],[13.544244287822147,45.995900423335904],[13.54352696139653,45.99631914302895],[13.54419778083458,45.99689903469515],[13.544614604015099,45.99612759626763],[13.54676694131221,45.99714827462483],[13.545954203154066,45.998318073621434],[13.547559872748478,45.9979707030988],[13.550741077450558,45.999649287567024],[13.551027357214144,46.0],[13.552110121705406,46.0],[13.551469954103394,45.99920841828211],[13.548679958543328,45.99828953624521]]]}},{"type":"Feature","properties":{"_zoneType":"SI_BUILT","name":"Pozidano zemljišče","authority":"MKGP","dataSource":"raba-3000"},"geometry":{"type":"Polygon","coordinates":[[[13.543175767963879,46.0],[13.543243387074234,46.0],[13.543255578861059,45.999875552371485],[13.543175767963879,46.0]]]}},{"type":"Feature","properties":{"_zoneType":"SI_BUILT","name":"Pozidano zemljišče","authority":"MKGP","dataSource":"raba-3000"},"geometry":{"type":"Polygon","coordinates":[[[13.589743401212392,45.998239050595124],[13.594126101187246,45.9999307622867],[13.594212017799837,46.0],[13.595728958131419,46.0],[13.595917562979238,45.99956201343134],[13.597708791031021,45.9988798466333],[13.6,45.99906792354454],[13.6,45.99681067174348],[13.596246357240194,45.99913713534397],[13.59450636194512,45.99939145058389],[13.589237156759623,45.99692351400766],[13.587436939459318,45.99811916103271],[13.585343202710837,45.99795558269404],[13.581606635380437,45.99664495630351],[13.583375357108277,45.996131036574475],[13.583740521179998,45.99496330999557],[13.587207965615672,45.99601684937663],[13.586865903696458,45.99496511092592],[13.588547229344025,45.99397067739048],[13.592622601130014,45.9944970349322],[13.594101060166759,45.99569599763147],[13.593716376262531,45.99452738054014],[13.597581963551288,45.99446868535887],[13.596791642868679,45.993640341424],[13.59724629429941,45.992285346471924],[13.598838246854978,45.991859644708725],[13.596691276903837,45.99162290511079],[13.596364405630197,45.99369364746507],[13.593712244450712,45.9942694323743],[13.589727693422256,45.99340797932906],[13.591866432579398,45.99172328108172],[13.590989247992281,45.990946355823],[13.591069348445183,45.99226215323194],[13.587675491918057,45.992316533156],[13.588134226229627,45.99321373586284],[13.587056520827979,45.99446404905796],[13.585039333134095,45.99443669128043],[13.583752242989233,45.992456345354846],[13.585201000314907,45.99178740141422],[13.582185432966543,45.99141965534515],[13.584879560540662,45.98998480251897],[13.587535488253565,45.9902422570394],[13.584646163312668,45.98956837995023],[13.58192238637102,45.98996509595172],[13.58231776916403,45.98698649678474],[13.583700534293627,45.98598373528627],[13.580671212428358,45.98519715729804],[13.580261428159044,45.986122331372535],[13.581235136657606,45.9861648403129],[13.581205877833234,45.98709917722697],[13.578061189059019,45.98754115414154],[13.574725371230988,45.985957480620186],[13.575526150096286,45.98355013415066],[13.573680862136126,45.984642941252275],[13.572065497034187,45.98359868010061],[13.571592100654355,45.981115598388605],[13.57498034947034,45.980885668843165],[13.571611555407268,45.980450504989015],[13.57211745419658,45.97872594885194],[13.57427478814461,45.97730524932515],[13.571343426317421,45.97829148753552],[13.571270572716903,45.98047849639858],[13.570069563719494,45.98193608215692],[13.567011212987435,45.981234145192516],[13.565780075958145,45.98248618159161],[13.56202809229274,45.98070125586363],[13.563252864696496,45.97802864542588],[13.566153991783255,45.97824366400237],[13.563646420919532,45.97757319160399],[13.56596880001328,45.97653232307986],[13.56371720821784,45.976078576160184],[13.564897933133174,45.97564054757487],[13.564735536787161,45.97454218449788],[13.56797848235564,45.97400563892171],[13.568889368631,45.972997150426615],[13.567972732149125,45.97238607520693],[13.567512354356673,45.973520212833755],[13.56461558674284,45.97400874639409],[13.563520777607122,45.97279244688511],[13.566382036112039,45.97297960282535],[13.565002002685649,45.972486291035906],[13.56608354768828,45.97156871130266],[13.565751847284028,45.97064125381468],[13.567289226365535,45.97020062441761],[13.567704851981484,45.97126888421615],[13.568659681876209,45.96865612011546],[13.565056239771794,45.96950894461982],[13.564531240545945,45.970575006488275],[13.561352218900709,45.97014929842192],[13.56,45.97078577354214],[13.56,45.971677233586945],[13.561512128574025,45.970991294851025],[13.563324533325096,45.97153903598226],[13.562645009172675,45.97253373842191],[13.560960163352908,45.97237115071962],[13.562498459117597,45.97293638301837],[13.562912375443236,45.97408667734099],[13.561586842930202,45.97455051597116],[13.563130228661764,45.975227417002735],[13.560609524173474,45.9767319058907],[13.56249356698053,45.97790675170218],[13.56,45.980945191183736],[13.56,45.98179947644954],[13.562176613695806,45.981772091163535],[13.56270802307681,45.98318651296631],[13.561012826352107,45.983699258447864],[13.561089012492642,45.98515068967876],[13.56,45.98586419730369],[13.56,45.98591610874937],[13.563762178026193,45.983836905547626],[13.563839101821271,45.9826671257178],[13.565542420320558,45.98306209620941],[13.564850568210948,45.98405382563681],[13.566230022646712,45.9859338704036],[13.566866404750307,45.98436239086093],[13.566279567026411,45.983746942098],[13.569693082584775,45.983145841911],[13.572619601515386,45.98435691484548],[13.573267635375249,45.986260170115116],[13.569724206565224,45.98876586752064],[13.569295091273297,45.990175786248415],[13.566602510932652,45.98920885541885],[13.565129484104864,45.989905337720366],[13.56,45.98857265033206],[13.56,45.98876571952031],[13.564762840513003,45.990050112632716],[13.566109396756948,45.9916246966978],[13.564487780337812,45.99463517092358],[13.567114989674655,45.99687520367711],[13.56608078205553,45.99751685732765],[13.566889438977535,45.997986652714765],[13.56602168955753,46.0],[13.56689588325301,46.0],[13.566878497979245,45.998660073908646],[13.567938158709564,45.99862560286682],[13.567461298309896,45.99690299691244],[13.569833598933245,45.995189749590374],[13.57420184925658,45.99857211811506],[13.571852537307374,45.99857697967058],[13.571258216606974,45.999476295034306],[13.573398766866326,45.999430272176944],[13.57338637605317,46.0],[13.57671538350658,46.0],[13.576503116234651,45.999945625753185],[13.576837009469337,45.99961875775655],[13.577414341143186,46.0],[13.580836775435719,46.0],[13.580187368328694,45.99974012368778],[13.58145439675071,45.99925626420657],[13.58214992624194,45.99966977013959],[13.581913817214474,46.0],[13.582708637914385,46.0],[13.58346146075189,45.997635019148774],[13.58548150894761,45.9983609356898],[13.58455725586969,46.0],[13.584975279458087,46.0],[13.585455074511216,45.99909146691876],[13.589743401212392,45.998239050595124]],[[13.589478541674046,45.99735345918738],[13.589596281160578,45.99778349432414],[13.588636379479793,45.99749924394409],[13.589478541674046,45.99735345918738]],[[13.571416779267208,45.98930420892389],[13.574782432643202,45.99218646899305],[13.57598851209777,45.99141609680616],[13.575704344197534,45.992381655454516],[13.577635824383417,45.9928560414337],[13.579212273224451,45.99096552949814],[13.579257980265016,45.99238346245124],[13.580775782969157,45.99152143105569],[13.582567602605923,45.99318709484772],[13.580062713671676,45.99477248147632],[13.580154545467908,45.99574673556607],[13.57523166450612,45.994831432240154],[13.579483504190597,45.99634974089969],[13.578513018508842,45.99702430129676],[13.578847644295339,45.997793984754296],[13.576520042573977,45.998908121513786],[13.57518183188013,45.99786966163359],[13.575807367546567,45.99698230558082],[13.573607408161232,45.9966278116806],[13.574119522642588,45.99516947508548],[13.572743041804507,45.99602663487739],[13.571801122176034,45.99423206048242],[13.570456530256992,45.99466626299251],[13.565841090218397,45.99295250008966],[13.56914105707438,45.99222867217307],[13.566142293309575,45.99079105799926],[13.568122264924629,45.99108863253528],[13.571416779267208,45.98930420892389]],[[13.582404138691302,45.99790917553155],[13.581902805907427,45.99825461654229],[13.581860901097185,45.99762194016024],[13.582404138691302,45.99790917553155]],[[13.58077697178915,45.987561552461344],[13.581428784722501,45.98833886875318],[13.579955573203351,45.98940773260936],[13.58079140366579,45.99032668534479],[13.577850953135604,45.990824927035256],[13.576087382461717,45.98905910817168],[13.576527259259791,45.990985602562375],[13.574407609187112,45.99134063641007],[13.57136516582866,45.98869650950632],[13.572691953245597,45.9869070443061],[13.579234591237999,45.988761993820304],[13.58077697178915,45.987561552461344]],[[13.57970346087685,45.99838956802552],[13.579005565443088,45.99858409645114],[13.579510916173138,45.99798649491566],[13.57970346087685,45.99838956802552]],[[13.579686423692152,45.99944078582347],[13.577367555237462,45.99923727448849],[13.578882711541931,45.99870816656972],[13.579686423692152,45.99944078582347]],[[13.568458671933806,45.982544052961984],[13.568747218982734,45.98216561260409],[13.569335492611234,45.982737488755],[13.568458671933806,45.982544052961984]],[[13.568049179396782,45.9939039913175],[13.568362633805691,45.994762329507566],[13.567096508660125,45.995090181259116],[13.568469577358044,45.9958801815347],[13.567212598279843,45.99638866021681],[13.56524265339174,45.99444140663802],[13.56550529887818,45.993354556340805],[13.568049179396782,45.9939039913175]],[[13.563747253483518,45.97721188323825],[13.56256759869479,45.97729522373341],[13.56355469962037,45.9764152764644],[13.563747253483518,45.97721188323825]]]}},{"type":"Feature","properties":{"_zoneType":"SI_BUILT","name":"Pozidano zemljišče","authority":"MKGP","dataSource":"raba-3000"},"geometry":{"type":"Polygon","coordinates":[[[13.6,46.0],[13.6,45.99921265178129],[13.598844496697932,46.0],[13.6,46.0]]]}},{"type":"Feature","properties":{"_zoneType":"SI_BUILT","name":"Pozidano zemljišče","authority":"MKGP","dataSource":"raba-3000"},"geometry":{"type":"Polygon","coordinates":[[[13.569266861300509,46.0],[13.569496277561555,46.0],[13.568217040497972,45.99902702613394],[13.569266861300509,46.0]]]}},{"type":"Feature","properties":{"_zoneType":"SI_BUILT","name":"Pozidano zemljišče","authority":"MKGP","dataSource":"raba-3000"},"geometry":{"type":"Polygon","coordinates":[[[13.560824754584383,45.99876700424038],[13.56359734553765,45.998232639649125],[13.562246020496316,45.99723662427246],[13.562797936846351,45.995799321032976],[13.560641681848853,45.993731740618784],[13.561443223839392,45.99129261079127],[13.56,45.99300413882404],[13.56,45.99432206330057],[13.5606306158065,45.994740505490576],[13.561742586492848,45.99703542661547],[13.56137919783565,45.99800599296753],[13.56,45.99812720457817],[13.56,45.99871466474823],[13.560205529292114,45.99909674440153],[13.56,45.999309857527784],[13.56,46.0],[13.560998304374529,46.0],[13.561390899131876,45.999417679354565],[13.560824754584383,45.99876700424038]]]}},{"type":"Feature","properties":{"_zoneType":"SI_BUILT","name":"Pozidano zemljišče","authority":"MKGP","dataSource":"raba-3000"},"geometry":{"type":"Polygon","coordinates":[[[13.600000000000001,45.99906792354454],[13.600000000000001,45.99681067174348],[13.6,45.99681067174348],[13.6,45.99906792354454],[13.600000000000001,45.99906792354454]]]}},{"type":"Feature","properties":{"_zoneType":"SI_BUILT","name":"Pozidano zemljišče","authority":"MKGP","dataSource":"raba-3000"},"geometry":{"type":"Polygon","coordinates":[[[13.600000000000001,46.0],[13.600000000000001,45.99921265178129],[13.6,45.99921265178129],[13.6,46.0],[13.600000000000001,46.0]]]}},{"type":"Feature","properties":{"_zoneType":"SI_BUILT","name":"Pozidano zemljišče","authority":"MKGP","dataSource":"raba-3000"},"geometry":{"type":"Polygon","coordinates":[[[13.6,45.879838119529666],[13.6,45.87864444511591],[13.59492079632599,45.878716013779275],[13.593709476065099,45.877394728796965],[13.595483829173983,45.875837049451924],[13.596847979954783,45.87666715351433],[13.6,45.875903894926786],[13.6,45.87572848556301],[13.599870605369144,45.87576163186441],[13.598866522597907,45.875163017452664],[13.597057456349395,45.876381932066245],[13.594172101223247,45.87332974850391],[13.597253140383005,45.87322459888747],[13.598116773023945,45.874000831794795],[13.6,45.87316710988931],[13.6,45.872858057689506],[13.598370892487997,45.87349888362787],[13.597488229365611,45.87292584013849],[13.592983181287593,45.873285649009745],[13.58903420018306,45.87091046454365],[13.587735778894256,45.86523820544377],[13.594547608030883,45.86368104085666],[13.594277643714431,45.86289471668184],[13.596806283709794,45.86184459643563],[13.6,45.86154293827887],[13.6,45.86110319854008],[13.59610396272152,45.861711263661995],[13.588235911540021,45.86501007175994],[13.587701837516803,45.86462271676281],[13.588710328281143,45.863829437488064],[13.58707620462751,45.86356665956923],[13.58631639126151,45.86174275441713],[13.58783778694758,45.859220754966664],[13.589094416510411,45.86074862198014],[13.590702175107007,45.86009449382096],[13.589799309413213,45.85722310780162],[13.594220944313397,45.85739195369892],[13.595063501966532,45.8580209214728],[13.594191243243769,45.85877511746548],[13.599534307013974,45.857731126053764],[13.6,45.8581554966143],[13.6,45.85710838575181],[13.590345305833305,45.85714048130083],[13.586151669525643,45.853460620770605],[13.589227396638918,45.853755808927474],[13.58899146091041,45.851875839688525],[13.59005189100328,45.85114866646075],[13.580347134017924,45.85102848376691],[13.578798989938925,45.85304801168305],[13.576329201553287,45.853712153650406],[13.576300047146546,45.85469304632713],[13.578865609575642,45.85339280065046],[13.578571597302986,45.85443434973502],[13.581326291551553,45.85422819599133],[13.582033787591673,45.855290949008655],[13.581340639730659,45.857349363184404],[13.58294150965956,45.85938923557139],[13.584219673640517,45.85945621132408],[13.582157579913515,45.857928114780016],[13.583782863760979,45.85711144992166],[13.584468123930193,45.858562453536535],[13.585809097932374,45.858418580275384],[13.585928757166334,45.861739594713974],[13.586689101771254,45.863901160580355],[13.58450019265087,45.86618186955131],[13.584570764715501,45.86755778678695],[13.585171152930315,45.86595219703175],[13.586870547209479,45.86590624547707],[13.58863851655845,45.871006936100365],[13.591745094959338,45.872940111884745],[13.59154201128885,45.87358665798861],[13.595295750495433,45.87509145507828],[13.5933091328804,45.87734542668413],[13.59355513977576,45.87820502802622],[13.59472683029784,45.87895180432916],[13.599756130299122,45.879345248661174],[13.598227041689423,45.88],[13.599652163226475,45.88],[13.6,45.879838119529666]],[[13.58691330461556,45.858327686875576],[13.5862090826382,45.85818611602385],[13.587228593550243,45.85735431433254],[13.58691330461556,45.858327686875576]],[[13.583103236006782,45.853322204988736],[13.5831657678209,45.852618710373626],[13.584384144704059,45.85312876976878],[13.583103236006782,45.853322204988736]]]}},{"type":"Feature","properties":{"_zoneType":"SI_BUILT","name":"Pozidano zemljišče","authority":"MKGP","dataSource":"raba-3000"},"geometry":{"type":"Polygon","coordinates":[[[13.6,45.85884455832209],[13.6,45.85827878268259],[13.599316564452934,45.85880712910804],[13.6,45.85884455832209]]]}},{"type":"Feature","properties":{"_zoneType":"SI_BUILT","name":"Pozidano zemljišče","authority":"MKGP","dataSource":"raba-3000"},"geometry":{"type":"Polygon","coordinates":[[[13.599652163226475,45.88],[13.598227041689423,45.88],[13.595874675044106,45.881007276622604],[13.6,45.881288650794446],[13.6,45.880507693938476],[13.59836239642304,45.880600247221274],[13.599652163226475,45.88]]]}},{"type":"Feature","properties":{"_zoneType":"SI_BUILT","name":"Pozidano zemljišče","authority":"MKGP","dataSource":"raba-3000"},"geometry":{"type":"Polygon","coordinates":[[[13.59845314693552,45.88257716593582],[13.594919144044422,45.88337081826798],[13.594329164496486,45.88444163542061],[13.592936901376394,45.884196147379],[13.590662681446942,45.88780794783863],[13.594050534740552,45.886697106924565],[13.597858985499279,45.88683753134481],[13.592918069906757,45.89131600875298],[13.594502398685266,45.891892435490234],[13.5982869387453,45.890456147411086],[13.6,45.890621672707695],[13.6,45.88892635235709],[13.599719125301272,45.88962325130014],[13.594831016817452,45.89075087678528],[13.597896092020699,45.88769865948685],[13.6,45.88784710799136],[13.6,45.88732735776853],[13.598514440836006,45.887499096248916],[13.59819599677728,45.88666705499611],[13.599788223307664,45.88638223503369],[13.6,45.88672009697338],[13.6,45.88313955889051],[13.599957995000613,45.88318252305076],[13.59845314693552,45.88257716593582]],[[13.598244346104135,45.88533217498127],[13.599464132899193,45.885133651345306],[13.598402045311694,45.885671472182594],[13.598244346104135,45.88533217498127]],[[13.599693104487612,45.8844885521011],[13.596459686162904,45.885409629175946],[13.595459617299932,45.8845088663962],[13.598600791446547,45.88322554966565],[13.599693104487612,45.8844885521011]],[[13.59482822215415,45.885956423283815],[13.594031448070712,45.886300909435725],[13.594226900145634,45.88547787576696],[13.59482822215415,45.885956423283815]]]}},{"type":"Feature","properties":{"_zoneType":"SI_BUILT","name":"Pozidano zemljišče","authority":"MKGP","dataSource":"raba-3000"},"geometry":{"type":"Polygon","coordinates":[[[13.597066893145698,45.893975521411555],[13.596758612192394,45.89489889133884],[13.6,45.89501768119497],[13.6,45.89496961013404],[13.599227928822307,45.89497010992039],[13.597066893145698,45.893975521411555]]]}},{"type":"Feature","properties":{"_zoneType":"SI_BUILT","name":"Pozidano zemljišče","authority":"MKGP","dataSource":"raba-3000"},"geometry":{"type":"Polygon","coordinates":[[[13.600000000000001,45.879838119529666],[13.600000000000001,45.87864444511591],[13.6,45.87864444511591],[13.6,45.879838119529666],[13.600000000000001,45.879838119529666]]]}},{"type":"Feature","properties":{"_zoneType":"SI_BUILT","name":"Pozidano zemljišče","authority":"MKGP","dataSource":"raba-3000"},"geometry":{"type":"Polygon","coordinates":[[[13.600000000000001,45.875903894926786],[13.600000000000001,45.87572848556301],[13.6,45.87572848556301],[13.6,45.875903894926786],[13.600000000000001,45.875903894926786]]]}},{"type":"Feature","properties":{"_zoneType":"SI_BUILT","name":"Pozidano zemljišče","authority":"MKGP","dataSource":"raba-3000"},"geometry":{"type":"Polygon","coordinates":[[[13.600000000000001,45.87316710988931],[13.600000000000001,45.872858057689506],[13.6,45.872858057689506],[13.6,45.87316710988931],[13.600000000000001,45.87316710988931]]]}},{"type":"Feature","properties":{"_zoneType":"SI_BUILT","name":"Pozidano zemljišče","authority":"MKGP","dataSource":"raba-3000"},"geometry":{"type":"Polygon","coordinates":[[[13.600000000000001,45.86154293827887],[13.600000000000001,45.86110319854008],[13.6,45.86110319854008],[13.6,45.86154293827887],[13.600000000000001,45.86154293827887]]]}},{"type":"Feature","properties":{"_zoneType":"SI_BUILT","name":"Pozidano zemljišče","authority":"MKGP","dataSource":"raba-3000"},"geometry":{"type":"Polygon","coordinates":[[[13.600000000000001,45.8581554966143],[13.600000000000001,45.85710838575181],[13.6,45.85710838575181],[13.6,45.8581554966143],[13.600000000000001,45.8581554966143]]]}},{"type":"Feature","properties":{"_zoneType":"SI_BUILT","name":"Pozidano zemljišče","authority":"MKGP","dataSource":"raba-3000"},"geometry":{"type":"Polygon","coordinates":[[[13.600000000000001,45.85884455832209],[13.600000000000001,45.85827878268259],[13.6,45.85827878268259],[13.6,45.85884455832209],[13.600000000000001,45.85884455832209]]]}},{"type":"Feature","properties":{"_zoneType":"SI_BUILT","name":"Pozidano zemljišče","authority":"MKGP","dataSource":"raba-3000"},"geometry":{"type":"Polygon","coordinates":[[[13.600000000000001,45.881288650794446],[13.600000000000001,45.880507693938476],[13.6,45.880507693938476],[13.6,45.881288650794446],[13.600000000000001,45.881288650794446]]]}},{"type":"Feature","properties":{"_zoneType":"SI_BUILT","name":"Pozidano zemljišče","authority":"MKGP","dataSource":"raba-3000"},"geometry":{"type":"Polygon","coordinates":[[[13.600000000000001,45.890621672707695],[13.600000000000001,45.88892635235708],[13.6,45.88892635235709],[13.6,45.890621672707695],[13.600000000000001,45.890621672707695]]]}},{"type":"Feature","properties":{"_zoneType":"SI_BUILT","name":"Pozidano zemljišče","authority":"MKGP","dataSource":"raba-3000"},"geometry":{"type":"Polygon","coordinates":[[[13.600000000000001,45.88784710799136],[13.600000000000001,45.88732735776853],[13.6,45.88732735776853],[13.6,45.88784710799136],[13.600000000000001,45.88784710799136]]]}},{"type":"Feature","properties":{"_zoneType":"SI_BUILT","name":"Pozidano zemljišče","authority":"MKGP","dataSource":"raba-3000"},"geometry":{"type":"Polygon","coordinates":[[[13.600000000000001,45.88672009697338],[13.600000000000001,45.88313955889051],[13.6,45.88313955889051],[13.6,45.88672009697338],[13.600000000000001,45.88672009697338]]]}},{"type":"Feature","properties":{"_zoneType":"SI_BUILT","name":"Pozidano zemljišče","authority":"MKGP","dataSource":"raba-3000"},"geometry":{"type":"Polygon","coordinates":[[[13.600000000000001,45.89501768119497],[13.600000000000001,45.89496961013404],[13.6,45.89496961013404],[13.6,45.89501768119497],[13.600000000000001,45.89501768119497]]]}},{"type":"Feature","properties":{"_zoneType":"SI_BUILT","name":"Pozidano zemljišče","authority":"MKGP","dataSource":"raba-3000"},"geometry":{"type":"Polygon","coordinates":[[[13.496030004673061,45.98819158910002],[13.495912118454624,45.988366187157965],[13.496620304580638,45.9904638040756],[13.498231020518652,45.98981313983155],[13.496030004673061,45.98819158910002]]]}},{"type":"Feature","properties":{"_zoneType":"SI_BUILT","name":"Pozidano zemljišče","authority":"MKGP","dataSource":"raba-3000"},"geometry":{"type":"Polygon","coordinates":[[[13.505361769091754,45.994010793554466],[13.505174334852304,45.99385627906934],[13.505141447119554,45.994141133549945],[13.505361769091754,45.994010793554466]]]}},{"type":"Feature","properties":{"_zoneType":"SI_BUILT","name":"Pozidano zemljišče","authority":"MKGP","dataSource":"raba-3000"},"geometry":{"type":"Polygon","coordinates":[[[13.509149937443485,45.99492627483499],[13.509486603671165,45.99588378644402],[13.509380621969688,45.994961471003755],[13.509149937443485,45.99492627483499]]]}},{"type":"Feature","properties":{"_zoneType":"SI_BUILT","name":"Pozidano zemljišče","authority":"MKGP","dataSource":"raba-3000"},"geometry":{"type":"Polygon","coordinates":[[[13.571798070178751,45.9762962764803],[13.57114711903076,45.977169662000975],[13.57187604439464,45.976619394105406],[13.571798070178751,45.9762962764803]]]}},{"type":"Feature","properties":{"_zoneType":"SI_BUILT","name":"Pozidano zemljišče","authority":"MKGP","dataSource":"raba-3000"},"geometry":{"type":"Polygon","coordinates":[[[13.599376318002017,45.993798458869776],[13.598886541893659,45.993159741849034],[13.598320734895314,45.99325914398663],[13.599376318002017,45.993798458869776]]]}},{"type":"Feature","properties":{"_zoneType":"SI_BUILT","name":"Pozidano zemljišče","authority":"MKGP","dataSource":"raba-3000"},"geometry":{"type":"Polygon","coordinates":[[[13.592901730524584,45.859175122953985],[13.591459034278866,45.859338984476274],[13.592403495300223,45.859499990707825],[13.592901730524584,45.859175122953985]]]}},{"type":"Feature","properties":{"_zoneType":"SI_BUILT","name":"Pozidano zemljišče","authority":"MKGP","dataSource":"raba-3000"},"geometry":{"type":"Polygon","coordinates":[[[13.596049480627947,45.99069154204662],[13.596067108500886,45.990882036361285],[13.59635448017475,45.99069974831308],[13.596049480627947,45.99069154204662]]]}},{"type":"Feature","properties":{"_zoneType":"SI_BUILT","name":"Pozidano zemljišče","authority":"MKGP","dataSource":"raba-3000"},"geometry":{"type":"Polygon","coordinates":[[[13.57534042499398,45.9940431845892],[13.574794211886228,45.99429229322283],[13.575362344491076,45.99415966040036],[13.57534042499398,45.9940431845892]]]}},{"type":"Feature","properties":{"_zoneType":"SI_BUILT","name":"Pozidano zemljišče","authority":"MKGP","dataSource":"raba-3000"},"geometry":{"type":"Polygon","coordinates":[[[13.574975384243249,45.98890649518487],[13.57506828070462,45.98909324575183],[13.575221600691195,45.98883443404207],[13.574975384243249,45.98890649518487]]]}},{"type":"Feature","properties":{"_zoneType":"SI_BUILT","name":"Pozidano zemljišče","authority":"MKGP","dataSource":"raba-3000"},"geometry":{"type":"Polygon","coordinates":[[[13.547674042874686,45.97972399588291],[13.548708681381662,45.981281014130985],[13.549495098429398,45.98058002194066],[13.54870007999335,45.979612982880774],[13.547674042874686,45.97972399588291]]]}},{"type":"Feature","properties":{"_zoneType":"SI_BUILT","name":"Pozidano zemljišče","authority":"MKGP","dataSource":"raba-3000"},"geometry":{"type":"Polygon","coordinates":[[[13.563979516822272,45.99274641509387],[13.564088767939204,45.99289916522514],[13.564227549680549,45.99266247589696],[13.563979516822272,45.99274641509387]]]}},{"type":"Feature","properties":{"_zoneType":"SI_BUILT","name":"Pozidano zemljišče","authority":"MKGP","dataSource":"raba-3000"},"geometry":{"type":"Polygon","coordinates":[[[13.550172410603745,45.98589489365342],[13.549845068603085,45.98586749461887],[13.550143714838384,45.98604674140481],[13.550172410603745,45.98589489365342]]]}},{"type":"Feature","properties":{"_zoneType":"SI_BUILT","name":"Pozidano zemljišče","authority":"MKGP","dataSource":"raba-3000"},"geometry":{"type":"Polygon","coordinates":[[[13.560808996369724,45.989672118379325],[13.561106894275822,45.989639712326756],[13.560780463676007,45.98950434230656],[13.560808996369724,45.989672118379325]]]}},{"type":"Feature","properties":{"_zoneType":"SI_BUILT","name":"Pozidano zemljišče","authority":"MKGP","dataSource":"raba-3000"},"geometry":{"type":"Polygon","coordinates":[[[13.558737352684489,45.9864312701816],[13.559003974661156,45.9865401507327],[13.558837249496113,45.98631079884449],[13.558737352684489,45.9864312701816]]]}},{"type":"Feature","properties":{"_zoneType":"SI_BUILT","name":"Pozidano zemljišče","authority":"MKGP","dataSource":"raba-3000"},"geometry":{"type":"Polygon","coordinates":[[[13.571694505596364,45.993520360019176],[13.571770663848923,45.993368791785514],[13.571343377412742,45.99344509679158],[13.571694505596364,45.993520360019176]]]}},{"type":"Feature","properties":{"_zoneType":"SI_BUILT","name":"Pozidano zemljišče","authority":"MKGP","dataSource":"raba-3000"},"geometry":{"type":"Polygon","coordinates":[[[13.57054788136517,45.986276845798166],[13.570247929583502,45.98625870031787],[13.570521743319167,45.98642134468546],[13.57054788136517,45.986276845798166]]]}},{"type":"Feature","properties":{"_zoneType":"SI_BUILT","name":"Pozidano zemljišče","authority":"MKGP","dataSource":"raba-3000"},"geometry":{"type":"Polygon","coordinates":[[[13.569478979795793,45.99741274115733],[13.569720834780309,45.997507107223186],[13.569597270495153,45.99727709443448],[13.569478979795793,45.99741274115733]]]}},{"type":"Feature","properties":{"_zoneType":"SI_BUILT","name":"Pozidano zemljišče","authority":"MKGP","dataSource":"raba-3000"},"geometry":{"type":"Polygon","coordinates":[[[13.569867877471077,45.97998400475844],[13.569985245270237,45.97981088752564],[13.569597371571438,45.97990202155419],[13.569867877471077,45.97998400475844]]]}},{"type":"Feature","properties":{"_zoneType":"SI_BUILT","name":"Pozidano zemljišče","authority":"MKGP","dataSource":"raba-3000"},"geometry":{"type":"Polygon","coordinates":[[[13.564731807454626,45.99702369368645],[13.564556753675316,45.99687653693583],[13.564601581454882,45.99712700041641],[13.564731807454626,45.99702369368645]]]}},{"type":"Feature","properties":{"_zoneType":"SI_BUILT","name":"Pozidano zemljišče","authority":"MKGP","dataSource":"raba-3000"},"geometry":{"type":"Polygon","coordinates":[[[13.563926025686165,45.98035824562439],[13.563850508136246,45.98016181096331],[13.563652140610708,45.98039273957182],[13.563926025686165,45.98035824562439]]]}},{"type":"Feature","properties":{"_zoneType":"SI_BUILT","name":"Pozidano zemljišče","authority":"MKGP","dataSource":"raba-3000"},"geometry":{"type":"Polygon","coordinates":[[[13.559139510045675,45.996108114392825],[13.559518205943245,45.99619159922285],[13.559218284306315,45.995960561488694],[13.559139510045675,45.996108114392825]]]}},{"type":"Feature","properties":{"_zoneType":"SI_BUILT","name":"Pozidano zemljišče","authority":"MKGP","dataSource":"raba-3000"},"geometry":{"type":"Polygon","coordinates":[[[13.558348430536599,45.991756341279945],[13.557722906046951,45.99148282044579],[13.55697301772189,45.99244129321728],[13.558348430536599,45.991756341279945]]]}},{"type":"Feature","properties":{"_zoneType":"SI_BUILT","name":"Pozidano zemljišče","authority":"MKGP","dataSource":"raba-3000"},"geometry":{"type":"Polygon","coordinates":[[[13.542499587761835,45.99456934912136],[13.542077143670477,45.9931104111381],[13.542835437767591,45.99262608254599],[13.541013913450383,45.991885426122614],[13.542499587761835,45.99456934912136]]]}},{"type":"Feature","properties":{"_zoneType":"SI_BUILT","name":"Pozidano zemljišče","authority":"MKGP","dataSource":"raba-3000"},"geometry":{"type":"Polygon","coordinates":[[[13.539135094708309,45.998586672662235],[13.538800046915545,45.99795969850412],[13.538754922875032,45.99858485404032],[13.539135094708309,45.998586672662235]]]}},{"type":"Feature","properties":{"_zoneType":"SI_BUILT","name":"Pozidano zemljišče","authority":"MKGP","dataSource":"raba-3000"},"geometry":{"type":"Polygon","coordinates":[[[13.554914088700563,45.9898821601773],[13.555135007858262,45.990007764907865],[13.55507908760073,45.98973808148358],[13.554914088700563,45.9898821601773]]]}},{"type":"Feature","properties":{"_zoneType":"SI_BUILT","name":"Pozidano zemljišče","authority":"MKGP","dataSource":"raba-3000"},"geometry":{"type":"Polygon","coordinates":[[[13.55285548710404,45.98911929054875],[13.553051360136076,45.98923459971615],[13.55307588255553,45.98894784372787],[13.55285548710404,45.98911929054875]]]}},{"type":"Feature","properties":{"_zoneType":"SI_BUILT","name":"Pozidano zemljišče","authority":"MKGP","dataSource":"raba-3000"},"geometry":{"type":"Polygon","coordinates":[[[13.552462165244458,45.99808525618217],[13.55233524378754,45.99789980412988],[13.552157351556858,45.99818449138006],[13.552462165244458,45.99808525618217]]]}},{"type":"Feature","properties":{"_zoneType":"SI_BUILT","name":"Pozidano zemljišče","authority":"MKGP","dataSource":"raba-3000"},"geometry":{"type":"Polygon","coordinates":[[[13.550280898529193,45.98856822935454],[13.549960851133378,45.98853411426306],[13.550229602135936,45.988724967214175],[13.550280898529193,45.98856822935454]]]}},{"type":"Feature","properties":{"_zoneType":"SI_BUILT","name":"Pozidano zemljišče","authority":"MKGP","dataSource":"raba-3000"},"geometry":{"type":"Polygon","coordinates":[[[13.542086529371566,45.9898005723017],[13.54207311953821,45.98994423717274],[13.542717648696057,45.99024109031202],[13.542086529371566,45.9898005723017]]]}},{"type":"Feature","properties":{"_zoneType":"SI_BUILT","name":"Pozidano zemljišče","authority":"MKGP","dataSource":"raba-3000"},"geometry":{"type":"Polygon","coordinates":[[[13.541295010531446,45.9963189756831],[13.540472851948838,45.9967705818534],[13.541047639567749,45.99707188024445],[13.541295010531446,45.9963189756831]]]}},{"type":"Feature","properties":{"_zoneType":"SI_BUILT","name":"Pozidano zemljišče","authority":"MKGP","dataSource":"raba-3000"},"geometry":{"type":"Polygon","coordinates":[[[13.538300754093742,45.99191627079082],[13.538619227766564,45.99209982759366],[13.538510457059402,45.991780029916285],[13.538300754093742,45.99191627079082]]]}},{"type":"Feature","properties":{"_zoneType":"SI_BUILT","name":"Pozidano zemljišče","authority":"MKGP","dataSource":"raba-3000"},"geometry":{"type":"Polygon","coordinates":[[[13.535715434447912,45.99021998944705],[13.535796034877416,45.99038469716795],[13.536049928856361,45.99014649596863],[13.535715434447912,45.99021998944705]]]}},{"type":"Feature","properties":{"_zoneType":"SI_BUILT","name":"Pozidano zemljišče","authority":"MKGP","dataSource":"raba-3000"},"geometry":{"type":"Polygon","coordinates":[[[13.531814608271606,45.99222428246604],[13.53194167505303,45.99240772740759],[13.53210533378385,45.99212696139324],[13.531814608271606,45.99222428246604]]]}},{"type":"Feature","properties":{"_zoneType":"SI_BUILT","name":"Pozidano zemljišče","authority":"MKGP","dataSource":"raba-3000"},"geometry":{"type":"Polygon","coordinates":[[[13.530485642468525,45.991151611405535],[13.530606158854434,45.99131967971025],[13.530943073362062,45.99102769358509],[13.530485642468525,45.991151611405535]]]}},{"type":"Feature","properties":{"_zoneType":"SI_BUILT","name":"Pozidano zemljišče","authority":"MKGP","dataSource":"raba-3000"},"geometry":{"type":"Polygon","coordinates":[[[13.524861751592603,45.995400330293215],[13.524494375560757,45.995339382116555],[13.52481355471027,45.99551072782171],[13.524861751592603,45.995400330293215]]]}},{"type":"Feature","properties":{"_zoneType":"SI_BUILT","name":"Pozidano zemljišče","authority":"MKGP","dataSource":"raba-3000"},"geometry":{"type":"Polygon","coordinates":[[[13.522533332598453,45.982407282936016],[13.522840437985261,45.98252071429011],[13.522648022739164,45.982297994520536],[13.522533332598453,45.982407282936016]]]}},{"type":"Feature","properties":{"_zoneType":"SI_BUILT","name":"Pozidano zemljišče","authority":"MKGP","dataSource":"raba-3000"},"geometry":{"type":"Polygon","coordinates":[[[13.513283040103591,45.99157233650448],[13.5133724861431,45.9902499415314],[13.512665920793228,45.98986044705996],[13.51260089664572,45.99103872216745],[13.513283040103591,45.99157233650448]]]}},{"type":"Feature","properties":{"_zoneType":"SI_BUILT","name":"Pozidano zemljišče","authority":"MKGP","dataSource":"raba-3000"},"geometry":{"type":"Polygon","coordinates":[[[13.516123838292216,45.99175778137156],[13.515055599643492,45.990962324659215],[13.513992958775098,45.99150931847307],[13.515235309997012,45.992141203121406],[13.516123838292216,45.99175778137156]]]}},{"type":"Feature","properties":{"_zoneType":"SI_BUILT","name":"Pozidano zemljišče","authority":"MKGP","dataSource":"raba-3000"},"geometry":{"type":"Polygon","coordinates":[[[13.513699066694473,45.98771086148122],[13.512487488130075,45.98756870236106],[13.511907819899044,45.98667668864852],[13.512037424126566,45.98790483410089],[13.513699066694473,45.98771086148122]]]}},{"type":"Feature","properties":{"_zoneType":"SI_BUILT","name":"Pozidano zemljišče","authority":"MKGP","dataSource":"raba-3000"},"geometry":{"type":"Polygon","coordinates":[[[13.510591047340181,45.99040920406437],[13.510526441564119,45.99024826090546],[13.510313105262139,45.99045651482572],[13.510591047340181,45.99040920406437]]]}},{"type":"Feature","properties":{"_zoneType":"SI_BUILT","name":"Pozidano zemljišče","authority":"MKGP","dataSource":"raba-3000"},"geometry":{"type":"Polygon","coordinates":[[[13.505481028800846,45.99979800884227],[13.505747626061199,45.999946596802474],[13.50563571869255,45.999654522306244],[13.505481028800846,45.99979800884227]]]}}]}