{"type":"FeatureCollection","features":[{"type":"Feature","properties":{"_zoneType":"SI_BUILT","name":"Pozidano zemljišče","authority":"MKGP","dataSource":"raba-3000"},"geometry":{"type":"Polygon","coordinates":[[[16.204160595079237,46.828915378034935],[16.205064727796255,46.830244206802675],[16.206120367352487,46.828286996354414],[16.208789946411386,46.82932641232353],[16.207219799740404,46.831605644422304],[16.2,46.83536109454227],[16.2,46.83606355678943],[16.20810182358526,46.83187712674431],[16.208240349507772,46.83364839049947],[16.209345661738404,46.83456527739398],[16.20919685821672,46.83705077558915],[16.21043363819524,46.83882364900613],[16.21010712196414,46.84],[16.212142464711736,46.84],[16.214755955279205,46.83824404320736],[16.21919916437551,46.834145096158636],[16.215680085433025,46.834099113147985],[16.214885743363265,46.832990215477956],[16.217767903385056,46.83055251766857],[16.21692424682165,46.829528332686],[16.219869626890944,46.82931441408577],[16.220996193522517,46.83125056817537],[16.220089372617615,46.83278055583821],[16.221105516913745,46.83212973161832],[16.22113095930301,46.829202115156875],[16.218794410390487,46.82870106609769],[16.218727116750486,46.82789612939689],[16.22126111279495,46.826994104420734],[16.22436660457638,46.82459478776466],[16.22612519307955,46.824957836293365],[16.226947741731383,46.82629806569612],[16.22844747311656,46.824726501269055],[16.234918860468827,46.82382093059977],[16.23440230269571,46.82533050181674],[16.231849898245727,46.82733244212594],[16.233453544631132,46.82863270715639],[16.233480012867734,46.83011974077269],[16.23176874198016,46.82995367675969],[16.23164084486637,46.82846386670524],[16.230964975960354,46.82981230400635],[16.232405860134396,46.83147000860713],[16.23508150205189,46.83008004396705],[16.237919852157972,46.831190830874135],[16.235159092508614,46.83281306309153],[16.23131563307001,46.83267268448509],[16.234192528454976,46.832934068486004],[16.232454509550177,46.834883061762675],[16.237568148614365,46.831983545016136],[16.23817497317245,46.83401221602828],[16.23656593855722,46.835682244132435],[16.228814390038846,46.838199711350406],[16.226902404592053,46.84],[16.227935307683452,46.84],[16.230794562511477,46.839795876787434],[16.228932607208723,46.83934714386469],[16.236527933706842,46.83631515535453],[16.2351252710274,46.83809674339977],[16.23491875418527,46.84],[16.23569767063987,46.84],[16.23603950038626,46.83844907741997],[16.23838335287544,46.83822349245215],[16.236543398471216,46.83742953502923],[16.23761751736673,46.83705349090507],[16.238843168177493,46.833331130397205],[16.240000000000002,46.8334347161942],[16.240000000000002,46.83255677314248],[16.239922238703098,46.832551595213104],[16.240000000000002,46.83250390161639],[16.240000000000002,46.82908554772359],[16.23999533605595,46.829056321640614],[16.238708284530745,46.830793192607],[16.237065476395188,46.829505310462494],[16.234128201378557,46.829968407098896],[16.23392392078399,46.82852831470458],[16.232353636879797,46.82708716288909],[16.234756267794815,46.82540864037297],[16.235472398201797,46.823661467506675],[16.234087945291304,46.820493257211375],[16.236128050782025,46.81962712216976],[16.23879066368426,46.821060787456915],[16.240000000000002,46.820395931171475],[16.240000000000002,46.81912733169164],[16.23891447188037,46.81837929836613],[16.235776799471473,46.818987785741896],[16.229252128302086,46.816844930706424],[16.229065091933734,46.815568839498006],[16.228403531596925,46.81685088800146],[16.225819850761408,46.81596455197052],[16.22520735461848,46.81412938371031],[16.226526139136467,46.812523820460434],[16.23893721570323,46.81313370516],[16.240000000000002,46.812988116478536],[16.240000000000002,46.81261475720325],[16.236739655923785,46.812673037539945],[16.237483956428314,46.811391352251235],[16.236176598648992,46.81112788272471],[16.23606791099662,46.80991956983331],[16.237582025076314,46.80967182732914],[16.237667479734036,46.80592757678934],[16.23951580404814,46.806181321258755],[16.240000000000002,46.80593262808687],[16.240000000000002,46.803836578330625],[16.22163636593327,46.80078962817403],[16.223057097185,46.800000000000004],[16.222073753186052,46.800000000000004],[16.22197352804673,46.800067088745195],[16.211198957954814,46.80030452040831],[16.2,46.8017034404585],[16.2,46.80221155772287],[16.20986074054617,46.80087118151843],[16.21052998198645,46.801489673400305],[16.210410619768833,46.803025465370645],[16.206745614406472,46.803832222497846],[16.2,46.8032498459811],[16.2,46.80420509357051],[16.200387834858507,46.80371411204308],[16.20246741457998,46.80422863947699],[16.200554546663327,46.80646817035226],[16.2,46.806290992330645],[16.2,46.80725282775739],[16.203769396396858,46.805787005201836],[16.20416013891418,46.804990080047936],[16.203235774483854,46.804188814440124],[16.210545107961806,46.80391748821002],[16.21174378468543,46.80304730658957],[16.21291452381422,46.80396858254969],[16.208833226018445,46.80715554407966],[16.205480040635358,46.8077771777895],[16.203251278575323,46.811480365613235],[16.2,46.80737748012798],[16.2,46.81004224551689],[16.20225275765568,46.81179290967182],[16.2,46.81167060813089],[16.2,46.81227908707847],[16.200953297819954,46.81302034193569],[16.2,46.81345314053673],[16.2,46.814200059055764],[16.200365708168913,46.81372956016734],[16.203095896306426,46.81223008874289],[16.204172255952308,46.81291181844225],[16.203536796582338,46.81172952003705],[16.20534932829557,46.809784765840945],[16.20730254963991,46.809930463292226],[16.20694963640623,46.80870300270379],[16.212547664497418,46.80517391924704],[16.21533562437613,46.80498444759067],[16.214686740423762,46.806129122779815],[16.216004855502703,46.80655301858961],[16.215853260631352,46.808427980140415],[16.213036936442226,46.80916195762652],[16.21189594642646,46.812210417323016],[16.208904974421934,46.814316775456305],[16.208948361213622,46.815961453811155],[16.206330010721594,46.8160192283957],[16.204673419842855,46.81747043732345],[16.2,46.816372864869],[16.2,46.81781265041235],[16.201537899893896,46.81780035522519],[16.20384703418725,46.819804390389095],[16.204672469353433,46.81867935465077],[16.206542428394407,46.81932022974248],[16.20611726468211,46.81763291026535],[16.20978354649187,46.81704814843704],[16.212259719838265,46.81767295680278],[16.21277126705929,46.819072833290676],[16.21487557807426,46.81921214228145],[16.20972209892161,46.82279079386985],[16.20759396635881,46.826219026910216],[16.206707658453578,46.82628194055547],[16.205710131249912,46.824599581722474],[16.206506850442885,46.82668715344786],[16.204396564047812,46.828043338455714],[16.200456136826517,46.82729539665622],[16.2,46.82657390162027],[16.2,46.82838405777382],[16.202075678056865,46.82920452326457],[16.204160595079237,46.828915378034935]],[[16.239685281291962,46.80411510333404],[16.239320917202683,46.80473690221312],[16.235966736422014,46.80478782702003],[16.236304609936802,46.803299057975],[16.239685281291962,46.80411510333404]],[[16.237624236315643,46.80533574416596],[16.239168059499402,46.80501630944892],[16.239023727257045,46.80580428301714],[16.237624236315643,46.80533574416596]],[[16.239025107074546,46.83206118236215],[16.23835900634675,46.83192066880008],[16.239307417963996,46.83144127494814],[16.239025107074546,46.83206118236215]],[[16.22295222805534,46.80582008901407],[16.222841383982917,46.80404023604116],[16.235124973572614,46.804972107501],[16.23708840590269,46.8059307040962],[16.237459016601207,46.80860066231313],[16.235807154523705,46.80956044939666],[16.23569831015983,46.812344877418695],[16.22792929125745,46.81217786207644],[16.22687594491774,46.81121015332108],[16.22715503454852,46.810022272860174],[16.226059968684762,46.81229915353193],[16.221597751309126,46.8121133677333],[16.21893600396024,46.80633101729239],[16.219368736595005,46.80453108221559],[16.222019128985206,46.80473827587336],[16.22295222805534,46.80582008901407]],[[16.235627486278027,46.803325596272465],[16.235134909973095,46.80461216590355],[16.2335067782342,46.80452420243987],[16.233392459082317,46.802957033145496],[16.235627486278027,46.803325596272465]],[[16.22882533585661,46.821658674498096],[16.229004703164147,46.820411085299234],[16.232050565469674,46.819902430618136],[16.233659350187892,46.82044869634998],[16.234819888374894,46.8231169252052],[16.226647762646653,46.82485320152498],[16.22353757462775,46.82386330215385],[16.222538960702853,46.82250508423843],[16.2277980002424,46.820411433056584],[16.22882533585661,46.821658674498096]],[[16.23351472480201,46.81935588740734],[16.233291699859,46.819750482433925],[16.232635202198786,46.818889783854054],[16.23351472480201,46.81935588740734]],[[16.222587485602226,46.80154484713223],[16.232323671629853,46.80285620247675],[16.231009432811696,46.80425785936212],[16.229393053849908,46.80405088644107],[16.22922816352776,46.80284636649203],[16.228179496709675,46.80267948703021],[16.22743566600199,46.803780931697496],[16.22430336325095,46.80377143695277],[16.22423579999586,46.80226933291494],[16.222587485602226,46.80154484713223]],[[16.224123170011673,46.81496825622351],[16.224692701793906,46.816071747008806],[16.23048631462378,46.817376945454086],[16.23113778168329,46.8186050185335],[16.23013834584087,46.81971028763873],[16.223456357031058,46.82062937007892],[16.215422708417822,46.819445113249564],[16.219762781766498,46.816209549643254],[16.224123170011673,46.81496825622351]],[[16.22566093002321,46.81284708695962],[16.223905174936817,46.813446850111376],[16.22409988706581,46.814630377331675],[16.219717413383183,46.81593404881141],[16.2181383342722,46.817151048933404],[16.21643582194717,46.81639442811518],[16.223975605367233,46.812701405898125],[16.22566093002321,46.81284708695962]],[[16.208484015125503,46.825794380666274],[16.210042447035118,46.822916108450116],[16.21500417482035,46.81986118483843],[16.22273902268918,46.82081385101367],[16.222217133363472,46.82258237837799],[16.22371384847979,46.824456905526745],[16.220922667920888,46.826876540774464],[16.217374900095145,46.82793127878571],[16.21822098594832,46.82543609794237],[16.216282179361073,46.82651549739252],[16.21457818461014,46.824884687752835],[16.216086148604685,46.82386375123065],[16.213945015697263,46.824131471212404],[16.21420402821467,46.82571657293157],[16.208484015125503,46.825794380666274]],[[16.222675188891895,46.803168454507194],[16.222484306682393,46.80366105297597],[16.221429874765583,46.802803080600256],[16.222675188891895,46.803168454507194]],[[16.221113442613017,46.81221587160699],[16.22173289624752,46.813622858837874],[16.219941737915892,46.813676264325096],[16.220389691568133,46.812240515928444],[16.221113442613017,46.81221587160699]],[[16.21579207099236,46.81561313739217],[16.215334587575505,46.81480008519269],[16.212730318307212,46.81460024545182],[16.215181306441412,46.81112971939199],[16.214701087125572,46.80978048957037],[16.21633177859313,46.80930888579536],[16.217106421359453,46.80840150378782],[16.216696778897788,46.80682315068549],[16.21835304562056,46.80572484366268],[16.220260508876517,46.811244206482385],[16.21902184644678,46.81156076964961],[16.219789318055753,46.812115319562004],[16.218820039593155,46.81466446298382],[16.215587940325275,46.81652473135474],[16.212756260309927,46.81606380007794],[16.214082219032484,46.81491140770414],[16.21579207099236,46.81561313739217]],[[16.21712299407371,46.800694330113664],[16.21895543633784,46.80127661165776],[16.219422012163545,46.80248935847875],[16.21123550310207,46.80284396753216],[16.21103323839198,46.80074681013662],[16.21712299407371,46.800694330113664]],[[16.21784627315894,46.83508595542606],[16.2171604617553,46.83551944282265],[16.216236899632634,46.83480049429161],[16.216707066654145,46.83434773062995],[16.21784627315894,46.83508595542606]],[[16.21749264532138,46.828905265115026],[16.21503604041696,46.829817516514225],[16.209227460127074,46.829069245507064],[16.206671706851562,46.827781562830786],[16.20689258033779,46.826823845986006],[16.214615646485928,46.82594298390307],[16.21749264532138,46.828905265115026]],[[16.216478657796767,46.81766893638304],[16.21353887325296,46.81839899664558],[16.21566195376205,46.81682380805284],[16.216478657796767,46.81766893638304]],[[16.216833400145433,46.83595741799757],[16.215044248673692,46.83703942736866],[16.213385205172237,46.836272069019046],[16.21430532419402,46.83810374107507],[16.211864546004055,46.83886936526516],[16.210658182057475,46.837781538049036],[16.2110681996928,46.83640790715767],[16.209531625833815,46.836504080238605],[16.20960066881212,46.83527074540412],[16.211079020956916,46.83522531044971],[16.208599243512342,46.83354111184434],[16.208377873422318,46.831563909091],[16.21080427418718,46.82954527753208],[16.216833400145433,46.83595741799757]],[[16.216218735887143,46.83040290779375],[16.214435365775802,46.83268070128164],[16.21346267797472,46.83137220585684],[16.21402257160955,46.83031021729634],[16.216218735887143,46.83040290779375]],[[16.212840281216355,46.803221619665294],[16.214303673599233,46.80317283511309],[16.21334676283513,46.803971229018686],[16.212840281216355,46.803221619665294]],[[16.21438229504986,46.80928493028739],[16.214225859884348,46.80975318355444],[16.21349293834499,46.80919658097387],[16.21438229504986,46.80928493028739]],[[16.214496671659024,46.81692904965339],[16.213067783845606,46.81783430145127],[16.21063498124046,46.81651344939969],[16.212122342577548,46.816109013143745],[16.214496671659024,46.81692904965339]],[[16.21314744999943,46.81025953085645],[16.213861717244175,46.81106853710075],[16.212455998065625,46.811175674908625],[16.21314744999943,46.81025953085645]],[[16.21338902057822,46.83036200338167],[16.21236793948672,46.83093524614579],[16.211914133981523,46.83047756013429],[16.21287482650382,46.830072673266464],[16.21338902057822,46.83036200338167]],[[16.211658809194844,46.81361101534278],[16.21127759153685,46.812764026067555],[16.212691459585926,46.812569127868734],[16.21152853218331,46.81529961076139],[16.210199358611348,46.814933652762655],[16.210795851187246,46.81357290525793],[16.211658809194844,46.81361101534278]],[[16.210741250543908,46.83974118174819],[16.210755387149472,46.839243448332745],[16.211592397287458,46.83955946565585],[16.210741250543908,46.83974118174819]]]}},{"type":"Feature","properties":{"_zoneType":"SI_BUILT","name":"Pozidano zemljišče","authority":"MKGP","dataSource":"raba-3000"},"geometry":{"type":"Polygon","coordinates":[[[16.23962832837858,46.82200844631483],[16.23976049113836,46.823262872717734],[16.240000000000002,46.82323945319721],[16.240000000000002,46.82199383906554],[16.23962832837858,46.82200844631483]]]}},{"type":"Feature","properties":{"_zoneType":"SI_BUILT","name":"Pozidano zemljišče","authority":"MKGP","dataSource":"raba-3000"},"geometry":{"type":"Polygon","coordinates":[[[16.22495829571361,46.838697347724334],[16.224032184599047,46.84],[16.224233796790422,46.84],[16.22495829571361,46.838697347724334]]]}},{"type":"Feature","properties":{"_zoneType":"SI_BUILT","name":"Pozidano zemljišče","authority":"MKGP","dataSource":"raba-3000"},"geometry":{"type":"Polygon","coordinates":[[[16.2,46.82634495386067],[16.2,46.82639334463848],[16.20119084374822,46.82509144545686],[16.2,46.82634495386067]]]}},{"type":"Feature","properties":{"_zoneType":"SI_BUILT","name":"Pozidano zemljišče","authority":"MKGP","dataSource":"raba-3000"},"geometry":{"type":"Polygon","coordinates":[[[16.209880722788697,46.840815655914405],[16.20571113898147,46.842515963129784],[16.201586863778324,46.84542985332912],[16.20053687937994,46.84317870040165],[16.2,46.84270819294218],[16.2,46.84335309467694],[16.200495413900867,46.844207434229226],[16.2008497374139,46.846319063810085],[16.2,46.84758362656126],[16.2,46.8480737591614],[16.204215747940086,46.84447215462395],[16.206780641342355,46.84724972998342],[16.20600220493459,46.84464100294167],[16.20921846244186,46.84200861696446],[16.21145302051988,46.84229273743398],[16.21364516119747,46.844938747159986],[16.218087577184907,46.84617083396518],[16.217809926372087,46.85029485044337],[16.214718086572503,46.85060238716142],[16.21190487853572,46.84907611639026],[16.205592503782682,46.85029269514311],[16.20590404113356,46.85096316616037],[16.211726637853868,46.849303834975736],[16.21243914329718,46.85083477516429],[16.21581695513996,46.85109702346766],[16.205874650587837,46.85533989195461],[16.2,46.85638181495406],[16.2,46.85682285184762],[16.206029124142837,46.855567195141546],[16.213490795593692,46.85219584475769],[16.21605114493463,46.85197549011646],[16.214610044246474,46.85416710983816],[16.212242251622307,46.85492865409049],[16.2123264357107,46.856074881503304],[16.21328028306919,46.85498807839268],[16.214583413287016,46.85509418981349],[16.217009420547555,46.850981446144985],[16.218406426385855,46.85196080521989],[16.217086725714136,46.854613074413585],[16.212892424462456,46.857051243224156],[16.210955830647478,46.859122266509026],[16.20691025572705,46.85897175824778],[16.205643675957145,46.85810194075346],[16.20349170156253,46.85865999283829],[16.2,46.85694131655976],[16.2,46.8577920975881],[16.20348111705997,46.858931004098544],[16.20852177203557,46.859353111232565],[16.209333514005007,46.86003630672884],[16.205786568119525,46.86174965338699],[16.20319339013915,46.86447322615706],[16.200562361696562,46.8625445157414],[16.202210404237785,46.861330420821716],[16.200542896239156,46.86182092477526],[16.200269776826552,46.862700778266245],[16.201926060691296,46.864569549429056],[16.2,46.86560951941009],[16.2,46.86582451485275],[16.20032091610615,46.865794826838965],[16.202489230033894,46.86472153402052],[16.203357125903466,46.86501923442668],[16.206892012184866,46.86320059099986],[16.207217641605258,46.86466275950291],[16.206183686612984,46.865812932451384],[16.208599497233784,46.864231560146],[16.209888048567226,46.86605466901123],[16.210536791303056,46.86538243696644],[16.209242384834777,46.86333626414539],[16.210750577031977,46.86083297231232],[16.212433304111713,46.86266440694589],[16.2118159493813,46.86370623403534],[16.21428089685848,46.865421691731704],[16.212895436768406,46.86587289880157],[16.215111129861175,46.86600064368368],[16.216039647295016,46.86881491288705],[16.225141319076883,46.87208042249825],[16.22683080087949,46.871032984920916],[16.224795644665296,46.87156113598813],[16.22140673242266,46.8699995899568],[16.22196655038441,46.86731671595305],[16.220954411201223,46.86332513139161],[16.218116385120908,46.86002575501023],[16.219837823087726,46.8593974899559],[16.222195295120347,46.861140266870215],[16.22047927310685,46.85952463192822],[16.2220757739865,46.857924558086374],[16.220231259576224,46.858667710339425],[16.219343372836573,46.85791462843303],[16.22103235919158,46.85473039097832],[16.223006415845482,46.85509208009657],[16.22421587677415,46.856024598339225],[16.223024465587994,46.85721732417259],[16.22397371834183,46.86211407299843],[16.223399284318553,46.8573258992793],[16.224871784377175,46.85636703356825],[16.224971678395367,46.85477608071622],[16.22248132495301,46.8548010229832],[16.219371084134167,46.85320472950332],[16.218275456544816,46.84865199723798],[16.21947518121326,46.84786932813528],[16.22061897145448,46.84978766542933],[16.22074274495776,46.84824478232027],[16.22213680729634,46.847778095800166],[16.222136686991885,46.84865178826786],[16.224527807709567,46.850736343054066],[16.222853474396157,46.848840049809205],[16.223163407998104,46.84686120898007],[16.2204420064553,46.84805015702619],[16.21971309921585,46.84754892316281],[16.22190759748062,46.84517401488181],[16.224320013634372,46.84479088339932],[16.232463757218575,46.849108385445795],[16.22992628621162,46.849220147908476],[16.231061947773032,46.85025898487749],[16.2266043400763,46.852029275153335],[16.2267804700691,46.852790513119885],[16.22894218921895,46.85236265206846],[16.22801910687106,46.85392342556992],[16.226090623239486,46.85309037524014],[16.228135946194193,46.854691968626724],[16.22750181322044,46.85990410695164],[16.23183945821569,46.8629814337722],[16.230786421757248,46.86092128991718],[16.22783314934162,46.85982019048886],[16.228472578749454,46.85381453786352],[16.230364291279994,46.851332668228174],[16.232531759297196,46.8521251890285],[16.230981800084276,46.85107626962475],[16.23189311085902,46.850075148746484],[16.23659037703866,46.85383626631991],[16.232649494531255,46.850037120667764],[16.234724153917604,46.84893272991388],[16.235174208382443,46.84659735097712],[16.23838792234336,46.84863835959079],[16.236027973307127,46.84655330914263],[16.238643168296168,46.845584568222826],[16.236752608941117,46.84559404262916],[16.236607766711632,46.84489870148748],[16.239226640465922,46.84428319901425],[16.23570600242773,46.84472051505652],[16.23572920993334,46.84318820215535],[16.238355218338402,46.84360973853953],[16.235271341043354,46.841934308540296],[16.23569767063987,46.84],[16.23491875418527,46.84],[16.234538001071073,46.84350901587582],[16.23300788356409,46.841038969604426],[16.23304325711647,46.84451208362859],[16.229057472090638,46.84374153420201],[16.229717648394146,46.84278661523805],[16.22757303346954,46.840025862884154],[16.227935307683452,46.84],[16.226902404592053,46.84],[16.224979854516224,46.841810236100706],[16.223631156836415,46.84108354930887],[16.224233796790422,46.84],[16.224032184599047,46.84],[16.223131595036484,46.84126675409102],[16.221278973419484,46.84214417571026],[16.221898275525312,46.842763390630815],[16.223525702688402,46.84149531362043],[16.22470940577418,46.842345611040635],[16.221383645683062,46.84419009636022],[16.21880795718151,46.84743023474845],[16.217964748917787,46.84435198315291],[16.2138574441211,46.844731700725276],[16.211565174068834,46.84194857123662],[16.20997471710637,46.8414564702011],[16.212142464711736,46.84],[16.21010712196414,46.84],[16.209880722788697,46.840815655914405]],[[16.23607375982472,46.846071525805606],[16.234831123824613,46.84629037244235],[16.235642626151222,46.845249371992054],[16.23607375982472,46.846071525805606]],[[16.228514192978903,46.8446229313383],[16.233439120636067,46.844787104997096],[16.234220846246707,46.84659921863294],[16.227292945124333,46.84589702905427],[16.225409688829835,46.844277228997655],[16.226340664462935,46.84364703601058],[16.228514192978903,46.8446229313383]],[[16.233336340028448,46.848805839907996],[16.228213727306187,46.84660457829843],[16.233533676542876,46.84780736089483],[16.233336340028448,46.848805839907996]],[[16.227126366338755,46.840399746108545],[16.229279390290074,46.84271025766689],[16.2276843889291,46.84365845543232],[16.226014000836077,46.843224848800595],[16.225746810132424,46.8416572250506],[16.227126366338755,46.840399746108545]],[[16.212312047155024,46.85927139592],[16.213435239582243,46.85855650367091],[16.21222964836135,46.858118729683525],[16.21342675093837,46.85781658035757],[16.213233790375185,46.8571624231289],[16.216401613069362,46.855336725311204],[16.216958869732455,46.85574055151624],[16.21617071957856,46.85668498442125],[16.217017384940554,46.85662531194191],[16.21794308415928,46.853716703668844],[16.220225069581524,46.8538908855077],[16.220140767170673,46.856367876223274],[16.21854073601295,46.85669288163869],[16.21769289148256,46.85904633562916],[16.216448088810882,46.85929783404528],[16.220835561831866,46.864300371645335],[16.2204778648792,46.86540413787475],[16.218904962704848,46.8658684673571],[16.221008189175116,46.8658847356713],[16.22089700101128,46.86865040384709],[16.219005044056335,46.86927118903],[16.21618725835673,46.86857524722403],[16.216513214924994,46.86618246073616],[16.213361316131152,46.86394923182552],[16.212195415515005,46.86195129698898],[16.215708807865177,46.86080078221859],[16.213204253872767,46.86140315986759],[16.211099393709627,46.86031413741388],[16.212956767351542,46.85998812782523],[16.212312047155024,46.85927139592]],[[16.218114697319,46.85879653198163],[16.218330014427448,46.857518537481496],[16.218995550633295,46.85887513587949],[16.218114697319,46.85879653198163]],[[16.209902744462102,46.86072096120554],[16.20875451937715,46.8637209325197],[16.206941394265918,46.86250695113511],[16.20866787504884,46.86092283490406],[16.209902744462102,46.86072096120554]],[[16.207518624170056,46.8425975699812],[16.206468568543258,46.84382747201853],[16.205597930303146,46.84395741897925],[16.206030643135367,46.84290190053799],[16.207518624170056,46.8425975699812]]]}},{"type":"Feature","properties":{"_zoneType":"SI_BUILT","name":"Pozidano zemljišče","authority":"MKGP","dataSource":"raba-3000"},"geometry":{"type":"Polygon","coordinates":[[[16.24115526538533,46.833538161728235],[16.240397258279163,46.83865505027938],[16.242342484661403,46.83959745105639],[16.242630765666615,46.84],[16.243049979635902,46.84],[16.242611953799244,46.839392358172866],[16.24186807844531,46.83449526168736],[16.243898782264466,46.83670881397679],[16.241584751001948,46.83384087540461],[16.24257279853468,46.833409274174116],[16.242316557925566,46.83227480283422],[16.243929731976834,46.83156848345847],[16.24575163373279,46.832134247560994],[16.24544305338262,46.83328644377266],[16.247135539717338,46.83556039007059],[16.245777969853492,46.833225866436976],[16.246740389875143,46.83141985398971],[16.24731345535315,46.83310883662881],[16.24806757663988,46.83289759722804],[16.247892210292196,46.83167856889662],[16.249198656970062,46.83192476306611],[16.25081594366799,46.834825336636925],[16.25060211656019,46.83214701558663],[16.254761577750468,46.83075569843138],[16.256783579489895,46.833056408060884],[16.255436755738476,46.830362651101524],[16.257073638809995,46.82946483687792],[16.25858574262037,46.83135013056868],[16.257235434217197,46.828861190655076],[16.25832631465418,46.82779377219911],[16.259726021963356,46.82885465141641],[16.259326184138022,46.82733710657226],[16.262415904875713,46.827104836171195],[16.264013800760132,46.82576980641884],[16.270120168220327,46.8262928370795],[16.275363534346216,46.82338314426768],[16.275034075161663,46.82546792912539],[16.27703750917432,46.82825123041018],[16.276567266489376,46.82940775574697],[16.273680641446354,46.83021772605074],[16.269083015019337,46.82967329322209],[16.273685822126097,46.8304923165374],[16.27940937230465,46.82908670572223],[16.278321556940114,46.83034200207796],[16.279168410893224,46.830749257252464],[16.278939255498347,46.833787726916874],[16.28,46.83495313219533],[16.28,46.834179858871664],[16.27924337005328,46.83330708531398],[16.27946805599884,46.83231131922352],[16.28,46.83216159590328],[16.28,46.830264660181676],[16.27975838580166,46.82992753101486],[16.28,46.82838272566222],[16.28,46.82586245146066],[16.279686022921965,46.82783484119465],[16.278154749468534,46.8289495908719],[16.275921217611977,46.82463208431492],[16.27612351433379,46.82299233090652],[16.277241513168185,46.822707299681234],[16.277510257217912,46.8235552684571],[16.27942401001508,46.823944590685244],[16.28,46.825137204691785],[16.28,46.82027899179644],[16.27702283010119,46.81900577260269],[16.278759092936916,46.81673746216699],[16.28,46.8178134326981],[16.28,46.81712033868572],[16.279351183329567,46.81670935768041],[16.28,46.816427845755676],[16.28,46.81581579803467],[16.279551912082535,46.81602751744839],[16.2779045753827,46.815514280309586],[16.27755276338111,46.813814484782],[16.27158376240554,46.81029411414285],[16.277973712161664,46.81647547801471],[16.27601581129156,46.8174070030934],[16.27410922766245,46.815732240840205],[16.27512073021625,46.81708982608857],[16.27433702461107,46.81746678887174],[16.26816051451553,46.81242251456945],[16.258593401971243,46.807487830424584],[16.26027113417026,46.80603035511405],[16.26510448371249,46.8072706092917],[16.260361727619244,46.805603276394024],[16.261155621497373,46.804184938056665],[16.265437409356654,46.8046593027133],[16.26476151360097,46.80436941347063],[16.2608572868912,46.80388213182358],[16.25978091853869,46.805912226668866],[16.257653711460062,46.807149134581],[16.25005177408021,46.80547610596628],[16.250007187247405,46.80327220160652],[16.25129293935809,46.80458595390089],[16.252628409093443,46.80427542712478],[16.252743143190497,46.8029035911161],[16.250574576799607,46.802501989677964],[16.246567210091726,46.80385894280256],[16.246078917622768,46.80290392820643],[16.244856996659,46.80464246602567],[16.240000000000002,46.803836578330625],[16.240000000000002,46.80593262808687],[16.240542011409083,46.80565423968647],[16.24155193925315,46.80655728753755],[16.240374543336372,46.80731061484461],[16.240940276131845,46.80783131775605],[16.24376579709937,46.80687607858255],[16.24394029000599,46.805449969314104],[16.245321082315503,46.80647951123674],[16.244141656205365,46.80781320425138],[16.24478951646116,46.80919440703231],[16.24414749332292,46.81056775925155],[16.24524392373913,46.80924736343595],[16.247520092327335,46.80897815991531],[16.24781336402946,46.80790025665252],[16.249230883777706,46.80820681406759],[16.249160124637992,46.81126788074119],[16.25040743040611,46.808619090052],[16.25305627976033,46.81037016725615],[16.25424620302494,46.807377350379554],[16.25826347721437,46.80804001230267],[16.263545298417238,46.81055208754957],[16.263278393951765,46.81152294808907],[16.267187230878974,46.81253999905281],[16.271689853000108,46.818382411153564],[16.254954430899897,46.81815794799129],[16.25097414382094,46.817660298193786],[16.25024999248476,46.81664525670789],[16.25043445910708,46.81770193883295],[16.249375799262697,46.81833567539452],[16.24321828371,46.81926324668833],[16.242511210560796,46.81868628541044],[16.243634202363936,46.817988247945344],[16.242008314233892,46.81752211653258],[16.241819797868306,46.81521701175686],[16.241524621894232,46.81899924877416],[16.2403165952817,46.81934549630399],[16.240000000000002,46.81912733169164],[16.240000000000002,46.820395931171475],[16.241629728453436,46.81949995608852],[16.24442151381841,46.819621568771296],[16.243424817420813,46.82185923863076],[16.240000000000002,46.82199383906554],[16.240000000000002,46.82323945319721],[16.2409254167127,46.82314896462175],[16.241161304839952,46.82221807955973],[16.24555506369154,46.822150701343666],[16.24550686096512,46.82007451605418],[16.249113814709798,46.81928252278447],[16.249888622452758,46.820340602145095],[16.24986146363255,46.81909823843882],[16.25279377634774,46.81799566444801],[16.255219752464573,46.818424626459375],[16.271846433651227,46.81916301501244],[16.270933965663687,46.82127136253576],[16.259366795657893,46.8229741349456],[16.274412194764523,46.82108090733172],[16.275012621099055,46.82027296488269],[16.27634221990961,46.82111287154924],[16.275186737525104,46.82303486686922],[16.27190709382428,46.82430940993456],[16.265216606672357,46.824127302874395],[16.271636160809983,46.8247913857648],[16.270124523058204,46.82600002566939],[16.263660779061187,46.82556398384303],[16.26220473556435,46.82689713800836],[16.258837457343738,46.82720829088741],[16.253743211634035,46.83103503217527],[16.251377071158323,46.831734087523884],[16.25027397988392,46.831575374233104],[16.25036193734929,46.83083624546507],[16.247293118228857,46.830992041389926],[16.247358526668854,46.82989026931679],[16.249221265250952,46.828425516420374],[16.248798198975187,46.827512506581215],[16.250313381178337,46.82654517057404],[16.248308384769995,46.82751257656252],[16.248256894359542,46.829013486747364],[16.24720742160478,46.828223329653206],[16.24609386095628,46.828716550269164],[16.246634812023146,46.83090942752869],[16.244723358428438,46.82867152613977],[16.24481406153201,46.830589858448576],[16.240241466801876,46.83059867239016],[16.240000000000002,46.82908554772359],[16.240000000000002,46.83250390161639],[16.24080295326737,46.83201142359918],[16.240840826993292,46.832612761699274],[16.240000000000002,46.83255677314248],[16.240000000000002,46.8334347161942],[16.24115526538533,46.833538161728235]],[[16.27848562885292,46.821504861854784],[16.277832532529814,46.82165763192266],[16.27514908757122,46.81980991984128],[16.27667095084382,46.819274009652496],[16.27848562885292,46.821504861854784]],[[16.275749792469217,46.818205054942155],[16.276140867262278,46.817749901442056],[16.276730370322323,46.81860782691643],[16.275749792469217,46.818205054942155]],[[16.274563064142864,46.81819585025159],[16.2734783119411,46.8186855909845],[16.27378731970961,46.81753161109926],[16.274563064142864,46.81819585025159]],[[16.274313156689434,46.820597782520174],[16.27171140394636,46.82118557014847],[16.271365249736714,46.82068184064578],[16.273780104708308,46.81974706870471],[16.274313156689434,46.820597782520174]],[[16.26987565912758,46.81475056398736],[16.270555127919764,46.81464487800477],[16.272373794087542,46.81627408712405],[16.27153039306057,46.81668735886567],[16.26987565912758,46.81475056398736]],[[16.25088256984847,46.806688872101326],[16.251268188191425,46.80638656513633],[16.25212027663123,46.80718595009527],[16.25088256984847,46.806688872101326]],[[16.245079090456134,46.80539757107378],[16.247426270972237,46.8057223457688],[16.24562526738027,46.8062361159175],[16.245079090456134,46.80539757107378]],[[16.24572837382259,46.804483489322514],[16.246228106825082,46.80420335185251],[16.246167013503797,46.804802053748716],[16.24572837382259,46.804483489322514]],[[16.242829029236194,46.8052114239613],[16.243052211494902,46.806239339628846],[16.242135434642606,46.80539299099061],[16.242829029236194,46.8052114239613]],[[16.241646098364487,46.832029165444446],[16.240956449316975,46.831395008131764],[16.241920445391678,46.83130494883718],[16.241646098364487,46.832029165444446]],[[16.240007093714013,46.8045193148953],[16.240213187697243,46.80410755695472],[16.240959606864607,46.804673683133224],[16.240007093714013,46.8045193148953]]]}},{"type":"Feature","properties":{"_zoneType":"SI_BUILT","name":"Pozidano zemljišče","authority":"MKGP","dataSource":"raba-3000"},"geometry":{"type":"Polygon","coordinates":[[[16.279128370416156,46.80674622638534],[16.277971063434116,46.80447196934442],[16.27352442759444,46.8010146486735],[16.275724748330227,46.800000000000004],[16.27399748913244,46.800000000000004],[16.27301458474922,46.80098483723037],[16.27757211115921,46.80454752700551],[16.28,46.808154362683325],[16.28,46.80698822092849],[16.279128370416156,46.80674622638534]]]}},{"type":"Feature","properties":{"_zoneType":"SI_BUILT","name":"Pozidano zemljišče","authority":"MKGP","dataSource":"raba-3000"},"geometry":{"type":"Polygon","coordinates":[[[16.265633521819993,46.83949936510192],[16.2647854071479,46.83914953155361],[16.265138656315177,46.83778249112213],[16.263879799408393,46.83983444093734],[16.260801538834098,46.839566698979745],[16.259486822919182,46.83785533863677],[16.260549575025895,46.8397966277884],[16.261898340152655,46.84],[16.264441236959616,46.84],[16.265633521819993,46.83949936510192]]]}},{"type":"Feature","properties":{"_zoneType":"SI_BUILT","name":"Pozidano zemljišče","authority":"MKGP","dataSource":"raba-3000"},"geometry":{"type":"Polygon","coordinates":[[[16.24313451039921,46.812558726208614],[16.240000000000002,46.81261475720325],[16.240000000000002,46.812988116478536],[16.24313451039921,46.812558726208614]]]}},{"type":"Feature","properties":{"_zoneType":"SI_BUILT","name":"Pozidano zemljišče","authority":"MKGP","dataSource":"raba-3000"},"geometry":{"type":"Polygon","coordinates":[[[16.245245473121315,46.84365111715557],[16.24599661883712,46.8463529273744],[16.242662600404806,46.850623607707576],[16.24371129815037,46.85098417044448],[16.244450115434656,46.84873530376503],[16.246443750915407,46.84759118129032],[16.246366096261685,46.84872536223478],[16.250199697351974,46.85452903940042],[16.247296269610146,46.85555872853239],[16.249963405416082,46.85517660334085],[16.25276194145413,46.856616443570836],[16.256648302900487,46.85714423998591],[16.258524804324637,46.858628001097294],[16.255904081802207,46.85992077088022],[16.259081562228587,46.85940539603125],[16.259547264671134,46.86054387471682],[16.25715741411837,46.86196004522124],[16.25637414492113,46.863766079563234],[16.259416792075346,46.86105450475778],[16.259835939036908,46.86212203764435],[16.262252662326347,46.864143003817894],[16.260863493121917,46.86462056727594],[16.261307517237814,46.865438631997804],[16.259461129493786,46.86677993425488],[16.25866305175552,46.865470366825015],[16.257118165856266,46.866328151357635],[16.2593387343689,46.86730263124502],[16.25847579535844,46.87137792053126],[16.25908315903111,46.87245071037812],[16.257116490167085,46.87290257558948],[16.256937038373458,46.871482066149376],[16.253106582632856,46.871273544529146],[16.25243523436195,46.86981012138345],[16.253271504576375,46.86921260652797],[16.25138114719274,46.868517054430654],[16.253576578151453,46.87246147338772],[16.250445210630044,46.873265006683184],[16.24811071329843,46.87243574791278],[16.249689171666237,46.87311155776995],[16.24778928864725,46.874184961148444],[16.253481282133507,46.87296785057736],[16.25452591655974,46.87215146218146],[16.25638059270762,46.873407588363705],[16.25999281481532,46.87254976208792],[16.25949904689824,46.86952450686565],[16.261084788760517,46.86798195901903],[16.259925846720044,46.86680224951327],[16.266651211722532,46.86256704303532],[16.266435658554144,46.86118889290368],[16.26943612596794,46.859253932338255],[16.27059071656748,46.859630293215766],[16.27130485050566,46.86167373614254],[16.272457598622776,46.861112771947454],[16.27442491821172,46.862556668260176],[16.27399258904706,46.86418595876508],[16.275018259711082,46.862587176733186],[16.27866795796344,46.86164470429632],[16.279135985515484,46.86238902941714],[16.28,46.86186177387542],[16.28,46.860915734102534],[16.276372029543808,46.862215585983016],[16.27397331149423,46.86213976251917],[16.271257079722957,46.86008075759569],[16.271280959352914,46.85885562400129],[16.273826112012227,46.858778615010955],[16.27474302103485,46.85960199826493],[16.275601677049504,46.858349221427225],[16.27871439652161,46.85805852375029],[16.2793596330984,46.85648697670872],[16.28,46.85693843642062],[16.28,46.85542144343545],[16.278922092690994,46.855768544806914],[16.28,46.854859457731],[16.28,46.85425533911375],[16.278214539191026,46.85501140932243],[16.278158020795274,46.856571489861885],[16.274214062955664,46.85831883375048],[16.271125486595086,46.85777400579754],[16.272236944701632,46.856084407500596],[16.274942826903374,46.854777744926686],[16.27443386434944,46.853800404288656],[16.279219476536415,46.85257848594269],[16.28,46.85419744933359],[16.28,46.85238252828081],[16.276343793425305,46.8524598946234],[16.27409990062938,46.853300278446014],[16.272964109357357,46.85060464319044],[16.274624682601925,46.8499941450741],[16.27460855957776,46.84919395951736],[16.28,46.847397212127085],[16.28,46.84670403508328],[16.275307854731818,46.84881064348878],[16.271403920705094,46.847422029159596],[16.273039642765536,46.8458295207829],[16.272915495139276,46.84452060828054],[16.271264892800318,46.84692491720564],[16.2675348259516,46.846585012549575],[16.26596210575117,46.84732789232906],[16.26334480003311,46.84541018869982],[16.264110645942043,46.844890370388],[16.263710398985378,46.84030687548497],[16.264441236959616,46.84],[16.261898340152655,46.84],[16.26333259011822,46.84021626195822],[16.263234862867098,46.84247340686938],[16.261699555638586,46.843752579634156],[16.263380680539015,46.84373599767277],[16.26241964546442,46.845350695992465],[16.264075915390006,46.84668154633233],[16.264260900048164,46.84842754866569],[16.261935410066123,46.84854491782469],[16.261893112912755,46.85065417519554],[16.259865476670825,46.85025903948531],[16.258397029551002,46.84888479175429],[16.259159140731985,46.847034968301564],[16.258062998043794,46.84646287005732],[16.25793067623202,46.84898240003523],[16.25965660178659,46.850456016345625],[16.261656291129608,46.85103798338235],[16.261197436686345,46.85240827352916],[16.25913569520485,46.85310020161641],[16.258082538258037,46.85267521962998],[16.258505016769128,46.85179985693942],[16.256598265866405,46.85164811934155],[16.25393309974241,46.85401112361624],[16.251091691918624,46.85481555392972],[16.24693600335027,46.84789108947145],[16.250673164028086,46.847767169498056],[16.251601721784457,46.846838700472254],[16.24976928244988,46.8474713141876],[16.24726634784617,46.84711187120029],[16.246702442236394,46.846179576403685],[16.248943370744417,46.84557888596343],[16.249515417554303,46.84347002490096],[16.250889687463307,46.84330075962276],[16.249497415324964,46.84304026313922],[16.247028601301512,46.84540478117735],[16.243884989155024,46.8414681561826],[16.245850532104555,46.840520663101294],[16.24370294204504,46.84090580791848],[16.243049979635902,46.84],[16.242630765666615,46.84],[16.245245473121315,46.84365111715557]],[[16.263632259461083,46.85492288258234],[16.259460619278126,46.85558369801481],[16.259287864193993,46.854254003766464],[16.262024648440054,46.85393326303245],[16.26179837092559,46.85220580143102],[16.265270766360015,46.851937746046524],[16.267920919937342,46.853045627224795],[16.265723684854166,46.85180067757844],[16.262755962792554,46.8518212800321],[16.262761437223638,46.849819140419115],[16.264935321988343,46.84830438706798],[16.266456626786862,46.84836188888712],[16.265097254908333,46.850014365556966],[16.26848761519058,46.85026826252839],[16.269495056667242,46.85278723044813],[16.272157104356175,46.85258014305901],[16.273775788287963,46.85354862087684],[16.269569666430883,46.85888663563485],[16.26338266064186,46.85962684898515],[16.266205161807072,46.86059841765601],[16.2643882422183,46.86302711390943],[16.26246059810965,46.863205567217214],[16.260272142512303,46.862077019999525],[16.25906572267287,46.85838173664977],[16.259996266895698,46.85630811534601],[16.263632259461083,46.85492288258234]],[[16.268420832619068,46.84724374590612],[16.271973569628937,46.84801687714642],[16.273281442898192,46.84988802945445],[16.272554553371307,46.85068150706727],[16.272541207275573,46.85220004545034],[16.270571034435164,46.85242495816818],[16.269542416401222,46.85209796267568],[16.268793228310017,46.8501533473293],[16.266646695843875,46.849151676539066],[16.267054704874962,46.84748176205259],[16.268420832619068,46.84724374590612]],[[16.2585560582557,46.853489464763086],[16.259352430822062,46.856639851131796],[16.257478667811643,46.85763618450129],[16.25589736147455,46.85424136739069],[16.256541309195036,46.85269092642186],[16.2585560582557,46.853489464763086]],[[16.256264666468546,46.85669624581885],[16.254654034991248,46.85667860267805],[16.25450320821226,46.85573632040011],[16.2554982111305,46.85521705735851],[16.256264666468546,46.85669624581885]],[[16.25146386795466,46.85526008366579],[16.252524941004754,46.85485957863447],[16.252823475361108,46.856031257109144],[16.25146386795466,46.85526008366579]]]}},{"type":"Feature","properties":{"_zoneType":"SI_BUILT","name":"Pozidano zemljišče","authority":"MKGP","dataSource":"raba-3000"},"geometry":{"type":"Polygon","coordinates":[[[16.3110369611414,46.83943460482046],[16.311001037363894,46.83795790018063],[16.30958032395375,46.838014518556264],[16.310086343908303,46.83887019748259],[16.309456633582588,46.84],[16.310247951427396,46.84],[16.3110369611414,46.83943460482046]]]}},{"type":"Feature","properties":{"_zoneType":"SI_BUILT","name":"Pozidano zemljišče","authority":"MKGP","dataSource":"raba-3000"},"geometry":{"type":"Polygon","coordinates":[[[16.284723411008503,46.83775514015378],[16.286642912827975,46.83615941042332],[16.290549730860192,46.836034820034975],[16.287767587918033,46.83469239941361],[16.288141008648132,46.8330248714405],[16.289637976632147,46.83301433567143],[16.28967691133996,46.83232268740901],[16.288386519802813,46.832206588031305],[16.29035168928052,46.82700013274509],[16.292328944599458,46.8256285747033],[16.293665977549026,46.82581129769387],[16.293907568183805,46.82869347070126],[16.29537057058998,46.82716388594536],[16.294780055642253,46.82569920710386],[16.295632367257163,46.82464566046458],[16.297166933959964,46.826134487723756],[16.299540109185404,46.82665663445373],[16.297808303969465,46.82529990414331],[16.29816909954752,46.824189515893735],[16.30343138326501,46.82363272899831],[16.304655776391858,46.83081682086228],[16.30458618988467,46.828151060018776],[16.30826235080606,46.82780084664967],[16.304448073361222,46.82765350617966],[16.304296177436072,46.825613826669304],[16.306264125431813,46.825874525554525],[16.305251040430214,46.82361866100879],[16.310662216178528,46.82402435173219],[16.30923887284462,46.82326905456099],[16.30886610671179,46.821729762776],[16.310589402843046,46.82102864473082],[16.29844431563088,46.822738458270315],[16.291791829121472,46.82223368864281],[16.292451003273403,46.820632540755206],[16.30350531957377,46.82077302839909],[16.303932133282846,46.81894572982527],[16.31051068422805,46.81974550143684],[16.310525585599073,46.818402661553144],[16.296784492918796,46.81832657224341],[16.296393324491817,46.815839750424814],[16.29867141883333,46.81541930884556],[16.296450662688777,46.81529091563727],[16.29644883211866,46.81307104601963],[16.299504570065935,46.81379775541614],[16.30366968606608,46.81397069182304],[16.31039911255565,46.81319739367882],[16.2996220127658,46.8135563907808],[16.298845011607458,46.811869940548156],[16.29661449269066,46.8115223741504],[16.295653332666493,46.809813592378795],[16.292484446525293,46.81039989798938],[16.281882584939854,46.809352493132934],[16.28045743881731,46.80831923780027],[16.280958637844808,46.80725437197658],[16.28,46.80698822092849],[16.28,46.808154362683325],[16.280370513670654,46.808704792301015],[16.28112692278385,46.815283332369326],[16.28,46.81581579803467],[16.28,46.816427845755676],[16.28368053399104,46.81483091667681],[16.29040835101243,46.81459109278939],[16.289625454625686,46.81173635802758],[16.291109480585195,46.81078927682732],[16.293997991993464,46.81075644880497],[16.29665287194165,46.812264440532395],[16.29479143001461,46.81299089957146],[16.294975263873557,46.81461237913376],[16.293909134599467,46.81455465215891],[16.295978161935903,46.815830590100234],[16.295962863464055,46.818336693739504],[16.292912420408385,46.81813537681062],[16.29269918427885,46.816191630861475],[16.292199927994872,46.81802281763853],[16.28271992088531,46.8188432226231],[16.28,46.81712033868572],[16.28,46.8178134326981],[16.281342433002756,46.818977434736546],[16.280523185107654,46.820502737616664],[16.28,46.82027899179644],[16.28,46.825137204691785],[16.280086829893307,46.82531699001732],[16.28,46.82586245146066],[16.28,46.82838272566222],[16.280443167080335,46.82554925444028],[16.282211652609934,46.82344449422117],[16.284207111175654,46.82332803345285],[16.28602969135468,46.82499112135906],[16.28718354386511,46.82402276730985],[16.288290637061404,46.82562118226223],[16.290391080483943,46.82558812025584],[16.288164215881547,46.83182678470902],[16.2863820596603,46.83289135762837],[16.28765465465731,46.83330514142317],[16.286894641324498,46.83513260237585],[16.284494736287154,46.83558950371936],[16.284774987361082,46.83733558160612],[16.2828004763923,46.83741021177363],[16.28,46.834179858871664],[16.28,46.83495313219533],[16.28360935430438,46.83891861167845],[16.28371180420006,46.84],[16.284810031687567,46.84],[16.284723411008503,46.83775514015378]],[[16.30545281953074,46.822351320666186],[16.30564994505482,46.82202202721267],[16.306954339495423,46.82179004322506],[16.307297652542466,46.82324794127177],[16.30545281953074,46.822351320666186]],[[16.30524685325626,46.822413356881285],[16.304869821922537,46.82327456979828],[16.303228020043683,46.82240571226154],[16.30524685325626,46.822413356881285]],[[16.30286445184783,46.81870921309489],[16.303333632100948,46.82028818731459],[16.292559201793072,46.82038343712795],[16.293614563312175,46.81845119626022],[16.30286445184783,46.81870921309489]],[[16.298349879780623,46.82345823206229],[16.298600623490852,46.82300283753293],[16.302396641878,46.82294572980991],[16.298349879780623,46.82345823206229]],[[16.29899969390979,46.81287293267984],[16.29840516980639,46.81307544497953],[16.297407686634767,46.81239574266926],[16.298475137454368,46.81203173935193],[16.29899969390979,46.81287293267984]],[[16.29651413561659,46.82331471051794],[16.29604252940382,46.823844364554816],[16.295617587608124,46.82305394142421],[16.29651413561659,46.82331471051794]],[[16.295078917659247,46.82327679323367],[16.294166325948463,46.82378481736324],[16.291615848841637,46.822977674930506],[16.295078917659247,46.82327679323367]],[[16.292184730072925,46.81884209810035],[16.291760994548632,46.82001576836363],[16.288343835932224,46.820143615550684],[16.2917152755324,46.82037916739671],[16.291121211688747,46.82235907977948],[16.28228014034491,46.821019664329896],[16.283600213083126,46.81923180620533],[16.292184730072925,46.81884209810035]],[[16.288841573530828,46.82253500565021],[16.29122222553379,46.822907188587635],[16.29088725570517,46.823940756258764],[16.288912398515812,46.823231775774836],[16.288841573530828,46.82253500565021]],[[16.28961504723665,46.81425884009981],[16.28553291629176,46.814574225276644],[16.2845472551415,46.81390019224815],[16.281581861274855,46.8149917618869],[16.28100245116215,46.810456419422955],[16.289206525458784,46.81066618067052],[16.28961504723665,46.81425884009981]],[[16.28855667021738,46.822452791182066],[16.288343794500896,46.822802207547554],[16.287818296175004,46.822275272226904],[16.28855667021738,46.822452791182066]]]}},{"type":"Feature","properties":{"_zoneType":"SI_BUILT","name":"Pozidano zemljišče","authority":"MKGP","dataSource":"raba-3000"},"geometry":{"type":"Polygon","coordinates":[[[16.281131293607345,46.831843176981955],[16.28,46.830264660181676],[16.28,46.83216159590328],[16.281131293607345,46.831843176981955]]]}},{"type":"Feature","properties":{"_zoneType":"SI_BUILT","name":"Pozidano zemljišče","authority":"MKGP","dataSource":"raba-3000"},"geometry":{"type":"Polygon","coordinates":[[[16.308869633690342,46.800000000000004],[16.308327453220517,46.800000000000004],[16.31010029909085,46.800893311951825],[16.308869633690342,46.800000000000004]]]}},{"type":"Feature","properties":{"_zoneType":"SI_BUILT","name":"Pozidano zemljišče","authority":"MKGP","dataSource":"raba-3000"},"geometry":{"type":"Polygon","coordinates":[[[16.282863533372634,46.860114333448564],[16.285556832455498,46.86092054317384],[16.2856677287826,46.86399254656679],[16.284397222337876,46.86559459837779],[16.285417228165645,46.8651828590984],[16.286416738018318,46.86217578952082],[16.28826344528989,46.86246178707874],[16.288747678721304,46.863498575484634],[16.28934129725133,46.86165317530768],[16.290696121161332,46.86164527762077],[16.289671170632325,46.86115963099526],[16.28927154822025,46.85937325433965],[16.290428658087528,46.858996738502206],[16.292524109699794,46.860995369534514],[16.29075434870709,46.858593526969614],[16.292513916687067,46.85791136548921],[16.299888564604547,46.85138836027596],[16.302465491822247,46.846371386602314],[16.30523619774605,46.84350068307867],[16.307848911479745,46.84391647127793],[16.306397701357827,46.842759044395436],[16.310247951427396,46.84],[16.309456633582588,46.84],[16.309205694287986,46.84045022581842],[16.30512696905758,46.84321384368798],[16.302658094328933,46.845627335885766],[16.29966042246942,46.85117532211564],[16.292134928222215,46.85780383198194],[16.289040500103216,46.85911936770443],[16.288152392816624,46.858561455231374],[16.29126960426073,46.856562167117175],[16.288410481730487,46.85777253310741],[16.28733090267088,46.85676362398828],[16.28780639022336,46.85501095217336],[16.289426365773426,46.854745362652054],[16.288826968125278,46.85262818741981],[16.291771116791466,46.85339763952625],[16.289712406860616,46.85208996312471],[16.2930989733206,46.85007353862961],[16.294457496624506,46.850724120378715],[16.29389625908369,46.84964709999348],[16.296620666427277,46.84901373961241],[16.29821330032444,46.84755548516484],[16.288868725200864,46.85205471988064],[16.28925686332674,46.84808018347272],[16.288060725429762,46.848511019207024],[16.2883601419625,46.85074646649402],[16.28768246317009,46.85103108576044],[16.283837018055785,46.846717789353725],[16.285028535684773,46.84566274537301],[16.284810031687567,46.84],[16.28371180420006,46.84],[16.28417858070142,46.84492696116489],[16.283436921624062,46.84624521849117],[16.28061323947583,46.84642871209975],[16.28,46.84670403508328],[16.28,46.847397212127085],[16.280937473337268,46.847084790466035],[16.28354825239703,46.84711745933571],[16.284288264930556,46.84886892762827],[16.282314853610202,46.84930013971365],[16.28246967348517,46.85023549447426],[16.28579946916067,46.849745138079896],[16.286236797594327,46.85187228286179],[16.287766980617572,46.85240316293182],[16.287462817986235,46.85403304432953],[16.285848746009343,46.85440524796312],[16.285431816678766,46.85588507450263],[16.287508567947018,46.857418785048566],[16.28793494909601,46.85964404830194],[16.286511895830387,46.86022956408891],[16.28552230543882,46.85913199395164],[16.28443095547023,46.860166319734326],[16.28310986551591,46.85983834696786],[16.281987804129205,46.857896489545176],[16.282561884874383,46.85660018204148],[16.28125506682835,46.85235597071952],[16.28,46.85238252828081],[16.28,46.85419744933359],[16.28002317759234,46.85424552434381],[16.28,46.85425533911375],[16.28,46.854859457731],[16.280168839494085,46.85471706162635],[16.280498122715006,46.8552610408887],[16.28,46.85542144343545],[16.28,46.85693843642062],[16.28172560975905,46.85815499412014],[16.28018284957618,46.86085022161606],[16.28,46.860915734102534],[16.28,46.86186177387542],[16.282863533372634,46.860114333448564]],[[16.28593144831007,46.861042793255066],[16.288838584657288,46.85973588702246],[16.28890135390247,46.861763311294396],[16.286750708193207,46.8615962421014],[16.28593144831007,46.861042793255066]],[[16.2825235394906,46.859514029912326],[16.282502197495006,46.85990134246496],[16.28121938425438,46.85956851187589],[16.2825235394906,46.859514029912326]],[[16.28158074046043,46.85493378513937],[16.28191979750535,46.856894307255956],[16.280134299947676,46.85610615548203],[16.28158074046043,46.85493378513937]]]}},{"type":"Feature","properties":{"_zoneType":"SI_BUILT","name":"Pozidano zemljišče","authority":"MKGP","dataSource":"raba-3000"},"geometry":{"type":"Polygon","coordinates":[[[16.31082616410385,46.83076778207015],[16.310822018680547,46.83059730449392],[16.310775028315174,46.83070385649287],[16.31082616410385,46.83076778207015]]]}},{"type":"Feature","properties":{"_zoneType":"SI_BUILT","name":"Pozidano zemljišče","authority":"MKGP","dataSource":"raba-3000"},"geometry":{"type":"Polygon","coordinates":[[[16.308763889414838,46.83582464091485],[16.31097524710661,46.836897678025366],[16.309754240968303,46.83565800815977],[16.308763889414838,46.83582464091485]]]}},{"type":"Feature","properties":{"_zoneType":"SI_BUILT","name":"Pozidano zemljišče","authority":"MKGP","dataSource":"raba-3000"},"geometry":{"type":"Polygon","coordinates":[[[16.308417477479498,46.804249605188204],[16.310203648212106,46.8051497818462],[16.308652661395968,46.804175208771376],[16.308417477479498,46.804249605188204]]]}},{"type":"Feature","properties":{"_zoneType":"SI_BUILT","name":"Pozidano zemljišče","authority":"MKGP","dataSource":"raba-3000"},"geometry":{"type":"Polygon","coordinates":[[[16.240000000000002,46.846097057172436],[16.240000000000002,46.846043968394625],[16.239769164738195,46.846186702766005],[16.240000000000002,46.846097057172436]]]}},{"type":"Feature","properties":{"_zoneType":"SI_BUILT","name":"Pozidano zemljišče","authority":"MKGP","dataSource":"raba-3000"},"geometry":{"type":"Polygon","coordinates":[[[16.240727438631435,46.84581455411209],[16.240568282003412,46.84569257765004],[16.240000000000002,46.846043968394625],[16.240000000000002,46.846097057172436],[16.240727438631435,46.84581455411209]]]}},{"type":"Feature","properties":{"_zoneType":"SI_BUILT","name":"Pozidano zemljišče","authority":"MKGP","dataSource":"raba-3000"},"geometry":{"type":"Polygon","coordinates":[[[16.235663539519848,46.84987056597764],[16.23547092442529,46.84969200342662],[16.234279183427763,46.84969962269685],[16.235663539519848,46.84987056597764]]]}},{"type":"Feature","properties":{"_zoneType":"SI_BUILT","name":"Pozidano zemljišče","authority":"MKGP","dataSource":"raba-3000"},"geometry":{"type":"Polygon","coordinates":[[[16.310573178429053,46.8321841148382],[16.310814973237612,46.83202415486267],[16.310817330109447,46.83110644426135],[16.31040931734971,46.83186301043197],[16.310573178429053,46.8321841148382]]]}},{"type":"Feature","properties":{"_zoneType":"SI_BUILT","name":"Pozidano zemljišče","authority":"MKGP","dataSource":"raba-3000"},"geometry":{"type":"Polygon","coordinates":[[[16.31034824894221,46.811103583320694],[16.308011273773285,46.811454602908874],[16.310354017679323,46.811341066308394],[16.31034824894221,46.811103583320694]]]}},{"type":"Feature","properties":{"_zoneType":"SI_BUILT","name":"Pozidano zemljišče","authority":"MKGP","dataSource":"raba-3000"},"geometry":{"type":"Polygon","coordinates":[[[16.307134223816096,46.83578031763556],[16.304298727430687,46.83843244589477],[16.304038669902354,46.839706877294866],[16.30454107660461,46.8386062181737],[16.307134223816096,46.83578031763556]]]}},{"type":"Feature","properties":{"_zoneType":"SI_BUILT","name":"Pozidano zemljišče","authority":"MKGP","dataSource":"raba-3000"},"geometry":{"type":"Polygon","coordinates":[[[16.301125784066958,46.83439122472184],[16.300517888104604,46.83232410437856],[16.300891063156982,46.83433631202863],[16.301125784066958,46.83439122472184]]]}},{"type":"Feature","properties":{"_zoneType":"SI_BUILT","name":"Pozidano zemljišče","authority":"MKGP","dataSource":"raba-3000"},"geometry":{"type":"Polygon","coordinates":[[[16.30010244037784,46.83120847629964],[16.299698530834124,46.827511772313485],[16.299865520765835,46.83113196420801],[16.30010244037784,46.83120847629964]]]}},{"type":"Feature","properties":{"_zoneType":"SI_BUILT","name":"Pozidano zemljišče","authority":"MKGP","dataSource":"raba-3000"},"geometry":{"type":"Polygon","coordinates":[[[16.296733613405628,46.80858204468456],[16.29527594701848,46.80736494172265],[16.295454538678403,46.808192041302775],[16.296733613405628,46.80858204468456]]]}},{"type":"Feature","properties":{"_zoneType":"SI_BUILT","name":"Pozidano zemljišče","authority":"MKGP","dataSource":"raba-3000"},"geometry":{"type":"Polygon","coordinates":[[[16.292276042715912,46.845049485039524],[16.29192799158795,46.84412721531866],[16.288746098769295,46.844753367611496],[16.291997151571262,46.84513513967149],[16.292276042715912,46.845049485039524]]]}},{"type":"Feature","properties":{"_zoneType":"SI_BUILT","name":"Pozidano zemljišče","authority":"MKGP","dataSource":"raba-3000"},"geometry":{"type":"Polygon","coordinates":[[[16.29099330648975,46.83505932089321],[16.290946703887396,46.83487486325229],[16.290427990102813,46.835093946101296],[16.29099330648975,46.83505932089321]]]}},{"type":"Feature","properties":{"_zoneType":"SI_BUILT","name":"Pozidano zemljišče","authority":"MKGP","dataSource":"raba-3000"},"geometry":{"type":"Polygon","coordinates":[[[16.289908557998174,46.84136929049452],[16.289796895275437,46.84126468210327],[16.28743959520492,46.841145879184715],[16.289908557998174,46.84136929049452]]]}},{"type":"Feature","properties":{"_zoneType":"SI_BUILT","name":"Pozidano zemljišče","authority":"MKGP","dataSource":"raba-3000"},"geometry":{"type":"Polygon","coordinates":[[[16.287182977749893,46.813547325474865],[16.28645283224686,46.81299828460169],[16.286675780164213,46.813684067545616],[16.287182977749893,46.813547325474865]]]}},{"type":"Feature","properties":{"_zoneType":"SI_BUILT","name":"Pozidano zemljišče","authority":"MKGP","dataSource":"raba-3000"},"geometry":{"type":"Polygon","coordinates":[[[16.28798695279399,46.81357451617966],[16.28785367686651,46.813440187484126],[16.287765284760983,46.813691354113026],[16.28798695279399,46.81357451617966]]]}},{"type":"Feature","properties":{"_zoneType":"SI_BUILT","name":"Pozidano zemljišče","authority":"MKGP","dataSource":"raba-3000"},"geometry":{"type":"Polygon","coordinates":[[[16.285284723540684,46.82945397495112],[16.28523094179735,46.8296361814497],[16.28556916423332,46.82950504620537],[16.285284723540684,46.82945397495112]]]}},{"type":"Feature","properties":{"_zoneType":"SI_BUILT","name":"Pozidano zemljišče","authority":"MKGP","dataSource":"raba-3000"},"geometry":{"type":"Polygon","coordinates":[[[16.28483222097434,46.86718188344257],[16.28354576474629,46.866330286027754],[16.28365464495726,46.86738380927877],[16.28483222097434,46.86718188344257]]]}},{"type":"Feature","properties":{"_zoneType":"SI_BUILT","name":"Pozidano zemljišče","authority":"MKGP","dataSource":"raba-3000"},"geometry":{"type":"Polygon","coordinates":[[[16.28297746262995,46.824532306325196],[16.28288840636917,46.824788925973024],[16.283340287966286,46.82458781050162],[16.28297746262995,46.824532306325196]]]}},{"type":"Feature","properties":{"_zoneType":"SI_BUILT","name":"Pozidano zemljišče","authority":"MKGP","dataSource":"raba-3000"},"geometry":{"type":"Polygon","coordinates":[[[16.28291189276706,46.80636211894626],[16.282694847927367,46.80627354833328],[16.282100789927348,46.80689968380574],[16.28291189276706,46.80636211894626]]]}},{"type":"Feature","properties":{"_zoneType":"SI_BUILT","name":"Pozidano zemljišče","authority":"MKGP","dataSource":"raba-3000"},"geometry":{"type":"Polygon","coordinates":[[[16.278232247700338,46.86304645439777],[16.278006403282156,46.86349334636672],[16.278734259458776,46.864585821024],[16.278232247700338,46.86304645439777]]]}},{"type":"Feature","properties":{"_zoneType":"SI_BUILT","name":"Pozidano zemljišče","authority":"MKGP","dataSource":"raba-3000"},"geometry":{"type":"Polygon","coordinates":[[[16.27701736296061,46.845876821622866],[16.276947339994006,46.84576400586151],[16.276578551886296,46.84601284303902],[16.27701736296061,46.845876821622866]]]}},{"type":"Feature","properties":{"_zoneType":"SI_BUILT","name":"Pozidano zemljišče","authority":"MKGP","dataSource":"raba-3000"},"geometry":{"type":"Polygon","coordinates":[[[16.268299360093692,46.81723409112194],[16.268261845198683,46.81741127768669],[16.268668147190347,46.81726849103556],[16.268299360093692,46.81723409112194]]]}},{"type":"Feature","properties":{"_zoneType":"SI_BUILT","name":"Pozidano zemljišče","authority":"MKGP","dataSource":"raba-3000"},"geometry":{"type":"Polygon","coordinates":[[[16.266216955781697,46.815319330007696],[16.26596902497429,46.81520684096343],[16.266052226954844,46.815485137277044],[16.266216955781697,46.815319330007696]]]}},{"type":"Feature","properties":{"_zoneType":"SI_BUILT","name":"Pozidano zemljišče","authority":"MKGP","dataSource":"raba-3000"},"geometry":{"type":"Polygon","coordinates":[[[16.26333126710654,46.81408710223155],[16.263416926532475,46.81424307797819],[16.26371133803356,46.81398446863264],[16.26333126710654,46.81408710223155]]]}},{"type":"Feature","properties":{"_zoneType":"SI_BUILT","name":"Pozidano zemljišče","authority":"MKGP","dataSource":"raba-3000"},"geometry":{"type":"Polygon","coordinates":[[[16.253775721317712,46.835279825573714],[16.253083028058168,46.83341199800238],[16.253121310150842,46.834768344163976],[16.253775721317712,46.835279825573714]]]}},{"type":"Feature","properties":{"_zoneType":"SI_BUILT","name":"Pozidano zemljišče","authority":"MKGP","dataSource":"raba-3000"},"geometry":{"type":"Polygon","coordinates":[[[16.25378833990796,46.84558669742056],[16.253299624558156,46.845034739441395],[16.253171842375277,46.84592977402505],[16.25378833990796,46.84558669742056]]]}},{"type":"Feature","properties":{"_zoneType":"SI_BUILT","name":"Pozidano zemljišče","authority":"MKGP","dataSource":"raba-3000"},"geometry":{"type":"Polygon","coordinates":[[[16.246684648505294,46.87420822632262],[16.246598760616976,46.87400636064455],[16.246343695000302,46.87427838476085],[16.246684648505294,46.87420822632262]]]}},{"type":"Feature","properties":{"_zoneType":"SI_BUILT","name":"Pozidano zemljišče","authority":"MKGP","dataSource":"raba-3000"},"geometry":{"type":"Polygon","coordinates":[[[16.246213022293382,46.870957870131306],[16.244978751162378,46.870636407015326],[16.242817385842578,46.87101804396393],[16.245162156123165,46.870851593818166],[16.246213022293382,46.870957870131306]]]}},{"type":"Feature","properties":{"_zoneType":"SI_BUILT","name":"Pozidano zemljišče","authority":"MKGP","dataSource":"raba-3000"},"geometry":{"type":"Polygon","coordinates":[[[16.239030016447018,46.8159418183334],[16.239344693456307,46.81676381437981],[16.23987926183472,46.81695528680861],[16.239030016447018,46.8159418183334]]]}},{"type":"Feature","properties":{"_zoneType":"SI_BUILT","name":"Pozidano zemljišče","authority":"MKGP","dataSource":"raba-3000"},"geometry":{"type":"Polygon","coordinates":[[[16.225386496391064,46.811366330068374],[16.225204295552466,46.8109336919587],[16.22477642700646,46.81143079202281],[16.225386496391064,46.811366330068374]]]}},{"type":"Feature","properties":{"_zoneType":"SI_BUILT","name":"Pozidano zemljišče","authority":"MKGP","dataSource":"raba-3000"},"geometry":{"type":"Polygon","coordinates":[[[16.222016794097947,46.86250707558751],[16.22217654584661,46.86275611694906],[16.2223132256815,46.86240090433039],[16.222016794097947,46.86250707558751]]]}},{"type":"Feature","properties":{"_zoneType":"SI_BUILT","name":"Pozidano zemljišče","authority":"MKGP","dataSource":"raba-3000"},"geometry":{"type":"Polygon","coordinates":[[[16.21445702488182,46.85833213212024],[16.214230526003107,46.85822342603895],[16.214310239082014,46.85848251249451],[16.21445702488182,46.85833213212024]]]}},{"type":"Feature","properties":{"_zoneType":"SI_BUILT","name":"Pozidano zemljišče","authority":"MKGP","dataSource":"raba-3000"},"geometry":{"type":"Polygon","coordinates":[[[16.2,46.84931904647174],[16.200534034516892,46.84912752066123],[16.2,46.84927973387143],[16.2,46.84931904647174]]]}},{"type":"Feature","properties":{"_zoneType":"SI_BUILT","name":"Pozidano zemljišče","authority":"MKGP","dataSource":"raba-3000"},"geometry":{"type":"Polygon","coordinates":[[[16.216423193890765,46.82085379814616],[16.217020134595977,46.82178136232641],[16.216681359640656,46.82086458316817],[16.216423193890765,46.82085379814616]]]}},{"type":"Feature","properties":{"_zoneType":"SI_BUILT","name":"Pozidano zemljišče","authority":"MKGP","dataSource":"raba-3000"},"geometry":{"type":"Polygon","coordinates":[[[16.2160017287256,46.857591039545866],[16.21568835825926,46.857394184259164],[16.215795527653004,46.85774303731031],[16.2160017287256,46.857591039545866]]]}},{"type":"Feature","properties":{"_zoneType":"SI_BUILT","name":"Pozidano zemljišče","authority":"MKGP","dataSource":"raba-3000"},"geometry":{"type":"Polygon","coordinates":[[[16.21291950898715,46.867299649682906],[16.212801480703387,46.86690226275188],[16.212656375480282,46.867380257958594],[16.21291950898715,46.867299649682906]]]}},{"type":"Feature","properties":{"_zoneType":"SI_BUILT","name":"Pozidano zemljišče","authority":"MKGP","dataSource":"raba-3000"},"geometry":{"type":"Polygon","coordinates":[[[16.210550258650684,46.86957671829637],[16.210454319092726,46.869447323085346],[16.20980304898029,46.86960531737164],[16.210550258650684,46.86957671829637]]]}},{"type":"Feature","properties":{"_zoneType":"SI_BUILT","name":"Pozidano zemljišče","authority":"MKGP","dataSource":"raba-3000"},"geometry":{"type":"Polygon","coordinates":[[[16.205642740250322,46.806069507167635],[16.206166387181945,46.80594467784498],[16.20561746153787,46.80565434872143],[16.205642740250322,46.806069507167635]]]}},{"type":"Feature","properties":{"_zoneType":"SI_BUILT","name":"Pozidano zemljišče","authority":"MKGP","dataSource":"raba-3000"},"geometry":{"type":"Polygon","coordinates":[[[16.202086110922888,46.80859788544531],[16.202347152476335,46.80866754285078],[16.202167723232584,46.80840572560652],[16.202086110922888,46.80859788544531]]]}},{"type":"Feature","properties":{"_zoneType":"SI_BUILT","name":"Pozidano zemljišče","authority":"MKGP","dataSource":"raba-3000"},"geometry":{"type":"Polygon","coordinates":[[[16.31333370822054,46.81492389012142],[16.31823219792902,46.81568271067057],[16.31942073055596,46.816821905383875],[16.318525551268458,46.81764522477415],[16.311502628533397,46.81805344535535],[16.310544517948706,46.81918173773173],[16.32,46.81834601315958],[16.32,46.816487784762074],[16.319238730367914,46.815814385418236],[16.32,46.8158023535434],[16.32,46.81535576440737],[16.318671602645097,46.81542312887941],[16.31776671226933,46.81465890560893],[16.318763030955775,46.81390189422833],[16.317486927140255,46.812938830295934],[16.317659181396746,46.81158764845487],[16.32,46.81147218887269],[16.32,46.81046999276668],[16.31868542460116,46.808880889648826],[16.32,46.80889242531274],[16.32,46.80851123378289],[16.318968461018073,46.8084693052764],[16.317244810524432,46.805887077285945],[16.31983268339644,46.80483316302969],[16.317844084277063,46.8047859924451],[16.316416468775248,46.803443212511255],[16.317922321241983,46.80049697742423],[16.316035487971412,46.80339390697734],[16.317288979228774,46.804914607934265],[16.316574224716494,46.80656789450361],[16.3100912386739,46.80052010916407],[16.31408286793131,46.80553315835418],[16.31020364821208,46.80514978184517],[16.31472879054643,46.80597481305204],[16.31808065445044,46.80755398730422],[16.31831085852508,46.8087744294501],[16.316664161878332,46.810592626111244],[16.313374540574515,46.80967943450878],[16.31476399212241,46.81080469820452],[16.312440874289145,46.81117771112418],[16.315289530732915,46.81110239936491],[16.316792161042287,46.812882144039996],[16.310419202980896,46.81344091140936],[16.314483674920126,46.81332419474411],[16.31333370822054,46.81492389012142]],[[16.31707711952591,46.81473726451426],[16.316826411478214,46.815429357363186],[16.31595455705518,46.815194683999714],[16.316246052557975,46.81450673904748],[16.31707711952591,46.81473726451426]],[[16.317038989195172,46.813662547105785],[16.315790473604746,46.81386811706433],[16.31678020546126,46.81317706452749],[16.317038989195172,46.813662547105785]]]}},{"type":"Feature","properties":{"_zoneType":"SI_BUILT","name":"Pozidano zemljišče","authority":"MKGP","dataSource":"raba-3000"},"geometry":{"type":"Polygon","coordinates":[[[16.319542821087495,46.82017210301987],[16.31058940284301,46.82102864472948],[16.319709548275302,46.82077042578701],[16.32,46.82109330496188],[16.32,46.81890537720906],[16.319542821087495,46.82017210301987]]]}},{"type":"Feature","properties":{"_zoneType":"SI_BUILT","name":"Pozidano zemljišče","authority":"MKGP","dataSource":"raba-3000"},"geometry":{"type":"Polygon","coordinates":[[[16.31065539060633,46.82374355254435],[16.311337089077934,46.82542735119255],[16.318181036925544,46.82500894091937],[16.318897216178666,46.82605479920916],[16.318073911707142,46.82763728008165],[16.313880158501465,46.82696687003104],[16.31515044913683,46.82778394708508],[16.311543564261527,46.830015067837415],[16.31089093626591,46.830875641287335],[16.31256328653437,46.830753897475496],[16.312102712324165,46.82996949542497],[16.316403894828188,46.82769697885221],[16.32,46.829640710747974],[16.32,46.829114412393345],[16.318308161075652,46.82837889691348],[16.319243683428883,46.826184051429],[16.319087321305968,46.82500318172407],[16.32,46.8250047785508],[16.32,46.82472036885081],[16.318952076324038,46.82466540676334],[16.318613879739324,46.822983852127635],[16.32,46.82268680496519],[16.32,46.82211436238055],[16.31065539060633,46.82374355254435]],[[16.318470498498428,46.82448992318382],[16.312525682894645,46.82525846466287],[16.311437733754396,46.82403279468388],[16.31789877209123,46.82292247117758],[16.318470498498428,46.82448992318382]]]}},{"type":"Feature","properties":{"_zoneType":"SI_BUILT","name":"Pozidano zemljišče","authority":"MKGP","dataSource":"raba-3000"},"geometry":{"type":"Polygon","coordinates":[[[16.31735472702012,46.83351066119826],[16.313215846048227,46.831655709596966],[16.31458285885385,46.83273860788954],[16.314100321294262,46.83358957879719],[16.31534238357264,46.833006829090124],[16.31679944954719,46.8345059029781],[16.31286799892309,46.8373223786976],[16.310968600839328,46.83662444415099],[16.31182717433924,46.83746600176776],[16.311009569018093,46.83830861814017],[16.313646351288227,46.83736279066662],[16.315861300340035,46.83870619248634],[16.314040242080672,46.83716398519215],[16.314493750951588,46.83644939322346],[16.316971246595696,46.83568276151066],[16.316997258811938,46.8369461950979],[16.31859997304311,46.83668265457981],[16.318830821224495,46.83916698896572],[16.31620774746447,46.83927335168751],[16.315681859761433,46.84],[16.316067210172726,46.84],[16.316290662238067,46.83951482519144],[16.317808934155,46.83981939036307],[16.3177672597139,46.84],[16.318724212884614,46.84],[16.318960113010128,46.83954564301695],[16.32,46.839569397120044],[16.32,46.83910401546967],[16.319407264667905,46.83907415894662],[16.319049046351424,46.836794663187746],[16.319916374585947,46.83596882529107],[16.31797921097231,46.83485929000661],[16.319108176364942,46.83453182583643],[16.32,46.83264865437383],[16.32,46.83113084891907],[16.31735472702012,46.83351066119826]]]}},{"type":"Feature","properties":{"_zoneType":"SI_BUILT","name":"Pozidano zemljišče","authority":"MKGP","dataSource":"raba-3000"},"geometry":{"type":"Polygon","coordinates":[[[16.31103696114143,46.839434604821506],[16.312408599884762,46.84],[16.312866177625153,46.84],[16.31103696114143,46.839434604821506]]]}},{"type":"Feature","properties":{"_zoneType":"SI_BUILT","name":"Pozidano zemljišče","authority":"MKGP","dataSource":"raba-3000"},"geometry":{"type":"Polygon","coordinates":[[[16.315167145408584,46.84071120947259],[16.312866177625153,46.84],[16.312408599884762,46.84],[16.31496098674988,46.84105210445113],[16.314976051785703,46.841907749062145],[16.32,46.84240882028964],[16.32,46.84202750013288],[16.317947729859785,46.841495550219776],[16.318724212884614,46.84],[16.3177672597139,46.84],[16.317444326745395,46.84139953421472],[16.3156081398581,46.840996765689646],[16.316067210172726,46.84],[16.315681859761433,46.84],[16.315167145408584,46.84071120947259]]]}},{"type":"Feature","properties":{"_zoneType":"SI_BUILT","name":"Pozidano zemljišče","authority":"MKGP","dataSource":"raba-3000"},"geometry":{"type":"Polygon","coordinates":[[[16.319926215260676,46.84417502698626],[16.32,46.844206759570916],[16.32,46.84393592824139],[16.319926215260676,46.84417502698626]]]}},{"type":"Feature","properties":{"_zoneType":"SI_BUILT","name":"Pozidano zemljišče","authority":"MKGP","dataSource":"raba-3000"},"geometry":{"type":"Polygon","coordinates":[[[16.319636836830067,46.849552014463946],[16.32,46.849634808474526],[16.32,46.848635172052205],[16.319636836830067,46.849552014463946]]]}},{"type":"Feature","properties":{"_zoneType":"SI_BUILT","name":"Pozidano zemljišče","authority":"MKGP","dataSource":"raba-3000"},"geometry":{"type":"Polygon","coordinates":[[[16.32020853437275,46.81832758180954],[16.32,46.81890537720906],[16.32,46.82109330496188],[16.320793985293605,46.82197593465436],[16.32,46.82211436238055],[16.32,46.82268680496519],[16.32408535729317,46.82181130820927],[16.32477222224189,46.82313876739406],[16.32434094056857,46.82473022269534],[16.32144532494144,46.82479617406228],[16.32,46.82472036885081],[16.32,46.8250047785508],[16.32276712872589,46.8250096199316],[16.323132609688468,46.82599198961551],[16.32545144233071,46.826210595571055],[16.322990964658693,46.827565423127076],[16.323711671998435,46.82848050213465],[16.321722034107832,46.82986305502412],[16.32,46.829114412393345],[16.32,46.829640710747974],[16.32103470504225,46.8301999794838],[16.32,46.83113084891907],[16.32,46.83264865437383],[16.320064992917114,46.83251141557238],[16.321224942418816,46.83258495641098],[16.32293351451602,46.830026046854755],[16.32568769904967,46.828714622890075],[16.327698954050973,46.82975495148216],[16.325179103636472,46.83402333633812],[16.32288247993363,46.83335149355582],[16.32471505559528,46.83457000476443],[16.324103029166434,46.8364617013559],[16.322375882853304,46.83622785936647],[16.324006835172494,46.83707024492804],[16.32209838753407,46.83920971282291],[16.32,46.83910401546967],[16.32,46.839569397120044],[16.32339784594518,46.83964701399927],[16.323323101365105,46.84],[16.324141476496603,46.84],[16.324372435581797,46.83965480366269],[16.32605472972167,46.84],[16.328734145403416,46.84],[16.32352975317312,46.83845331226875],[16.32507803489744,46.834678009306806],[16.328267775180873,46.835319894152946],[16.325520220206815,46.834167533767996],[16.328247821605473,46.82990834270714],[16.329695567003665,46.830180925344905],[16.330741407553386,46.83187649156558],[16.3291688397022,46.83681144473626],[16.331433837034567,46.83173614311991],[16.332816479186256,46.83317083090509],[16.334322754894565,46.833713262804416],[16.333842551617554,46.83526756387567],[16.337662397888955,46.836046332457144],[16.33548659129816,46.84],[16.3381092565286,46.84],[16.33669572398984,46.83938400629667],[16.338291933787822,46.835540884308486],[16.34044565110221,46.83557190866221],[16.338615644728147,46.835018521441754],[16.339153617171515,46.83349799552577],[16.34140944452432,46.833506287707486],[16.339486708249638,46.83283591933645],[16.340370735952988,46.8303159068208],[16.33914713470235,46.82998871825972],[16.338293124167205,46.8280916753107],[16.336139158992655,46.82710813242098],[16.3373283560253,46.82536726211516],[16.34080647577058,46.82604584034213],[16.341117848732214,46.827145121391986],[16.34177701745051,46.82627606023731],[16.34402664412176,46.82670924562478],[16.344148027034013,46.83035898707571],[16.344785601684187,46.82853268792428],[16.344360745393022,46.82650090173893],[16.33754995487475,46.82512483729023],[16.33706876930262,46.82181799170364],[16.342465699420444,46.82274305608587],[16.34392543117436,46.82197044477821],[16.336334456705167,46.821025741497905],[16.33157493072801,46.82167932832406],[16.332146713318714,46.82021537096385],[16.340798442355595,46.81947179101792],[16.33128273173301,46.81941756963795],[16.330823955102215,46.8166276982507],[16.33336597460572,46.81428840697533],[16.333318044180714,46.813291250613545],[16.336051105786513,46.81253592906761],[16.338322450240746,46.81318928571558],[16.338426313068794,46.812108639665794],[16.336803317710945,46.81188161815253],[16.33656826621714,46.811010408987535],[16.335985587011113,46.81204696638949],[16.33488813423295,46.811636679998436],[16.3328984232031,46.81283788589307],[16.3300147802302,46.81183054262911],[16.330350758844137,46.81005764913087],[16.33213535759913,46.80864770190656],[16.332139768312395,46.80687566812628],[16.33412563471937,46.806884177715496],[16.33536483111311,46.81084140489142],[16.33510164769577,46.808349817803595],[16.337611654651994,46.806096974371826],[16.337396828291702,46.804870838466414],[16.335657217614372,46.807308868834355],[16.334939219694714,46.8063893557766],[16.331460384261682,46.80674413605828],[16.331269675405203,46.80860100119071],[16.32917886899704,46.81096570152166],[16.32970435257258,46.812686230005404],[16.326457063777465,46.813170213176456],[16.325683139144193,46.81188745568146],[16.32515299655627,46.81509445035768],[16.32,46.81535576440737],[16.32,46.8158023535434],[16.324231990880243,46.81573546688139],[16.325553605441723,46.815164078151916],[16.32655272985653,46.81342880566155],[16.331709769665462,46.81309124815254],[16.332736757025398,46.81386190454783],[16.330133427088562,46.81662471099238],[16.330732526756172,46.818781329881915],[16.330024690051477,46.819576405977614],[16.321935459777308,46.82002365627566],[16.321219063565998,46.81876753465837],[16.322882195902828,46.81784343893043],[16.321405718828963,46.817731247126986],[16.32,46.816487784762074],[16.32,46.81834601315958],[16.32020853437275,46.81832758180954]],[[16.334353043127766,46.8348681473208],[16.33659163524391,46.82987892505849],[16.33988096410701,46.830519217235405],[16.337807381651118,46.83556687093113],[16.334353043127766,46.8348681473208]],[[16.33848143864902,46.82973110440551],[16.336742876808984,46.82950084701907],[16.33706106488111,46.8283184559422],[16.338054625348395,46.82832439989662],[16.33848143864902,46.82973110440551]],[[16.33632613655893,46.82135471603884],[16.337082170670453,46.8247162483463],[16.33083225411743,46.8238914082765],[16.330993430947412,46.82208078670064],[16.33632613655893,46.82135471603884]],[[16.335603527013426,46.82769300226813],[16.336690693306306,46.82829465864888],[16.33463019670781,46.833191185474746],[16.33323067759555,46.83310672852768],[16.33295880770492,46.83182449587837],[16.330537738963983,46.83092643033655],[16.33129791320525,46.82959047237505],[16.33083168164651,46.8282126008685],[16.32779628250012,46.8241135793627],[16.33644312027941,46.82531188151515],[16.335603527013426,46.82769300226813]],[[16.331059310779846,46.82136122184185],[16.33053142596727,46.821617148438605],[16.329497613216883,46.82113285897995],[16.330667103911743,46.820598741000204],[16.331059310779846,46.82136122184185]],[[16.330446741790674,46.822299833121],[16.329825540816458,46.823663068438904],[16.327426842914456,46.82312622898337],[16.32911320437304,46.822108388999496],[16.330446741790674,46.822299833121]],[[16.328270329874982,46.82612313929632],[16.330492713820583,46.82825857493788],[16.33006416865082,46.82971719554615],[16.327898384059793,46.82950113446506],[16.327792309911104,46.827551487715404],[16.3264229621391,46.826853880978085],[16.32666883740063,46.82590788026831],[16.328270329874982,46.82612313929632]],[[16.32903474837751,46.82102240154866],[16.32758491023757,46.82144415745227],[16.326298251066266,46.82070692303046],[16.327850041929565,46.82054409256747],[16.32903474837751,46.82102240154866]],[[16.327259223698597,46.82823991791899],[16.326875663588837,46.828686984058294],[16.32622758894071,46.827939697813115],[16.327259223698597,46.82823991791899]],[[16.324870584220243,46.82528084616257],[16.325496956294927,46.825068230371365],[16.325175423108846,46.8257126972175],[16.324870584220243,46.82528084616257]],[[16.324838338316926,46.821103832706385],[16.32167050575899,46.822136039069626],[16.320562878320157,46.82108697985556],[16.322553668222543,46.820617299832975],[16.324838338316926,46.821103832706385]]]}},{"type":"Feature","properties":{"_zoneType":"SI_BUILT","name":"Pozidano zemljišče","authority":"MKGP","dataSource":"raba-3000"},"geometry":{"type":"Polygon","coordinates":[[[16.322683990717493,46.8113398025159],[16.320318728745978,46.81085528283405],[16.32,46.81046999276668],[16.32,46.81147218887269],[16.322683990717493,46.8113398025159]]]}},{"type":"Feature","properties":{"_zoneType":"SI_BUILT","name":"Pozidano zemljišče","authority":"MKGP","dataSource":"raba-3000"},"geometry":{"type":"Polygon","coordinates":[[[16.32495959831702,46.80893594678698],[16.325322954760384,46.807215090860055],[16.324575066052766,46.808697194459185],[16.32,46.80851123378289],[16.32,46.80889242531274],[16.32495959831702,46.80893594678698]]]}},{"type":"Feature","properties":{"_zoneType":"SI_BUILT","name":"Pozidano zemljišče","authority":"MKGP","dataSource":"raba-3000"},"geometry":{"type":"Polygon","coordinates":[[[16.331984062265327,46.83995421199199],[16.331933841066174,46.84],[16.331987847974577,46.84],[16.331984062265327,46.83995421199199]]]}},{"type":"Feature","properties":{"_zoneType":"SI_BUILT","name":"Pozidano zemljišče","authority":"MKGP","dataSource":"raba-3000"},"geometry":{"type":"Polygon","coordinates":[[[16.32045718687509,46.842454418528106],[16.32,46.84393592824139],[16.32,46.844206759570916],[16.32149878330693,46.84485134093835],[16.32,46.848635172052205],[16.32,46.849634808474526],[16.32115962444625,46.849899179882826],[16.32160516320881,46.848471182074604],[16.320115108215155,46.84925132464784],[16.321223746167316,46.846532654951254],[16.323113959518917,46.84646618687799],[16.32150203958678,46.845937682374185],[16.321961370347722,46.84445313723148],[16.320386868156106,46.84399716119588],[16.32087290857886,46.84225375867145],[16.32,46.84202750013288],[16.32,46.84240882028964],[16.32045718687509,46.842454418528106]]]}},{"type":"Feature","properties":{"_zoneType":"SI_BUILT","name":"Pozidano zemljišče","authority":"MKGP","dataSource":"raba-3000"},"geometry":{"type":"Polygon","coordinates":[[[16.322944172377614,46.841789516078926],[16.324141476496603,46.84],[16.323323101365105,46.84],[16.322944172377614,46.841789516078926]]]}},{"type":"Feature","properties":{"_zoneType":"SI_BUILT","name":"Pozidano zemljišče","authority":"MKGP","dataSource":"raba-3000"},"geometry":{"type":"Polygon","coordinates":[[[16.3286234286904,46.84052708111778],[16.32815746833622,46.84251920953156],[16.329449255787242,46.840649808867525],[16.33119142430277,46.84102777645643],[16.331169641435427,46.84202191821728],[16.332031719262012,46.84114756801553],[16.33451891778963,46.84163777279853],[16.33488892510313,46.84247799096081],[16.339045039838997,46.842402527989215],[16.336136340040525,46.840657128481084],[16.338144195042226,46.84001522561654],[16.3381092565286,46.84],[16.33548659129816,46.84],[16.334741724800732,46.84135350012593],[16.33206006548265,46.84087346798724],[16.331987847974577,46.84],[16.331933841066174,46.84],[16.3311472567118,46.84071714995521],[16.328734145403416,46.84],[16.32605472972167,46.84],[16.3286234286904,46.84052708111778]]]}},{"type":"Feature","properties":{"_zoneType":"SI_BUILT","name":"Pozidano zemljišče","authority":"MKGP","dataSource":"raba-3000"},"geometry":{"type":"Polygon","coordinates":[[[16.312255648090748,46.80089875082435],[16.31196138250308,46.80085603802801],[16.312201787880586,46.801063469229426],[16.312255648090748,46.80089875082435]]]}},{"type":"Feature","properties":{"_zoneType":"SI_BUILT","name":"Pozidano zemljišče","authority":"MKGP","dataSource":"raba-3000"},"geometry":{"type":"Polygon","coordinates":[[[16.33243692178106,46.80961986904933],[16.332126221769684,46.809346592723706],[16.332007606120683,46.80964648123464],[16.33243692178106,46.80961986904933]]]}},{"type":"Feature","properties":{"_zoneType":"SI_BUILT","name":"Pozidano zemljišče","authority":"MKGP","dataSource":"raba-3000"},"geometry":{"type":"Polygon","coordinates":[[[16.31083418685274,46.8310977074661],[16.31084906787181,46.83170965508251],[16.310955201384118,46.83135502167397],[16.31083418685274,46.8310977074661]]]}},{"type":"Feature","properties":{"_zoneType":"SI_BUILT","name":"Pozidano zemljišče","authority":"MKGP","dataSource":"raba-3000"},"geometry":{"type":"Polygon","coordinates":[[[16.31607152087909,46.8315074984774],[16.315751338653616,46.83143913809762],[16.315988345123685,46.831682492246685],[16.31607152087909,46.8315074984774]]]}},{"type":"Feature","properties":{"_zoneType":"SI_BUILT","name":"Pozidano zemljišče","authority":"MKGP","dataSource":"raba-3000"},"geometry":{"type":"Polygon","coordinates":[[[16.310717487289605,46.81113563852259],[16.310348248942244,46.81110358332213],[16.310681105546312,46.811248850881974],[16.310717487289605,46.81113563852259]]]}}]}