{"type":"FeatureCollection","features":[{"type":"Feature","properties":{"_zoneType":"SI_BUILT","name":"Pozidano zemljišče","authority":"MKGP","dataSource":"raba-3000"},"geometry":{"type":"Polygon","coordinates":[[[13.599729494102876,45.5190600416485],[13.6,45.51911292749127],[13.6,45.51812055920795],[13.598471835875616,45.51846593295726],[13.597395804876843,45.51815269404657],[13.598376180420951,45.51747589865452],[13.6,45.51791432422502],[13.6,45.51488229909636],[13.599765596331244,45.51475957339369],[13.6,45.51461665079016],[13.6,45.51358564233315],[13.599723495754276,45.513544061639955],[13.6,45.51313490923146],[13.6,45.500629582088955],[13.59691014596787,45.50138764818632],[13.595989558454205,45.5008264915864],[13.597902627492333,45.49959313431112],[13.599478347520487,45.500137767519526],[13.6,45.49989052032944],[13.6,45.49748820968004],[13.599647682792167,45.49760221331309],[13.59946876123939,45.497251648984516],[13.6,45.497208832652305],[13.6,45.49134104325215],[13.590825011642632,45.49122924377755],[13.58792897949905,45.49296738115057],[13.588487471053401,45.49500577025588],[13.584273534346215,45.498093669980996],[13.586790853429546,45.499881143143625],[13.586555945374863,45.50123103593961],[13.587971519541215,45.50252610670968],[13.593839581419894,45.504110602464436],[13.594745671298151,45.50719296799841],[13.593027866730058,45.50885846838697],[13.593766931703732,45.5111624883672],[13.592068883136564,45.51323086074781],[13.59067455170301,45.51208627819441],[13.589331637294483,45.51309953216058],[13.582921856000382,45.51304517385492],[13.578261395134465,45.51554833573263],[13.576062970205136,45.515582778971655],[13.573007116538317,45.513635017561406],[13.57193565146132,45.51412040558816],[13.56868215984674,45.51664339698593],[13.566867485702293,45.52],[13.583280997672647,45.52],[13.583972798335033,45.51971860907762],[13.584509615019973,45.52],[13.590299185628826,45.52],[13.589960218625519,45.51973330072103],[13.590810629939574,45.51955485684198],[13.591119200587295,45.5199994187761],[13.591117874281123,45.52],[13.6,45.52],[13.6,45.51933479055661],[13.599729494102876,45.5190600416485]],[[13.596727936681855,45.49779497713233],[13.597408306738457,45.49781117440554],[13.596710667829473,45.49815204368802],[13.596727936681855,45.49779497713233]],[[13.596331533798814,45.499549784426335],[13.595672267784746,45.4997534473842],[13.596170328560236,45.49921327616932],[13.596331533798814,45.499549784426335]],[[13.595252811797224,45.51940050493587],[13.592229470639033,45.519512021037656],[13.591196740200532,45.518207284724625],[13.592768430518827,45.51793264229832],[13.595252811797224,45.51940050493587]],[[13.594390682175643,45.518349384883415],[13.593435719691598,45.517541989433084],[13.594369246742659,45.517165202229044],[13.59489781091524,45.51796905050893],[13.594390682175643,45.518349384883415]],[[13.593043350073255,45.4986503852602],[13.592215327763027,45.499805914617355],[13.590459346007933,45.49943811938506],[13.592451636739751,45.49844260177709],[13.593043350073255,45.4986503852602]],[[13.590647705353705,45.50124263399028],[13.59086544963881,45.50089754821941],[13.591575731602111,45.50168122544816],[13.590647705353705,45.50124263399028]],[[13.590227673980472,45.499062978823865],[13.589972969246425,45.49939319081959],[13.5895523605108,45.498750987188764],[13.590227673980472,45.499062978823865]],[[13.588753361773849,45.50143281279637],[13.588122099886027,45.50167558932944],[13.588306183511794,45.500874761650984],[13.588753361773849,45.50143281279637]],[[13.586146088813233,45.5160512538973],[13.585733243656307,45.51636377576782],[13.585699097651945,45.515766876855324],[13.586146088813233,45.5160512538973]]]}},{"type":"Feature","properties":{"_zoneType":"SI_BUILT","name":"Pozidano zemljišče","authority":"MKGP","dataSource":"raba-3000"},"geometry":{"type":"Polygon","coordinates":[[[13.581004917954226,45.52526568575925],[13.584098203373566,45.526204392039546],[13.590365923324551,45.52603243675286],[13.591071414322064,45.52559008857432],[13.590427649882892,45.52384765206718],[13.595651575730832,45.526107918962424],[13.6,45.52610917518691],[13.6,45.52428386299485],[13.597797184169755,45.52254091454849],[13.596990954489405,45.52335115154292],[13.595161237048458,45.52265488503312],[13.594317313556951,45.524411242349316],[13.592690846504087,45.5245871988814],[13.592355981441653,45.52331703614608],[13.593545720614658,45.52268674140623],[13.591650098450494,45.52282681956975],[13.595204618136954,45.52079498387907],[13.6,45.520808798453295],[13.6,45.52],[13.591117874281123,45.52],[13.590592054051063,45.52023042890985],[13.590299185628826,45.52],[13.584509615019973,45.52],[13.584925999914981,45.520218262458975],[13.584820308109899,45.521623132886965],[13.586636735414473,45.52178919909058],[13.587283981030009,45.523046695816014],[13.585604769450129,45.52320354021466],[13.584652618103208,45.521883367906646],[13.581239948299359,45.522432879677574],[13.579807495584916,45.52141285200999],[13.583280997672647,45.52],[13.566867485702293,45.52],[13.566272523301555,45.521100502034315],[13.5666573765474,45.52735885075294],[13.562756582601171,45.53018986808099],[13.57373769562646,45.52869577309065],[13.581004917954226,45.52526568575925]],[[13.58938653375769,45.521634189872586],[13.58811567777631,45.52256767912503],[13.586915518140048,45.52145537620496],[13.588981930623152,45.52107867536888],[13.58938653375769,45.521634189872586]],[[13.586526593938576,45.520860210212206],[13.586061095358382,45.52113767895022],[13.585915537965597,45.52029087812686],[13.586526593938576,45.520860210212206]],[[13.585249264525821,45.52571961714048],[13.584466920377407,45.52597837689964],[13.584534516864155,45.52488588842772],[13.585249264525821,45.52571961714048]],[[13.582417610876915,45.52380107617676],[13.582437841256253,45.524779408801386],[13.581318762500544,45.523891859879605],[13.582417610876915,45.52380107617676]],[[13.576563449348827,45.52217618165287],[13.577346743160879,45.52128730007913],[13.580215783170399,45.52234110442968],[13.576144495260802,45.52335753057223],[13.57418188594309,45.52232223542646],[13.576563449348827,45.52217618165287]],[[13.571446631879105,45.5244705825325],[13.571574171912614,45.52412332988492],[13.572461453568,45.524730255311994],[13.571446631879105,45.5244705825325]],[[13.571296707308804,45.52851179958158],[13.571734374612959,45.528167937740115],[13.57182557461046,45.52887207071752],[13.571296707308804,45.52851179958158]],[[13.568835229377271,45.52138723925311],[13.568074826454032,45.52254560326759],[13.567298351121902,45.52155807403607],[13.568003759988414,45.520834096654454],[13.568835229377271,45.52138723925311]],[[13.567941628479849,45.526492868634286],[13.567446061124356,45.52696135773345],[13.567304170738177,45.52607762847481],[13.567941628479849,45.526492868634286]]]}},{"type":"Feature","properties":{"_zoneType":"SI_BUILT","name":"Pozidano zemljišče","authority":"MKGP","dataSource":"raba-3000"},"geometry":{"type":"Polygon","coordinates":[[[13.600000000000001,45.51933479055661],[13.6,45.51933479055661],[13.6,45.52],[13.600000000000001,45.52],[13.600000000000001,45.51933479055661]]]}},{"type":"Feature","properties":{"_zoneType":"SI_BUILT","name":"Pozidano zemljišče","authority":"MKGP","dataSource":"raba-3000"},"geometry":{"type":"Polygon","coordinates":[[[13.600000000000001,45.51911292749127],[13.600000000000001,45.51812055920795],[13.6,45.51812055920795],[13.6,45.51911292749127],[13.600000000000001,45.51911292749127]]]}},{"type":"Feature","properties":{"_zoneType":"SI_BUILT","name":"Pozidano zemljišče","authority":"MKGP","dataSource":"raba-3000"},"geometry":{"type":"Polygon","coordinates":[[[13.600000000000001,45.51791432422502],[13.600000000000001,45.51488229909636],[13.6,45.51488229909636],[13.6,45.51791432422502],[13.600000000000001,45.51791432422502]]]}},{"type":"Feature","properties":{"_zoneType":"SI_BUILT","name":"Pozidano zemljišče","authority":"MKGP","dataSource":"raba-3000"},"geometry":{"type":"Polygon","coordinates":[[[13.600000000000001,45.51461665079016],[13.600000000000001,45.51358564233315],[13.6,45.51358564233315],[13.6,45.51461665079016],[13.600000000000001,45.51461665079016]]]}},{"type":"Feature","properties":{"_zoneType":"SI_BUILT","name":"Pozidano zemljišče","authority":"MKGP","dataSource":"raba-3000"},"geometry":{"type":"Polygon","coordinates":[[[13.600000000000001,45.51313490923146],[13.600000000000001,45.500629582088955],[13.6,45.500629582088955],[13.6,45.51313490923146],[13.600000000000001,45.51313490923146]]]}},{"type":"Feature","properties":{"_zoneType":"SI_BUILT","name":"Pozidano zemljišče","authority":"MKGP","dataSource":"raba-3000"},"geometry":{"type":"Polygon","coordinates":[[[13.600000000000001,45.49989052032944],[13.600000000000001,45.49748820968004],[13.6,45.49748820968004],[13.6,45.49989052032944],[13.600000000000001,45.49989052032944]]]}},{"type":"Feature","properties":{"_zoneType":"SI_BUILT","name":"Pozidano zemljišče","authority":"MKGP","dataSource":"raba-3000"},"geometry":{"type":"Polygon","coordinates":[[[13.600000000000001,45.497208832652305],[13.600000000000001,45.49134104325215],[13.6,45.49134104325215],[13.6,45.497208832652305],[13.600000000000001,45.497208832652305]]]}},{"type":"Feature","properties":{"_zoneType":"SI_BUILT","name":"Pozidano zemljišče","authority":"MKGP","dataSource":"raba-3000"},"geometry":{"type":"Polygon","coordinates":[[[13.600000000000001,45.52610917518691],[13.600000000000001,45.52428386299485],[13.6,45.52428386299485],[13.6,45.52610917518691],[13.600000000000001,45.52610917518691]]]}},{"type":"Feature","properties":{"_zoneType":"SI_BUILT","name":"Pozidano zemljišče","authority":"MKGP","dataSource":"raba-3000"},"geometry":{"type":"Polygon","coordinates":[[[13.600000000000001,45.520808798453295],[13.600000000000001,45.52],[13.6,45.52],[13.6,45.520808798453295],[13.600000000000001,45.520808798453295]]]}},{"type":"Feature","properties":{"_zoneType":"SI_BUILT","name":"Pozidano zemljišče","authority":"MKGP","dataSource":"raba-3000"},"geometry":{"type":"Polygon","coordinates":[[[13.599709992543302,45.52182963825699],[13.6,45.52210378129037],[13.6,45.52174359856039],[13.599709992543302,45.52182963825699]]]}},{"type":"Feature","properties":{"_zoneType":"SI_BUILT","name":"Pozidano zemljišče","authority":"MKGP","dataSource":"raba-3000"},"geometry":{"type":"Polygon","coordinates":[[[13.600000000000001,45.52174359856039],[13.6,45.52174359856039],[13.6,45.52210378129037],[13.600000000000001,45.52210378129037],[13.600000000000001,45.52174359856039]]]}},{"type":"Feature","properties":{"_zoneType":"SI_BUILT","name":"Pozidano zemljišče","authority":"MKGP","dataSource":"raba-3000"},"geometry":{"type":"Polygon","coordinates":[[[13.583667806377344,45.52094282744403],[13.583250971458575,45.52087851014278],[13.583490009615332,45.521217382616825],[13.583667806377344,45.52094282744403]]]}},{"type":"Feature","properties":{"_zoneType":"SI_BUILT","name":"Pozidano zemljišče","authority":"MKGP","dataSource":"raba-3000"},"geometry":{"type":"Polygon","coordinates":[[[13.58561313137023,45.47846265423179],[13.58815824735329,45.480000000000004],[13.588789849784728,45.480000000000004],[13.589883887046916,45.479609649068465],[13.590148890785434,45.480000000000004],[13.6,45.480000000000004],[13.6,45.468404074897386],[13.590385611168559,45.474378119622145],[13.58561313137023,45.47846265423179]]]}},{"type":"Feature","properties":{"_zoneType":"SI_BUILT","name":"Pozidano zemljišče","authority":"MKGP","dataSource":"raba-3000"},"geometry":{"type":"Polygon","coordinates":[[[13.588392787694326,45.480141671186374],[13.588789849784728,45.480000000000004],[13.58815824735329,45.480000000000004],[13.588392787694326,45.480141671186374]]]}},{"type":"Feature","properties":{"_zoneType":"SI_BUILT","name":"Pozidano zemljišče","authority":"MKGP","dataSource":"raba-3000"},"geometry":{"type":"Polygon","coordinates":[[[13.592637802612801,45.483666171110514],[13.592240820629206,45.48890043263304],[13.59082501163901,45.49122924377751],[13.6,45.491341510294944],[13.6,45.480000000000004],[13.590148890785434,45.480000000000004],[13.592637802612801,45.483666171110514]]]}},{"type":"Feature","properties":{"_zoneType":"SI_BUILT","name":"Pozidano zemljišče","authority":"MKGP","dataSource":"raba-3000"},"geometry":{"type":"Polygon","coordinates":[[[13.600000000000001,45.468404074897386],[13.6,45.468404074897386],[13.6,45.480000000000004],[13.600000000000001,45.480000000000004],[13.600000000000001,45.468404074897386]]]}},{"type":"Feature","properties":{"_zoneType":"SI_BUILT","name":"Pozidano zemljišče","authority":"MKGP","dataSource":"raba-3000"},"geometry":{"type":"Polygon","coordinates":[[[13.600000000000001,45.491341510294944],[13.600000000000001,45.480000000000004],[13.6,45.480000000000004],[13.6,45.491341510294944],[13.600000000000001,45.491341510294944]]]}}]}