{"type":"FeatureCollection","features":[{"type":"Feature","properties":{"_zoneType":"SI_BUILT","name":"Pozidano zemljišče","authority":"MKGP","dataSource":"raba-3000"},"geometry":{"type":"Polygon","coordinates":[[[16.228250919795826,46.39309817155749],[16.226911211948583,46.39107348907474],[16.23673433757844,46.390506083413065],[16.237365439519166,46.391654628985556],[16.236384553786888,46.392058565229505],[16.23808374862083,46.39299212619393],[16.2385737718126,46.392248386821066],[16.237649086981126,46.39053961882156],[16.240000000000002,46.39042804459961],[16.240000000000002,46.38988564449947],[16.237522786927354,46.39005055852527],[16.238058902420544,46.385489937399214],[16.240000000000002,46.38550224573915],[16.240000000000002,46.384991203582835],[16.236361805881906,46.384517864736615],[16.237477481401783,46.38528741008054],[16.237293680390327,46.38747956850653],[16.234638044976105,46.38716551820376],[16.236971221215157,46.38800784151768],[16.236691616220448,46.390063445439374],[16.228546006480844,46.39040446239859],[16.229520142676947,46.38918891375928],[16.228897086060563,46.38728864140367],[16.22906765588738,46.38920688808295],[16.225947818704842,46.3904283637212],[16.223984807367458,46.38757911791726],[16.224760639934654,46.38669269607095],[16.223625569934427,46.38685852743355],[16.2224845862153,46.3850634308765],[16.22540587713367,46.39061243741991],[16.22030913590546,46.39152977935531],[16.218661463627942,46.389796479767234],[16.214578297521314,46.38970130176531],[16.216740953198265,46.38660833973107],[16.214007014874614,46.38996702235464],[16.212490766051946,46.38922735603334],[16.21374868953183,46.38627084072572],[16.21171379110294,46.384610781741266],[16.21186645904224,46.385553745853095],[16.210328677947658,46.38538674121177],[16.212702329162028,46.38677551430977],[16.21104680621521,46.38647077628641],[16.210019191986103,46.3879805642308],[16.212218086655025,46.387774189101556],[16.212062717054042,46.38915490975439],[16.21332690619633,46.39040910729436],[16.20862242513593,46.39234706395141],[16.204775933193112,46.39056486028927],[16.207149671318245,46.38748413146771],[16.208586562217114,46.38811812016946],[16.206360442738127,46.38495872810192],[16.206449186538446,46.38839041090032],[16.204598971480138,46.39005433310458],[16.201523379922975,46.38650930419734],[16.2030692072832,46.38926875558642],[16.2,46.38975745650255],[16.2,46.38982690448719],[16.20341567542598,46.38976167568019],[16.203920250529574,46.39155766161344],[16.201761829674222,46.391502300343944],[16.203747194430406,46.39204423712249],[16.20388950509541,46.393357261381475],[16.20481986963589,46.390983424276364],[16.208666302178358,46.39276945072807],[16.206599673086465,46.393328694729504],[16.22475199504356,46.39130425309164],[16.228250919795826,46.39309817155749]],[[16.21444208221416,46.39011135757425],[16.218430643671546,46.3899781521181],[16.21959160110652,46.391394622303665],[16.210665686282372,46.39281462021765],[16.21084724896876,46.39170912779441],[16.21444208221416,46.39011135757425]]]}},{"type":"Feature","properties":{"_zoneType":"SI_BUILT","name":"Pozidano zemljišče","authority":"MKGP","dataSource":"raba-3000"},"geometry":{"type":"Polygon","coordinates":[[[16.242121482263357,46.39032735915059],[16.243905337568115,46.390418933790365],[16.24545609957601,46.39291206181317],[16.24525941774927,46.391871058345394],[16.246379112309548,46.391263759457665],[16.245205501620553,46.39132009783993],[16.24482914719349,46.390268990732274],[16.256316534715182,46.38988050283301],[16.256373752977854,46.391756031007944],[16.257046251722542,46.39081464221833],[16.25786718117632,46.39153738431168],[16.257540304640298,46.39277979780278],[16.258616355129387,46.39276795827207],[16.258825488779458,46.39182095777716],[16.264685451169957,46.392700991741336],[16.263903760379463,46.38976771889528],[16.267840459681725,46.38951437703338],[16.269806365003966,46.39078385028143],[16.26982144987317,46.39264406928246],[16.275431994682734,46.392581623661385],[16.274670999839763,46.391563722987286],[16.27719968036777,46.38952452592122],[16.28,46.389401341993725],[16.28,46.388395648893365],[16.278268547815895,46.38839077448583],[16.28,46.3865094762937],[16.28,46.386256168801644],[16.277016385095873,46.388547724644994],[16.27426090780395,46.3875724057833],[16.27658747008466,46.38359685553669],[16.28,46.385023857936275],[16.28,46.384254865095784],[16.276948318568152,46.383362032144206],[16.277286337445535,46.38219003296357],[16.28,46.38279710976334],[16.28,46.38258807696974],[16.276721867344026,46.38144464038226],[16.2737646756123,46.387726399534735],[16.271786614239122,46.388967911623354],[16.268417735455916,46.38882823730745],[16.26834361049348,46.38608392771004],[16.26947711969303,46.386292912540405],[16.270402858633513,46.38533488849655],[16.270911916220545,46.382510759656945],[16.26799829145337,46.38515159675345],[16.267896334621742,46.389215640560735],[16.25699944856507,46.38944381655795],[16.25612806001371,46.38625050030792],[16.25902285030173,46.38572031276711],[16.266182386357517,46.38223875141393],[16.25853347781405,46.38564702319987],[16.25411649638194,46.3861005541273],[16.256378334136606,46.387511403580454],[16.255937068860124,46.389509504227625],[16.244580140588162,46.38973737028064],[16.24401974019953,46.385514182601106],[16.240000000000002,46.384991203582835],[16.240000000000002,46.38550224573915],[16.243289382285866,46.3855231034414],[16.243931782062585,46.38962389632138],[16.240000000000002,46.38988564449947],[16.240000000000002,46.39042804459961],[16.242121482263357,46.39032735915059]],[[16.27242716123492,46.390719088320964],[16.271258627501112,46.390597743562026],[16.271037435931845,46.38966709263703],[16.27235362446606,46.38947247432577],[16.27242716123492,46.390719088320964]],[[16.270369868404543,46.38445390530118],[16.269603880378927,46.3857121436621],[16.268720447661384,46.384882322584865],[16.270369868404543,46.38445390530118]],[[16.263475653440917,46.39059390296187],[16.258513130378578,46.39159151847012],[16.257353971420237,46.39029330631649],[16.262196000126092,46.38968895789424],[16.263475653440917,46.39059390296187]]]}},{"type":"Feature","properties":{"_zoneType":"SI_BUILT","name":"Pozidano zemljišče","authority":"MKGP","dataSource":"raba-3000"},"geometry":{"type":"Polygon","coordinates":[[[16.27984538971836,46.39253230884914],[16.28,46.39239162960136],[16.28,46.39235061477767],[16.27984538971836,46.39253230884914]]]}},{"type":"Feature","properties":{"_zoneType":"SI_BUILT","name":"Pozidano zemljišče","authority":"MKGP","dataSource":"raba-3000"},"geometry":{"type":"Polygon","coordinates":[[[16.28590992067715,46.38914136908498],[16.281728081389886,46.39031981747088],[16.28,46.39235061477767],[16.28,46.39239162960136],[16.282123991293876,46.39045901881805],[16.285174629753314,46.39052236207536],[16.288548092280507,46.388931734021874],[16.300199033673493,46.38854189437939],[16.291104395310864,46.38834036182602],[16.29474505115546,46.38602477921817],[16.300160300212713,46.386910814463604],[16.30014144522847,46.38611677296855],[16.295950703092156,46.385704806076426],[16.296350602342695,46.384852341256284],[16.291658021243112,46.387530330277926],[16.28797983827073,46.388032151565454],[16.288870265761005,46.38482956968188],[16.291932959493295,46.384163133123394],[16.29342058807322,46.3853982809499],[16.29444099803974,46.38395773188115],[16.300023916864195,46.381166533132195],[16.29415548648717,46.38361388416437],[16.29327113511865,46.38483979006855],[16.29143465536677,46.38376614313609],[16.290187492921337,46.38081388103308],[16.28808739232143,46.38102291183581],[16.29015021329514,46.38112971668394],[16.290493248944614,46.38231788695767],[16.28772520901199,46.382590693746444],[16.28029890373125,46.38269233677198],[16.28,46.38258807696974],[16.28,46.38279710976334],[16.280757505317585,46.382966572212986],[16.290262503599276,46.38265257971259],[16.291062965268424,46.3837702876022],[16.288479234359084,46.38480316691531],[16.28733645764633,46.388416302587856],[16.28,46.388395648893365],[16.28,46.389401341993725],[16.28590992067715,46.38914136908498]]]}},{"type":"Feature","properties":{"_zoneType":"SI_BUILT","name":"Pozidano zemljišče","authority":"MKGP","dataSource":"raba-3000"},"geometry":{"type":"Polygon","coordinates":[[[16.280826756553296,46.385369579033146],[16.283000429500607,46.3851327032276],[16.28,46.384254865095784],[16.28,46.385023857936275],[16.280826756553296,46.385369579033146]]]}},{"type":"Feature","properties":{"_zoneType":"SI_BUILT","name":"Pozidano zemljišče","authority":"MKGP","dataSource":"raba-3000"},"geometry":{"type":"Polygon","coordinates":[[[16.280795322047414,46.38564532425781],[16.28,46.386256168801644],[16.28,46.3865094762937],[16.280795322047414,46.38564532425781]]]}},{"type":"Feature","properties":{"_zoneType":"SI_BUILT","name":"Pozidano zemljišče","authority":"MKGP","dataSource":"raba-3000"},"geometry":{"type":"Polygon","coordinates":[[[16.249717847164266,46.39184062930287],[16.248935006673634,46.39287411544288],[16.24984568592862,46.39242774211591],[16.249717847164266,46.39184062930287]]]}},{"type":"Feature","properties":{"_zoneType":"SI_BUILT","name":"Pozidano zemljišče","authority":"MKGP","dataSource":"raba-3000"},"geometry":{"type":"Polygon","coordinates":[[[16.266582656651693,46.39151359449829],[16.26670178428342,46.39244387526954],[16.266830656592973,46.39155383529325],[16.266582656651693,46.39151359449829]]]}},{"type":"Feature","properties":{"_zoneType":"SI_BUILT","name":"Pozidano zemljišče","authority":"MKGP","dataSource":"raba-3000"},"geometry":{"type":"Polygon","coordinates":[[[16.242666623882204,46.39158261916271],[16.242764895513666,46.39294134363356],[16.242920585859743,46.391789026021094],[16.242666623882204,46.39158261916271]]]}},{"type":"Feature","properties":{"_zoneType":"SI_BUILT","name":"Pozidano zemljišče","authority":"MKGP","dataSource":"raba-3000"},"geometry":{"type":"Polygon","coordinates":[[[16.2,46.38527713808056],[16.2,46.38558009581706],[16.200085260038765,46.3856219599393],[16.2,46.38527713808056]]]}},{"type":"Feature","properties":{"_zoneType":"SI_BUILT","name":"Pozidano zemljišče","authority":"MKGP","dataSource":"raba-3000"},"geometry":{"type":"Polygon","coordinates":[[[16.203032654349137,46.38259775420665],[16.200818851298294,46.38115774782961],[16.2,46.3812778920253],[16.2,46.382304517868896],[16.200983620204834,46.38183021753631],[16.203032654349137,46.38259775420665]]]}},{"type":"Feature","properties":{"_zoneType":"SI_BUILT","name":"Pozidano zemljišče","authority":"MKGP","dataSource":"raba-3000"},"geometry":{"type":"Polygon","coordinates":[[[16.23586686504662,46.39763395880506],[16.23535024623062,46.39616318506516],[16.23774095943318,46.392995837346135],[16.234949522495338,46.39535462402847],[16.234983125631206,46.39776483118554],[16.23394996002035,46.39803677650117],[16.231577458915297,46.397119996999834],[16.23027214080439,46.39441515816591],[16.227745994064353,46.39310359426164],[16.226232277275603,46.394973026790474],[16.227085971033457,46.39605999604941],[16.2269057665245,46.39861856883798],[16.223485084777803,46.397783426774104],[16.223070216618822,46.39529856363854],[16.221968662726535,46.3950497956618],[16.222992667227693,46.39646844179925],[16.221566866814644,46.39682594053838],[16.222998011766517,46.3976579382754],[16.222785407614083,46.39843329613358],[16.21646461918695,46.39704845548359],[16.21260833114838,46.39977521307687],[16.211284879829936,46.4],[16.212921240540382,46.4],[16.21490677000981,46.398228775004476],[16.215884817653627,46.39902460199148],[16.21762037440555,46.39788963931255],[16.222791793577425,46.398836551094476],[16.223146034061852,46.4],[16.22414487359228,46.4],[16.225752053858947,46.39944653137904],[16.226055252328056,46.4],[16.238353723659834,46.4],[16.237246845063584,46.39809340289108],[16.23795057386712,46.397708058153825],[16.23974668460966,46.398044234540635],[16.239342480188913,46.399424924651534],[16.240000000000002,46.39953087914649],[16.240000000000002,46.39754974693824],[16.23586686504662,46.39763395880506]],[[16.226741589307203,46.39496399014107],[16.22839571545282,46.39354721303209],[16.230429276830524,46.395094225402545],[16.231265884823554,46.397917808320784],[16.227404804456206,46.39823601039395],[16.22742216585713,46.39606959988739],[16.226741589307203,46.39496399014107]],[[16.229954691220183,46.39975157553271],[16.22893092474668,46.3999779690388],[16.229740586478172,46.39935717476025],[16.229954691220183,46.39975157553271]]]}},{"type":"Feature","properties":{"_zoneType":"SI_BUILT","name":"Pozidano zemljišče","authority":"MKGP","dataSource":"raba-3000"},"geometry":{"type":"Polygon","coordinates":[[[16.208591903513412,46.398850713954666],[16.204026654292004,46.39798103096255],[16.20410862016271,46.39468093336999],[16.208539101364064,46.39341348939283],[16.209514499135615,46.39411878454108],[16.209481039932307,46.39329825307438],[16.2,46.3942166504562],[16.2,46.394552290759975],[16.20395499899829,46.39425514718423],[16.200137710303622,46.395567441345136],[16.2,46.3959183228169],[16.2,46.39759572220797],[16.200617794272922,46.397652539555835],[16.201095267049897,46.395589148514304],[16.20380355397914,46.39513406965399],[16.203476025413504,46.39914893734233],[16.203693456238963,46.4],[16.204267204960395,46.4],[16.20391514608365,46.398517283004935],[16.208591903513412,46.398850713954666]]]}},{"type":"Feature","properties":{"_zoneType":"SI_BUILT","name":"Pozidano zemljišče","authority":"MKGP","dataSource":"raba-3000"},"geometry":{"type":"Polygon","coordinates":[[[16.211284879829893,46.400000000000006],[16.212921240540375,46.400000000000006],[16.212921240540382,46.4],[16.211284879829936,46.4],[16.211284879829893,46.400000000000006]]]}},{"type":"Feature","properties":{"_zoneType":"SI_BUILT","name":"Pozidano zemljišče","authority":"MKGP","dataSource":"raba-3000"},"geometry":{"type":"Polygon","coordinates":[[[16.223146034061855,46.400000000000006],[16.22414487359226,46.400000000000006],[16.22414487359228,46.4],[16.223146034061852,46.4],[16.223146034061855,46.400000000000006]]]}},{"type":"Feature","properties":{"_zoneType":"SI_BUILT","name":"Pozidano zemljišče","authority":"MKGP","dataSource":"raba-3000"},"geometry":{"type":"Polygon","coordinates":[[[16.22605525232806,46.400000000000006],[16.238353723659838,46.400000000000006],[16.238353723659834,46.4],[16.226055252328056,46.4],[16.22605525232806,46.400000000000006]]]}},{"type":"Feature","properties":{"_zoneType":"SI_BUILT","name":"Pozidano zemljišče","authority":"MKGP","dataSource":"raba-3000"},"geometry":{"type":"Polygon","coordinates":[[[16.203693456238966,46.400000000000006],[16.204267204960395,46.400000000000006],[16.204267204960395,46.4],[16.203693456238963,46.4],[16.203693456238966,46.400000000000006]]]}},{"type":"Feature","properties":{"_zoneType":"SI_BUILT","name":"Pozidano zemljišče","authority":"MKGP","dataSource":"raba-3000"},"geometry":{"type":"Polygon","coordinates":[[[16.273493048773847,46.399076454593434],[16.274471236094428,46.4],[16.275569649090226,46.4],[16.27526400239129,46.399299136069594],[16.27297102433977,46.397594844617025],[16.275416101060053,46.39664066938682],[16.2760603205703,46.39707998216308],[16.275335836420528,46.398092841277],[16.28,46.397050291451876],[16.28,46.39627047155966],[16.277551006643353,46.39659841201213],[16.277370266548445,46.394923557245654],[16.28,46.39500097890993],[16.28,46.392898289460476],[16.279845389717423,46.392532308849155],[16.276946470288312,46.39435664307367],[16.27530124047649,46.39355702813338],[16.27543199467745,46.39258162366145],[16.2698214498698,46.3926440692825],[16.26817030916932,46.393567277791895],[16.266854823566394,46.392676976661235],[16.268494156169094,46.39468221550404],[16.267962952900206,46.39542640937103],[16.2654256711616,46.394272330849645],[16.264685451171154,46.39270099174132],[16.261798940928454,46.39273288174035],[16.26342942646187,46.39456804372156],[16.26150906130434,46.39633817935845],[16.258709187677248,46.3952069201134],[16.258616355130147,46.39276795827207],[16.257540304648167,46.39277979780269],[16.258374367277632,46.393382278861004],[16.256741670296496,46.39443338085299],[16.257334352761166,46.39714537070642],[16.254572836202872,46.39787629607385],[16.25345168975457,46.39631767192699],[16.253477772310045,46.39796742289504],[16.24981348403361,46.39834452331863],[16.248070138615276,46.397722801124694],[16.248391930822415,46.39448926964076],[16.250487805423592,46.394228800743406],[16.248901146397916,46.393977562680064],[16.249343682867742,46.39286965083507],[16.248078105184153,46.39437982534313],[16.24790481647149,46.397237544638564],[16.246822476160872,46.397749941486495],[16.246028141275996,46.397507239725186],[16.246709482250818,46.396064581378205],[16.245456099573424,46.39291206181319],[16.244931555654517,46.39737311702977],[16.243784972644193,46.39740075394206],[16.242764895513478,46.39294134363356],[16.24277494086765,46.39749320802687],[16.240000000000002,46.39754974693824],[16.240000000000002,46.39953087914649],[16.242911214433185,46.4],[16.24399739950603,46.4],[16.244026741151742,46.39953364125594],[16.244804858250035,46.4],[16.24738836862037,46.4],[16.248099374559434,46.39965858420478],[16.247931506619338,46.4],[16.249340151288017,46.4],[16.249340741757102,46.399998477259],[16.249341601558292,46.4],[16.24984676774282,46.4],[16.250236782276826,46.39936104977714],[16.250903985653526,46.39946050591257],[16.25060175221534,46.4],[16.251353748490402,46.4],[16.25426580970324,46.39878603805663],[16.256764113308442,46.399492857810515],[16.258064529159217,46.39822606025689],[16.260492322814837,46.4],[16.261658831876833,46.4],[16.261572452854196,46.39968589469397],[16.262956603825028,46.3992035058069],[16.263031613236652,46.39825557755846],[16.265238732702098,46.39805844856381],[16.265294265564187,46.4],[16.265647306333705,46.4],[16.267434936490282,46.39752675649825],[16.269861303235885,46.397847378961316],[16.269771929809483,46.4],[16.27033428338812,46.4],[16.270393212515085,46.39954221627811],[16.273493048773847,46.399076454593434]],[[16.261501262016193,46.397693697513006],[16.26041161252167,46.398144680714715],[16.260079758509196,46.3975559775931],[16.261131729170156,46.397388301070315],[16.261501262016193,46.397693697513006]],[[16.260255031696143,46.39872042010882],[16.260635786408024,46.39840440763987],[16.26077970600101,46.39902418137282],[16.260255031696143,46.39872042010882]],[[16.242922249925943,46.39916189499928],[16.24233581137027,46.39945181459648],[16.242413605993644,46.39877712616749],[16.242922249925943,46.39916189499928]]]}},{"type":"Feature","properties":{"_zoneType":"SI_BUILT","name":"Pozidano zemljišče","authority":"MKGP","dataSource":"raba-3000"},"geometry":{"type":"Polygon","coordinates":[[[16.274471236094435,46.400000000000006],[16.27556964909023,46.400000000000006],[16.275569649090226,46.4],[16.274471236094428,46.4],[16.274471236094435,46.400000000000006]]]}},{"type":"Feature","properties":{"_zoneType":"SI_BUILT","name":"Pozidano zemljišče","authority":"MKGP","dataSource":"raba-3000"},"geometry":{"type":"Polygon","coordinates":[[[16.242911214433228,46.400000000000006],[16.24399739950603,46.400000000000006],[16.24399739950603,46.4],[16.242911214433185,46.4],[16.242911214433228,46.400000000000006]]]}},{"type":"Feature","properties":{"_zoneType":"SI_BUILT","name":"Pozidano zemljišče","authority":"MKGP","dataSource":"raba-3000"},"geometry":{"type":"Polygon","coordinates":[[[16.244804858250045,46.400000000000006],[16.247388368620356,46.400000000000006],[16.24738836862037,46.4],[16.244804858250035,46.4],[16.244804858250045,46.400000000000006]]]}},{"type":"Feature","properties":{"_zoneType":"SI_BUILT","name":"Pozidano zemljišče","authority":"MKGP","dataSource":"raba-3000"},"geometry":{"type":"Polygon","coordinates":[[[16.247931506619334,46.400000000000006],[16.249340151288013,46.400000000000006],[16.249340151288017,46.4],[16.247931506619338,46.4],[16.247931506619334,46.400000000000006]]]}},{"type":"Feature","properties":{"_zoneType":"SI_BUILT","name":"Pozidano zemljišče","authority":"MKGP","dataSource":"raba-3000"},"geometry":{"type":"Polygon","coordinates":[[[16.249341601558296,46.400000000000006],[16.249846767742817,46.400000000000006],[16.24984676774282,46.4],[16.249341601558292,46.4],[16.249341601558296,46.400000000000006]]]}},{"type":"Feature","properties":{"_zoneType":"SI_BUILT","name":"Pozidano zemljišče","authority":"MKGP","dataSource":"raba-3000"},"geometry":{"type":"Polygon","coordinates":[[[16.250601752215335,46.400000000000006],[16.251353748490384,46.400000000000006],[16.251353748490402,46.4],[16.25060175221534,46.4],[16.250601752215335,46.400000000000006]]]}},{"type":"Feature","properties":{"_zoneType":"SI_BUILT","name":"Pozidano zemljišče","authority":"MKGP","dataSource":"raba-3000"},"geometry":{"type":"Polygon","coordinates":[[[16.260492322814848,46.400000000000006],[16.261658831876836,46.400000000000006],[16.261658831876833,46.4],[16.260492322814837,46.4],[16.260492322814848,46.400000000000006]]]}},{"type":"Feature","properties":{"_zoneType":"SI_BUILT","name":"Pozidano zemljišče","authority":"MKGP","dataSource":"raba-3000"},"geometry":{"type":"Polygon","coordinates":[[[16.265294265564187,46.400000000000006],[16.2656473063337,46.400000000000006],[16.265647306333705,46.4],[16.265294265564187,46.4],[16.265294265564187,46.400000000000006]]]}},{"type":"Feature","properties":{"_zoneType":"SI_BUILT","name":"Pozidano zemljišče","authority":"MKGP","dataSource":"raba-3000"},"geometry":{"type":"Polygon","coordinates":[[[16.269771929809483,46.400000000000006],[16.27033428338812,46.400000000000006],[16.27033428338812,46.4],[16.269771929809483,46.4],[16.269771929809483,46.400000000000006]]]}},{"type":"Feature","properties":{"_zoneType":"SI_BUILT","name":"Pozidano zemljišče","authority":"MKGP","dataSource":"raba-3000"},"geometry":{"type":"Polygon","coordinates":[[[16.280008424510267,46.39704840837648],[16.280670466341792,46.3979023863985],[16.283106226514246,46.396668746063355],[16.291086488173818,46.4],[16.29122086974297,46.4],[16.285480724917267,46.39743223564153],[16.284768704049117,46.396342555505456],[16.289848038342964,46.39689990102682],[16.294438824517233,46.39552619513965],[16.300356924432418,46.395189263062726],[16.28461842244457,46.395974398977145],[16.284613878694124,46.39377793597405],[16.28041517938215,46.39388106758851],[16.28,46.392898289460476],[16.28,46.39500097890993],[16.28017489306843,46.395006127915586],[16.28015208893818,46.39625010559376],[16.28,46.39627047155966],[16.28,46.397050291451876],[16.280008424510267,46.39704840837648]],[[16.28265707390133,46.39619400144281],[16.281217141424893,46.39665437341561],[16.28230986851171,46.395866593610684],[16.28265707390133,46.39619400144281]]]}},{"type":"Feature","properties":{"_zoneType":"SI_BUILT","name":"Pozidano zemljišče","authority":"MKGP","dataSource":"raba-3000"},"geometry":{"type":"Polygon","coordinates":[[[16.291086488173836,46.400000000000006],[16.291220869742983,46.400000000000006],[16.29122086974297,46.4],[16.291086488173818,46.4],[16.291086488173836,46.400000000000006]]]}},{"type":"Feature","properties":{"_zoneType":"SI_BUILT","name":"Pozidano zemljišče","authority":"MKGP","dataSource":"raba-3000"},"geometry":{"type":"Polygon","coordinates":[[[16.29770535048034,46.397180569092896],[16.297784105585478,46.39706900322336],[16.297064602497485,46.39641980863653],[16.29770535048034,46.397180569092896]]]}},{"type":"Feature","properties":{"_zoneType":"SI_BUILT","name":"Pozidano zemljišče","authority":"MKGP","dataSource":"raba-3000"},"geometry":{"type":"Polygon","coordinates":[[[16.30338596072277,46.39517877653944],[16.300356924432418,46.395189263062726],[16.303224254341686,46.39529017904171],[16.30338596072277,46.39517877653944]]]}},{"type":"Feature","properties":{"_zoneType":"SI_BUILT","name":"Pozidano zemljišče","authority":"MKGP","dataSource":"raba-3000"},"geometry":{"type":"Polygon","coordinates":[[[16.300191558038836,46.38822710377478],[16.300199033673493,46.38854189437939],[16.304364125963577,46.38823279633192],[16.300191558038836,46.38822710377478]]]}},{"type":"Feature","properties":{"_zoneType":"SI_BUILT","name":"Pozidano zemljišče","authority":"MKGP","dataSource":"raba-3000"},"geometry":{"type":"Polygon","coordinates":[[[16.304050990204757,46.3870720433888],[16.30117367064706,46.3860480160838],[16.30014144522847,46.38611677296855],[16.30016841135108,46.38691517368436],[16.302794829393818,46.387359814683485],[16.304050990204757,46.3870720433888]]]}},{"type":"Feature","properties":{"_zoneType":"SI_BUILT","name":"Pozidano zemljišče","authority":"MKGP","dataSource":"raba-3000"},"geometry":{"type":"Polygon","coordinates":[[[16.30292492199792,46.381270875089875],[16.300381937777786,46.38114481445259],[16.30249707172601,46.381389977870526],[16.30292492199792,46.381270875089875]]]}},{"type":"Feature","properties":{"_zoneType":"SI_BUILT","name":"Pozidano zemljišče","authority":"MKGP","dataSource":"raba-3000"},"geometry":{"type":"Polygon","coordinates":[[[16.302397667356523,46.37995785585407],[16.301536297317114,46.37817094094325],[16.301965373458028,46.379725718725204],[16.302397667356523,46.37995785585407]]]}}]}