{"type":"FeatureCollection","features":[{"type":"Feature","properties":{"_zoneType":"SI_BUILT","name":"Pozidano zemljišče","authority":"MKGP","dataSource":"raba-3000"},"geometry":{"type":"Polygon","coordinates":[[[14.686640629747139,45.531104746124925],[14.688034534732681,45.53056149459458],[14.691942744329202,45.53206983219806],[14.69580093789308,45.53170644207872],[14.69664650546666,45.533098180215276],[14.69673264858883,45.53499412001798],[14.695491512744853,45.53564036833469],[14.695211231106144,45.53827891513962],[14.692547176909036,45.53929446331612],[14.690295650526801,45.54218591184513],[14.690125330565252,45.54372388699113],[14.68716933692731,45.545171731455845],[14.690694495373652,45.546186628122044],[14.690049617576374,45.54499489773075],[14.69069841929999,45.54216017262587],[14.692880766538954,45.53940969825444],[14.694863135270184,45.538902124549686],[14.698396161592166,45.54205639933182],[14.698124781619889,45.54333540054629],[14.701582660232143,45.5446901450718],[14.701386175427382,45.54599230471001],[14.702649301414343,45.54782136610615],[14.705936693138286,45.548168142962254],[14.70655206038602,45.549485179100806],[14.70309879709132,45.55335070894832],[14.702459884610318,45.55542542548697],[14.705397072353453,45.55563078118372],[14.704259297140014,45.5584698337437],[14.70237361597663,45.56],[14.703176742458497,45.56],[14.703444308685315,45.55981482551387],[14.703543051743223,45.56],[14.703996251566355,45.56],[14.703813135530485,45.559570849695795],[14.705796616912771,45.555711303660296],[14.7032126453573,45.554986096082956],[14.705735742066027,45.55040623409503],[14.708694956259386,45.55033790605367],[14.70905957006001,45.54929520862253],[14.707881878800452,45.54777884718548],[14.708905032259715,45.547151569317954],[14.712278420520311,45.54738913564994],[14.710711011313807,45.54865452301533],[14.71067080166502,45.55017908765166],[14.715104426515701,45.5499415361671],[14.717168646328295,45.54842135169425],[14.718518488276239,45.549483612779945],[14.72,45.549645318325915],[14.72,45.548305235549606],[14.719163062654848,45.54767411792027],[14.714368477890657,45.549115919684716],[14.71173523948317,45.548460730416956],[14.71388322468786,45.54662322286064],[14.71363196904291,45.543171477692475],[14.715683394907899,45.54224368291455],[14.717592716608166,45.54289115459],[14.719383479892832,45.54146088202726],[14.717261046383491,45.54202743251108],[14.714525304227125,45.540416071939106],[14.71777890339958,45.539048479972884],[14.718506023871793,45.53792194996397],[14.718078022133104,45.5371007308593],[14.716639243745647,45.53718545946402],[14.716088417910887,45.535536177030906],[14.714462130566245,45.53498317341115],[14.714862457503477,45.534326819063665],[14.72,45.53455533063862],[14.72,45.53406522424494],[14.7158445144141,45.53341226385649],[14.713221991776447,45.53478960868409],[14.711332858475522,45.53335577965624],[14.705828337994092,45.53532514975773],[14.703213374696753,45.53468852330399],[14.701119236252794,45.53254782946183],[14.702005852844021,45.53135843202589],[14.700076431661062,45.530194530085886],[14.700485511399627,45.5284940834773],[14.698457908754795,45.52770751734624],[14.699047077446995,45.526455470962375],[14.702008400379079,45.5272647969637],[14.698680516626249,45.52585454291692],[14.697399231981962,45.52859979061889],[14.695068517640616,45.52769010697535],[14.690274756429076,45.52802178475133],[14.69057676795002,45.52656045133202],[14.68881859598051,45.529476101372175],[14.686307357936194,45.53093139643229],[14.686315882665644,45.53342210653462],[14.686640629747139,45.531104746124925]],[[14.698830193003923,45.529789915758066],[14.700533161481838,45.53100808530095],[14.700402570716173,45.532528129900555],[14.702987050901838,45.53518307303049],[14.706657883853667,45.535457315944065],[14.711176227977809,45.533708967139155],[14.712692594752571,45.535465696462076],[14.715990579904407,45.53604478560796],[14.716411191248659,45.537596747211076],[14.71786508510167,45.538480770824656],[14.714225057594676,45.539987125420666],[14.714317962922879,45.54163217247473],[14.712194269411798,45.54073053562013],[14.712415659815886,45.539490616798936],[14.711082676531275,45.54019102360115],[14.709800122664088,45.53878701605398],[14.710040503154547,45.54006278917599],[14.71184388296481,45.54094920497114],[14.710917881393001,45.5421956191144],[14.709575026287824,45.54264638709183],[14.70835716637171,45.54167357596197],[14.707808749914282,45.54321392270104],[14.700362014983089,45.54374707556832],[14.695460438821257,45.53890331439149],[14.695867267002056,45.535719669890206],[14.697147873499741,45.534998694743734],[14.696664888309583,45.531874620269654],[14.69826094398794,45.53108561759344],[14.694817071783996,45.53154226945177],[14.691556041409545,45.52967317668139],[14.693940287533803,45.529015440274485],[14.698830193003923,45.529789915758066]],[[14.702450804477387,45.546680617486075],[14.701668022866455,45.54410859033361],[14.708952754803294,45.54327332585073],[14.711213044927025,45.54232923246332],[14.711938757119356,45.541597396904166],[14.713223151070757,45.54237042070327],[14.712371750023857,45.54639872499238],[14.707322657096624,45.54726222280507],[14.70610067401914,45.547927323908475],[14.702450804477387,45.546680617486075]],[[14.70802389677246,45.548808250248015],[14.706751005924458,45.54907038508921],[14.707610140196765,45.548059615786286],[14.70802389677246,45.548808250248015]],[[14.692338304011546,45.528271179903264],[14.691947907599461,45.528900228602026],[14.691138467171985,45.52809769797141],[14.692338304011546,45.528271179903264]],[[14.690584905924888,45.53132362430746],[14.688581112056713,45.53041564446965],[14.689384201778548,45.52896096160258],[14.690633931740399,45.52902720069033],[14.690584905924888,45.53132362430746]]]}},{"type":"Feature","properties":{"_zoneType":"SI_BUILT","name":"Pozidano zemljišče","authority":"MKGP","dataSource":"raba-3000"},"geometry":{"type":"Polygon","coordinates":[[[14.698351652531894,45.559830521224214],[14.698731245410405,45.56],[14.69892759971827,45.56],[14.698351652531894,45.559830521224214]]]}},{"type":"Feature","properties":{"_zoneType":"SI_BUILT","name":"Pozidano zemljišče","authority":"MKGP","dataSource":"raba-3000"},"geometry":{"type":"Polygon","coordinates":[[[14.701456546885838,45.56074417043808],[14.69892759971827,45.56],[14.698731245410405,45.56],[14.701433461262306,45.56120647214535],[14.703176742458497,45.56],[14.70237361597663,45.56],[14.701456546885838,45.56074417043808]]]}},{"type":"Feature","properties":{"_zoneType":"SI_BUILT","name":"Pozidano zemljišče","authority":"MKGP","dataSource":"raba-3000"},"geometry":{"type":"Polygon","coordinates":[[[14.704324827883873,45.56146607769888],[14.703655904787878,45.56199221784319],[14.705038353766751,45.56256545860209],[14.701345306322757,45.56529339295611],[14.698830659124434,45.563930513954205],[14.698263158426629,45.56440250016427],[14.70203817739103,45.56617683366756],[14.700687576225613,45.56661272360735],[14.700587205929816,45.56817380616951],[14.702441867350942,45.566880801626375],[14.70640860368789,45.56702926246499],[14.708039170702229,45.56989928093919],[14.704659044690342,45.570100443788746],[14.704614839720387,45.57179783066608],[14.701909706928049,45.57181600800673],[14.701698246621413,45.57282146253764],[14.699979024318191,45.572972464618],[14.700993562738278,45.57480437597978],[14.699245101647165,45.577152862965775],[14.696147739712437,45.57827739308932],[14.695808925625611,45.579741272034234],[14.696530635190028,45.5783164914194],[14.698646620321382,45.57844247017804],[14.702323735708452,45.57556302114959],[14.700979542316784,45.57330698344805],[14.705650780172967,45.572216615840205],[14.704657302561488,45.570410766210394],[14.706174179173226,45.57099091507639],[14.70851434255384,45.57033544888326],[14.708003899101206,45.568958414847316],[14.70949604492381,45.56861401761631],[14.709655862163913,45.567752713195084],[14.71348372598047,45.567965112057976],[14.712273571147792,45.56748852430077],[14.707541970310402,45.56772404857582],[14.70583870016573,45.56617038256084],[14.703843564278847,45.56671205797306],[14.702099490843814,45.56553198187022],[14.705557632485698,45.562472231653516],[14.707871039729646,45.56290783098817],[14.707177528696073,45.56139792709998],[14.705795727624734,45.5619574210898],[14.704463917162714,45.561096019974386],[14.703996251566355,45.56],[14.703543051743223,45.56],[14.704324827883873,45.56146607769888]],[[14.701864945412913,45.575407286806325],[14.701045956400256,45.57610318788257],[14.700521563959395,45.575596063167794],[14.701363390677576,45.57514395494934],[14.701864945412913,45.575407286806325]]]}},{"type":"Feature","properties":{"_zoneType":"SI_BUILT","name":"Pozidano zemljišče","authority":"MKGP","dataSource":"raba-3000"},"geometry":{"type":"Polygon","coordinates":[[[14.722994790123085,45.54997219671921],[14.724710721153583,45.55355385221465],[14.727277546091665,45.5546317808133],[14.726915073798908,45.5572047757278],[14.728069436355202,45.55910588925433],[14.729313010818382,45.56],[14.729928237740246,45.56],[14.72857871920744,45.559062527768326],[14.727416116288431,45.55696458327734],[14.727935674230032,45.55456849421286],[14.729593022198614,45.55472645573663],[14.733510019444294,45.55413649669129],[14.735032526187775,45.552874042162706],[14.7419067095458,45.550949076954204],[14.743859351699754,45.54923553713296],[14.734823265842833,45.55266907942327],[14.733502076133801,45.553856085827455],[14.729374601228335,45.554490634277386],[14.725072249443949,45.55341517310657],[14.724448812504075,45.551214906918055],[14.72571855718284,45.550347422287295],[14.725028266563722,45.54916784514082],[14.721803157305796,45.54966496023001],[14.72,45.548305235549606],[14.72,45.549645318325915],[14.722994790123085,45.54997219671921]]]}},{"type":"Feature","properties":{"_zoneType":"SI_BUILT","name":"Pozidano zemljišče","authority":"MKGP","dataSource":"raba-3000"},"geometry":{"type":"Polygon","coordinates":[[[14.721042899271009,45.53460171751622],[14.728647972300404,45.53237714899554],[14.729425844810354,45.53274804025103],[14.72908278042909,45.53372664051332],[14.730512625269318,45.53422794782335],[14.73046001130271,45.53693903910791],[14.730933295788674,45.534384871844736],[14.732385068635912,45.53365813234166],[14.732797265344965,45.531750571360035],[14.736098245306557,45.52998954617492],[14.738788014382033,45.52501161682279],[14.742075936193151,45.524059285446306],[14.741772842946064,45.523403304122],[14.743985212925972,45.521505076308934],[14.738426796726884,45.524261026886855],[14.735731822124762,45.52986045555614],[14.732989697582642,45.53127228993124],[14.733486523436573,45.52996014920716],[14.73286313956906,45.529701873569834],[14.730698093565728,45.53241595257922],[14.727843983432006,45.53214921281275],[14.721309437448038,45.53427097896771],[14.72,45.53406522424494],[14.72,45.53455533063862],[14.721042899271009,45.53460171751622]]]}},{"type":"Feature","properties":{"_zoneType":"SI_BUILT","name":"Pozidano zemljišče","authority":"MKGP","dataSource":"raba-3000"},"geometry":{"type":"Polygon","coordinates":[[[14.730861856710991,45.56111359616732],[14.733958924007206,45.560837046600504],[14.737925882696857,45.56245597221027],[14.742252825918298,45.561927224486105],[14.743739894519283,45.56281858653574],[14.736842775280603,45.56413624291997],[14.743794961888257,45.56340659449169],[14.743799562760566,45.56239437543367],[14.742409916270567,45.56167144623484],[14.738379952222209,45.56220325875099],[14.734188038748819,45.56057208124624],[14.731206477068763,45.56088795659103],[14.729928237740246,45.56],[14.729313010818382,45.56],[14.730861856710991,45.56111359616732]]]}},{"type":"Feature","properties":{"_zoneType":"SI_BUILT","name":"Pozidano zemljišče","authority":"MKGP","dataSource":"raba-3000"},"geometry":{"type":"Polygon","coordinates":[[[14.718642809214078,45.54332749586161],[14.718559923190924,45.543144519850784],[14.71824630063043,45.543406965331435],[14.718642809214078,45.54332749586161]]]}},{"type":"Feature","properties":{"_zoneType":"SI_BUILT","name":"Pozidano zemljišče","authority":"MKGP","dataSource":"raba-3000"},"geometry":{"type":"Polygon","coordinates":[[[14.743758452483306,45.571436962648626],[14.743178330227535,45.571256597922584],[14.743738331227528,45.57166117545732],[14.743758452483306,45.571436962648626]]]}},{"type":"Feature","properties":{"_zoneType":"SI_BUILT","name":"Pozidano zemljišče","authority":"MKGP","dataSource":"raba-3000"},"geometry":{"type":"Polygon","coordinates":[[[14.739634444493785,45.582312001973136],[14.740573856658928,45.58260105438647],[14.739963643994388,45.58219596689181],[14.739634444493785,45.582312001973136]]]}},{"type":"Feature","properties":{"_zoneType":"SI_BUILT","name":"Pozidano zemljišče","authority":"MKGP","dataSource":"raba-3000"},"geometry":{"type":"Polygon","coordinates":[[[14.740277255815887,45.571519043552556],[14.740575175180311,45.57161834603368],[14.740441457303058,45.57137816043011],[14.740277255815887,45.571519043552556]]]}},{"type":"Feature","properties":{"_zoneType":"SI_BUILT","name":"Pozidano zemljišče","authority":"MKGP","dataSource":"raba-3000"},"geometry":{"type":"Polygon","coordinates":[[[14.722542578438814,45.58155135421629],[14.722131801395738,45.58130735239811],[14.72236520227659,45.581739838666564],[14.722542578438814,45.58155135421629]]]}},{"type":"Feature","properties":{"_zoneType":"SI_BUILT","name":"Pozidano zemljišče","authority":"MKGP","dataSource":"raba-3000"},"geometry":{"type":"Polygon","coordinates":[[[14.721368916929563,45.555301181387414],[14.720237188874027,45.55571090233125],[14.721332171594245,45.55540886138727],[14.721368916929563,45.555301181387414]]]}},{"type":"Feature","properties":{"_zoneType":"SI_BUILT","name":"Pozidano zemljišče","authority":"MKGP","dataSource":"raba-3000"},"geometry":{"type":"Polygon","coordinates":[[[14.677260748773335,45.59896495594701],[14.674435382891867,45.599839562577486],[14.674235539887016,45.6],[14.675547326465917,45.6],[14.676190358389785,45.59950784152965],[14.68,45.599267040223864],[14.68,45.598871192561944],[14.677260748773335,45.59896495594701]]]}},{"type":"Feature","properties":{"_zoneType":"SI_BUILT","name":"Pozidano zemljišče","authority":"MKGP","dataSource":"raba-3000"},"geometry":{"type":"Polygon","coordinates":[[[14.667840319753848,45.595636801066355],[14.670170977687876,45.595185508070784],[14.674903623337862,45.59731098840368],[14.677256984957836,45.59711240870241],[14.679069907181251,45.59544423486353],[14.678708072990215,45.593602985591545],[14.677763912003549,45.593848858453995],[14.678722392515638,45.595406118322124],[14.677083348275964,45.596880608299266],[14.675168154621396,45.597027809417334],[14.670607834078773,45.594985306434396],[14.666910818925285,45.59470252234781],[14.665465123698883,45.59573780904455],[14.65911480133439,45.59585844080406],[14.655699115642314,45.59701296203645],[14.657465134538976,45.59534427612638],[14.660731236419865,45.59450342193777],[14.662961860626764,45.59247294953343],[14.668602448306368,45.590509331434504],[14.669782173206473,45.59102941848861],[14.679268076432242,45.589602186980805],[14.68,45.59037477653628],[14.68,45.588332415493305],[14.671646832742294,45.590516569590754],[14.662876883701665,45.590109030122974],[14.663251099614667,45.591062028220634],[14.666288576782023,45.59074675940458],[14.662594321966777,45.59214315748494],[14.662038301532286,45.59295366377703],[14.660188874146524,45.59295683714871],[14.659488136078785,45.5942201178046],[14.656971481489872,45.59367824947629],[14.656315295075588,45.59227483481629],[14.654447813839505,45.593143154638845],[14.651111375593477,45.5921511659839],[14.651377505176766,45.594377339246435],[14.655668772135677,45.59271268814276],[14.656765029747866,45.59390789260827],[14.65931023417886,45.59477699918027],[14.657075993519138,45.59515859961536],[14.654291794563111,45.598860414234785],[14.649598223200751,45.59910714784639],[14.650906028305597,45.6],[14.653052438573921,45.6],[14.658492531897096,45.596299102215674],[14.661223454710301,45.596389170175584],[14.658381454068206,45.59824835130338],[14.657977592116119,45.59982536247213],[14.656120223792566,45.59986321533713],[14.656056393360377,45.6],[14.6583825439547,45.6],[14.658683485871247,45.5984234172678],[14.660591084227374,45.597184716310345],[14.666232059635307,45.596105647504906],[14.671523183010747,45.59853874710518],[14.669657365616624,45.6],[14.669869016583515,45.6],[14.671952444641267,45.598540607411245],[14.667840319753848,45.595636801066355]]]}},{"type":"Feature","properties":{"_zoneType":"SI_BUILT","name":"Pozidano zemljišče","authority":"MKGP","dataSource":"raba-3000"},"geometry":{"type":"Polygon","coordinates":[[[14.645529739357174,45.6],[14.645839975793884,45.6],[14.645681953977633,45.599876040001405],[14.645529739357174,45.6]]]}},{"type":"Feature","properties":{"_zoneType":"SI_BUILT","name":"Pozidano zemljišče","authority":"MKGP","dataSource":"raba-3000"},"geometry":{"type":"Polygon","coordinates":[[[14.68,45.598871192561944],[14.68,45.599267040223864],[14.686870205549276,45.59883278560453],[14.685149623550275,45.6],[14.686569202516816,45.6],[14.687321406521646,45.59862058398241],[14.68,45.598871192561944]]]}},{"type":"Feature","properties":{"_zoneType":"SI_BUILT","name":"Pozidano zemljišče","authority":"MKGP","dataSource":"raba-3000"},"geometry":{"type":"Polygon","coordinates":[[[14.680403078024032,45.59080024974841],[14.682403181479257,45.59171131988825],[14.68307905055206,45.587769728579914],[14.681556504477635,45.58850810031659],[14.681712885900964,45.58950677359103],[14.6805411974655,45.58819090525829],[14.68,45.588332415493305],[14.68,45.59037477653628],[14.680403078024032,45.59080024974841]],[[14.680343091857305,45.58997080455991],[14.681604021956424,45.58981158860865],[14.681094238052124,45.59089000760617],[14.680343091857305,45.58997080455991]]]}},{"type":"Feature","properties":{"_zoneType":"SI_BUILT","name":"Pozidano zemljišče","authority":"MKGP","dataSource":"raba-3000"},"geometry":{"type":"Polygon","coordinates":[[[14.670081015281482,45.58929192541665],[14.670472073607806,45.58957128302286],[14.671324373942992,45.589659840346634],[14.670081015281482,45.58929192541665]]]}},{"type":"Feature","properties":{"_zoneType":"SI_BUILT","name":"Pozidano zemljišče","authority":"MKGP","dataSource":"raba-3000"},"geometry":{"type":"Polygon","coordinates":[[[14.702664106372078,45.59211490599756],[14.702907484053876,45.592262053922475],[14.702884405548799,45.591958802823086],[14.702664106372078,45.59211490599756]]]}},{"type":"Feature","properties":{"_zoneType":"SI_BUILT","name":"Pozidano zemljišče","authority":"MKGP","dataSource":"raba-3000"},"geometry":{"type":"Polygon","coordinates":[[[14.69826617969068,45.565574599549954],[14.697485037940343,45.56623288376154],[14.698294137011361,45.56568323747922],[14.69826617969068,45.565574599549954]]]}},{"type":"Feature","properties":{"_zoneType":"SI_BUILT","name":"Pozidano zemljišče","authority":"MKGP","dataSource":"raba-3000"},"geometry":{"type":"Polygon","coordinates":[[[14.694390626401225,45.53034423780142],[14.694742149326606,45.53041074931842],[14.69447599779245,45.53015788829285],[14.694390626401225,45.53034423780142]]]}},{"type":"Feature","properties":{"_zoneType":"SI_BUILT","name":"Pozidano zemljišče","authority":"MKGP","dataSource":"raba-3000"},"geometry":{"type":"Polygon","coordinates":[[[14.649007143760372,45.59487209795629],[14.6488439573487,45.59456013906528],[14.64856118684152,45.59502143126684],[14.649007143760372,45.59487209795629]]]}},{"type":"Feature","properties":{"_zoneType":"SI_BUILT","name":"Pozidano zemljišče","authority":"MKGP","dataSource":"raba-3000"},"geometry":{"type":"Polygon","coordinates":[[[14.646736234669374,45.597190298518385],[14.64645763816087,45.59696648016705],[14.646310284244914,45.597424953175015],[14.646736234669374,45.597190298518385]]]}},{"type":"Feature","properties":{"_zoneType":"SI_BUILT","name":"Pozidano zemljišče","authority":"MKGP","dataSource":"raba-3000"},"geometry":{"type":"Polygon","coordinates":[[[14.754475020099088,45.561096548416714],[14.758180794352555,45.56125141144948],[14.76,45.56097798264717],[14.76,45.56067495736242],[14.757768540364099,45.56099827396713],[14.756311804763557,45.56039850946552],[14.74930636136993,45.56271161020397],[14.743799562760566,45.56239437543367],[14.743808380004864,45.563406388968176],[14.74959445404985,45.56304441451219],[14.754475020099088,45.561096548416714]]]}},{"type":"Feature","properties":{"_zoneType":"SI_BUILT","name":"Pozidano zemljišče","authority":"MKGP","dataSource":"raba-3000"},"geometry":{"type":"Polygon","coordinates":[[[14.766110786222946,45.55880502155232],[14.775048015601437,45.55670917396909],[14.774103322817426,45.55601587219592],[14.774218082565694,45.551915893166864],[14.776071000459801,45.551834517088444],[14.77573013208026,45.551068689562676],[14.782980527446254,45.54665155322393],[14.783977646637071,45.547280530316804],[14.782898064586117,45.54830152491233],[14.786102792397863,45.550615314758815],[14.787800796534917,45.55512936229121],[14.79199326199652,45.558255438985725],[14.791532246267662,45.55922201767651],[14.79212488654952,45.56],[14.792618209052817,45.56],[14.79191836670009,45.55921631582371],[14.792448721491445,45.5582572133948],[14.788362607849134,45.55501519472602],[14.786607005862235,45.550563942073666],[14.784531210931553,45.548738625566024],[14.78512830287427,45.54784893662458],[14.784324821092405,45.54677502678275],[14.78923990178794,45.54401418755188],[14.791921174672147,45.54068318848514],[14.795122962536471,45.540015427632774],[14.791916768226397,45.54018892092833],[14.789035001021677,45.54380863286959],[14.785968773413721,45.54456697001395],[14.78796136938936,45.54209161526659],[14.787474630731609,45.541103141789016],[14.789727741251504,45.53932813653495],[14.788476914402704,45.538775811512124],[14.78889087204466,45.537088052610315],[14.797762053295939,45.53119157937383],[14.8,45.53125807933548],[14.8,45.53003962207185],[14.796211165938784,45.53105886791566],[14.787751651701694,45.53777045708583],[14.785094999109631,45.53721012392779],[14.787097980619736,45.53803841134132],[14.788130038587552,45.539867487171875],[14.785539669896474,45.544139140090216],[14.784009116105155,45.542473672080405],[14.785059296263691,45.540349671387894],[14.786529506007678,45.53994177917917],[14.783796988939727,45.53845446483141],[14.78268822980954,45.53888297247041],[14.784690042624332,45.53943181703582],[14.783506354785116,45.54069871400057],[14.783634887576161,45.54336991147622],[14.785007990474217,45.54474434062677],[14.782209899263625,45.54572395440667],[14.780990729516578,45.54757825009369],[14.774025480498684,45.55164142064178],[14.773523352745494,45.55603569579983],[14.769044928078246,45.557857840711414],[14.76673909245953,45.55669141883157],[14.768202110045396,45.55813435472032],[14.766326845644329,45.557940319476536],[14.763016048645426,45.56],[14.763723166676806,45.56],[14.766110786222946,45.55880502155232]]]}},{"type":"Feature","properties":{"_zoneType":"SI_BUILT","name":"Pozidano zemljišče","authority":"MKGP","dataSource":"raba-3000"},"geometry":{"type":"Polygon","coordinates":[[[14.762528420176425,45.560597958046],[14.763723166676806,45.56],[14.763016048645426,45.56],[14.762517407532714,45.56031020971337],[14.76,45.56067495736242],[14.76,45.56097798264717],[14.762528420176425,45.560597958046]]]}},{"type":"Feature","properties":{"_zoneType":"SI_BUILT","name":"Pozidano zemljišče","authority":"MKGP","dataSource":"raba-3000"},"geometry":{"type":"Polygon","coordinates":[[[14.792892962198616,45.56100828326456],[14.792355525104723,45.56316213827044],[14.794709468728776,45.56514705277345],[14.795566803703734,45.567484637983426],[14.798124292657048,45.56842546731233],[14.8,45.56724159064038],[14.8,45.56687549090232],[14.79792147832286,45.568185175800906],[14.795997177233831,45.56721447480978],[14.795110614052302,45.56505937632386],[14.792742588225133,45.56312966607253],[14.793545181135363,45.561038024278076],[14.792618209052817,45.56],[14.79212488654952,45.56],[14.792892962198616,45.56100828326456]]]}},{"type":"Feature","properties":{"_zoneType":"SI_BUILT","name":"Pozidano zemljišče","authority":"MKGP","dataSource":"raba-3000"},"geometry":{"type":"Polygon","coordinates":[[[14.79839645393111,45.56456245665679],[14.798775075092754,45.56390283266176],[14.8,45.564115590576016],[14.8,45.56376547016797],[14.799352888816975,45.563602088487876],[14.798418783286307,45.56373480751993],[14.797994681572801,45.564535088848714],[14.799687860043958,45.56521684025565],[14.8,45.56586208266842],[14.8,45.56509147734945],[14.799992171561975,45.56507352306278],[14.79839645393111,45.56456245665679]]]}},{"type":"Feature","properties":{"_zoneType":"SI_BUILT","name":"Pozidano zemljišče","authority":"MKGP","dataSource":"raba-3000"},"geometry":{"type":"Polygon","coordinates":[[[14.794104361299357,45.570932423837824],[14.798271771072125,45.57243829262658],[14.796848863016287,45.573140981509454],[14.795938035694407,45.5753398773897],[14.79284294221191,45.57478221227001],[14.795506631283734,45.57587193889842],[14.795407889293552,45.57692769534212],[14.796960096240898,45.576692205544525],[14.797209590972882,45.57828124286808],[14.793331833212333,45.58115695754928],[14.791213106976139,45.58123761431057],[14.789788257326167,45.58259940998081],[14.788124849007618,45.582577848640554],[14.782355211752533,45.58691082764537],[14.779869492478099,45.59252803375612],[14.772575164333775,45.59500144585328],[14.766990220019903,45.59771056122988],[14.766090169415328,45.59924353361181],[14.764424532701089,45.6],[14.765484130244678,45.6],[14.772082383518159,45.595585081105455],[14.781258001496784,45.592264012596075],[14.780895903254885,45.59092247180014],[14.782393755860191,45.587377365634005],[14.788375572498133,45.58279698856723],[14.789954153544969,45.582843176711776],[14.791357208924435,45.581516246444394],[14.793726980287971,45.58150805885794],[14.794406666667133,45.582203316919454],[14.792797295670736,45.58358233747291],[14.795020382651279,45.5822816124834],[14.793962179449872,45.581270125679836],[14.794455044116072,45.58058292442321],[14.798166794511413,45.57853266257146],[14.79942427743326,45.581889684386645],[14.8,45.58239948635237],[14.8,45.58191504619069],[14.799568322020695,45.58141831384497],[14.799861668453639,45.57936268657089],[14.797724953861074,45.57715394180138],[14.8,45.577060883134344],[14.8,45.571654996845275],[14.799010288617252,45.57198283393527],[14.794104361299357,45.570932423837824]]]}},{"type":"Feature","properties":{"_zoneType":"SI_BUILT","name":"Pozidano zemljišče","authority":"MKGP","dataSource":"raba-3000"},"geometry":{"type":"Polygon","coordinates":[[[14.8,45.592823082478425],[14.8,45.589329745712185],[14.79969266140742,45.59061303012793],[14.8,45.592823082478425]]]}},{"type":"Feature","properties":{"_zoneType":"SI_BUILT","name":"Pozidano zemljišče","authority":"MKGP","dataSource":"raba-3000"},"geometry":{"type":"Polygon","coordinates":[[[14.799995301326861,45.5956579838506],[14.799932216971804,45.598167834979726],[14.79770848452569,45.6],[14.798520281158309,45.6],[14.8,45.59905980343099],[14.8,45.59479094006546],[14.799202288586505,45.5952536260344],[14.799995301326861,45.5956579838506]]]}},{"type":"Feature","properties":{"_zoneType":"SI_BUILT","name":"Pozidano zemljišče","authority":"MKGP","dataSource":"raba-3000"},"geometry":{"type":"Polygon","coordinates":[[[14.795424607475184,45.6],[14.797003868069895,45.6],[14.79565564990479,45.59931542165711],[14.795424607475184,45.6]]]}},{"type":"Feature","properties":{"_zoneType":"SI_BUILT","name":"Pozidano zemljišče","authority":"MKGP","dataSource":"raba-3000"},"geometry":{"type":"Polygon","coordinates":[[[14.7952269790017,45.59345676952406],[14.79233339762386,45.59927782619659],[14.790932398027358,45.59929570327241],[14.790539417023314,45.6],[14.79246761620686,45.6],[14.794946480724757,45.59586824572184],[14.7952269790017,45.59345676952406]]]}},{"type":"Feature","properties":{"_zoneType":"SI_BUILT","name":"Pozidano zemljišče","authority":"MKGP","dataSource":"raba-3000"},"geometry":{"type":"Polygon","coordinates":[[[14.748782867653897,45.52],[14.750359760118611,45.52],[14.7502260814397,45.51966689197876],[14.752611813179685,45.51719159464329],[14.76,45.51286498970185],[14.76,45.51245438397199],[14.752406487433312,45.51695922597219],[14.751014119745024,45.518528097734226],[14.74896573444653,45.51880154497599],[14.747015668745012,45.52],[14.748115797784905,45.52],[14.748461554582226,45.5198444052573],[14.748782867653897,45.52]]]}},{"type":"Feature","properties":{"_zoneType":"SI_BUILT","name":"Pozidano zemljišče","authority":"MKGP","dataSource":"raba-3000"},"geometry":{"type":"Polygon","coordinates":[[[14.750740115323731,45.52094779040892],[14.750359760118611,45.52],[14.748782867653897,45.52],[14.750740115323731,45.52094779040892]]]}},{"type":"Feature","properties":{"_zoneType":"SI_BUILT","name":"Pozidano zemljišče","authority":"MKGP","dataSource":"raba-3000"},"geometry":{"type":"Polygon","coordinates":[[[14.744007204677056,45.521848916615475],[14.748115797784905,45.52],[14.747015668745012,45.52],[14.744007204677056,45.521848916615475]]]}},{"type":"Feature","properties":{"_zoneType":"SI_BUILT","name":"Pozidano zemljišče","authority":"MKGP","dataSource":"raba-3000"},"geometry":{"type":"Polygon","coordinates":[[[14.7612155329546,45.51215315999102],[14.762418075493466,45.51212369497001],[14.76274055059762,45.512985981392305],[14.761596717971273,45.5153281651086],[14.763863783919037,45.51264233828195],[14.766941121689918,45.51387263002268],[14.767486395090465,45.51303580979601],[14.768957125491964,45.51340218699947],[14.770569956959083,45.5120006497471],[14.769729922460186,45.50966712053804],[14.772474691034589,45.508134182966],[14.777271959256689,45.507848009766285],[14.778181248176619,45.51084163617866],[14.777420935075677,45.511807329128594],[14.778645350558248,45.51109461974688],[14.778458079883737,45.508637444813544],[14.788070512779255,45.50770392190153],[14.791065706060204,45.504857401767076],[14.793235483961592,45.505453690741696],[14.794190183776891,45.50702352587954],[14.79604899834978,45.504187681862035],[14.799086008822716,45.50349306966517],[14.799716700341065,45.50250494513604],[14.797876359813893,45.5025562794765],[14.797685772425364,45.50162898208851],[14.8,45.50009093732425],[14.8,45.500025466151854],[14.79738548933699,45.50143143577616],[14.797010707009846,45.503159662315376],[14.795527358193679,45.50398150092713],[14.794408025667266,45.50602237990015],[14.791351198568998,45.5043312280619],[14.787950117024353,45.507428510344624],[14.785984583385817,45.50788202893614],[14.772374605859035,45.50780296981463],[14.768549374512519,45.50939982203347],[14.769783998576134,45.51127639761514],[14.769432164127684,45.5121420796963],[14.76104907020075,45.51183202436437],[14.76,45.51245438397199],[14.76,45.51286498970185],[14.7612155329546,45.51215315999102]]]}},{"type":"Feature","properties":{"_zoneType":"SI_BUILT","name":"Pozidano zemljišče","authority":"MKGP","dataSource":"raba-3000"},"geometry":{"type":"Polygon","coordinates":[[[14.796455357001422,45.58898015691884],[14.796204601640515,45.591757698442294],[14.797165420606058,45.588078048692346],[14.793819378765464,45.58970779100276],[14.796455357001422,45.58898015691884]]]}},{"type":"Feature","properties":{"_zoneType":"SI_BUILT","name":"Pozidano zemljišče","authority":"MKGP","dataSource":"raba-3000"},"geometry":{"type":"Polygon","coordinates":[[[14.7961383613439,45.519861207489456],[14.79600439729345,45.51969752029616],[14.79582207206257,45.519975251873],[14.7961383613439,45.519861207489456]]]}},{"type":"Feature","properties":{"_zoneType":"SI_BUILT","name":"Pozidano zemljišče","authority":"MKGP","dataSource":"raba-3000"},"geometry":{"type":"Polygon","coordinates":[[[14.791157888468327,45.5031870100886],[14.791530405731697,45.50324374343767],[14.79127398531191,45.50292544721745],[14.791157888468327,45.5031870100886]]]}},{"type":"Feature","properties":{"_zoneType":"SI_BUILT","name":"Pozidano zemljišče","authority":"MKGP","dataSource":"raba-3000"},"geometry":{"type":"Polygon","coordinates":[[[14.788149117462352,45.55841164618267],[14.78651634436533,45.557985681406215],[14.787879941252207,45.55853480758445],[14.788149117462352,45.55841164618267]]]}},{"type":"Feature","properties":{"_zoneType":"SI_BUILT","name":"Pozidano zemljišče","authority":"MKGP","dataSource":"raba-3000"},"geometry":{"type":"Polygon","coordinates":[[[14.78766416746866,45.55098780127603],[14.787663551528015,45.55115137515112],[14.787974440050583,45.55098837757952],[14.78766416746866,45.55098780127603]]]}},{"type":"Feature","properties":{"_zoneType":"SI_BUILT","name":"Pozidano zemljišče","authority":"MKGP","dataSource":"raba-3000"},"geometry":{"type":"Polygon","coordinates":[[[14.78401069925821,45.50933124329865],[14.783772001749197,45.50940617486548],[14.78417487294095,45.510003459917826],[14.78401069925821,45.50933124329865]]]}},{"type":"Feature","properties":{"_zoneType":"SI_BUILT","name":"Pozidano zemljišče","authority":"MKGP","dataSource":"raba-3000"},"geometry":{"type":"Polygon","coordinates":[[[14.781090990523062,45.55858712925928],[14.780249119067987,45.55878308828849],[14.779343193441397,45.55857648849368],[14.7803190426317,45.55901024042902],[14.781090990523062,45.55858712925928]]]}},{"type":"Feature","properties":{"_zoneType":"SI_BUILT","name":"Pozidano zemljišče","authority":"MKGP","dataSource":"raba-3000"},"geometry":{"type":"Polygon","coordinates":[[[14.777809028449674,45.566922339596644],[14.777457155946275,45.566922305437465],[14.777907250537238,45.5674471468381],[14.777809028449674,45.566922339596644]]]}},{"type":"Feature","properties":{"_zoneType":"SI_BUILT","name":"Pozidano zemljišče","authority":"MKGP","dataSource":"raba-3000"},"geometry":{"type":"Polygon","coordinates":[[[14.777574575016796,45.58009849267203],[14.77758072257709,45.579899590096694],[14.777247342844763,45.58010494496426],[14.777574575016796,45.58009849267203]]]}},{"type":"Feature","properties":{"_zoneType":"SI_BUILT","name":"Pozidano zemljišče","authority":"MKGP","dataSource":"raba-3000"},"geometry":{"type":"Polygon","coordinates":[[[14.77359567987138,45.57517534205117],[14.77440648643731,45.57412485275027],[14.773520729895044,45.57402653377266],[14.773404359743424,45.57506066913141],[14.77359567987138,45.57517534205117]]]}},{"type":"Feature","properties":{"_zoneType":"SI_BUILT","name":"Pozidano zemljišče","authority":"MKGP","dataSource":"raba-3000"},"geometry":{"type":"Polygon","coordinates":[[[14.760506036339848,45.51047805126701],[14.76019091745438,45.5103179954879],[14.760379107006923,45.51057602538989],[14.760506036339848,45.51047805126701]]]}},{"type":"Feature","properties":{"_zoneType":"SI_BUILT","name":"Pozidano zemljišče","authority":"MKGP","dataSource":"raba-3000"},"geometry":{"type":"Polygon","coordinates":[[[14.747889255350088,45.547118690707634],[14.750171000116342,45.549367152176785],[14.753470309656775,45.54923479719527],[14.753229946925169,45.550287625349185],[14.755137194533477,45.54987594353648],[14.754816344280487,45.54922649677696],[14.757003021483163,45.5481293787236],[14.757215097103394,45.54612367046367],[14.756210172385405,45.54448286484277],[14.756566798732806,45.54287980594919],[14.755712390633047,45.544960749026416],[14.756869035183016,45.546226538275775],[14.756336558393148,45.548430319178756],[14.750609533163244,45.54894580884082],[14.748560852019871,45.546974576362445],[14.745848399622007,45.54656746294048],[14.745871176847194,45.54775580518402],[14.743892671103,45.54948598670934],[14.74652655243858,45.54721103645645],[14.747889255350088,45.547118690707634]]]}},{"type":"Feature","properties":{"_zoneType":"SI_BUILT","name":"Pozidano zemljišče","authority":"MKGP","dataSource":"raba-3000"},"geometry":{"type":"Polygon","coordinates":[[[14.755189111376941,45.57249153148634],[14.755225329502855,45.57214276666571],[14.754847637664174,45.572429369922986],[14.755189111376941,45.57249153148634]]]}},{"type":"Feature","properties":{"_zoneType":"SI_BUILT","name":"Pozidano zemljišče","authority":"MKGP","dataSource":"raba-3000"},"geometry":{"type":"Polygon","coordinates":[[[14.754671271150881,45.524764932424134],[14.754128025401705,45.524453515324865],[14.75450309072058,45.524851484453166],[14.754671271150881,45.524764932424134]]]}},{"type":"Feature","properties":{"_zoneType":"SI_BUILT","name":"Pozidano zemljišče","authority":"MKGP","dataSource":"raba-3000"},"geometry":{"type":"Polygon","coordinates":[[[14.748346438615686,45.576779813740735],[14.748186545491352,45.57667183157501],[14.747681409918512,45.57705332050486],[14.748346438615686,45.576779813740735]]]}},{"type":"Feature","properties":{"_zoneType":"SI_BUILT","name":"Pozidano zemljišče","authority":"MKGP","dataSource":"raba-3000"},"geometry":{"type":"Polygon","coordinates":[[[14.746081907559894,45.58042177051487],[14.74633249000549,45.5800195513752],[14.745746315089121,45.580321286418815],[14.746081907559894,45.58042177051487]]]}},{"type":"Feature","properties":{"_zoneType":"SI_BUILT","name":"Pozidano zemljišče","authority":"MKGP","dataSource":"raba-3000"},"geometry":{"type":"Polygon","coordinates":[[[14.743758452483306,45.571436962648626],[14.743757458972633,45.5716554411506],[14.743872778397975,45.57154100338228],[14.743758452483306,45.571436962648626]]]}},{"type":"Feature","properties":{"_zoneType":"SI_BUILT","name":"Pozidano zemljišče","authority":"MKGP","dataSource":"raba-3000"},"geometry":{"type":"Polygon","coordinates":[[[14.8,45.49125520360215],[14.8,45.490340013199216],[14.79950332561326,45.491146406626505],[14.799776190379808,45.49247022893507],[14.8,45.492570028682984],[14.8,45.49193586112899],[14.799722659938567,45.491782182091704],[14.8,45.49125520360215]]]}}]}