{"type":"FeatureCollection","features":[{"type":"Feature","properties":{"_zoneType":"SI_BUILT","name":"Pozidano zemljišče","authority":"MKGP","dataSource":"raba-3000"},"geometry":{"type":"Polygon","coordinates":[[[14.484774546897416,45.58286610169185],[14.483869473267328,45.58307349081341],[14.484651666648446,45.583447600090565],[14.484774546897416,45.58286610169185]]]}},{"type":"Feature","properties":{"_zoneType":"SI_BUILT","name":"Pozidano zemljišče","authority":"MKGP","dataSource":"raba-3000"},"geometry":{"type":"Polygon","coordinates":[[[14.483889012252625,45.5922514604907],[14.480857499902118,45.59107416811242],[14.480245135407053,45.59127023021121],[14.482890980870952,45.59257076789107],[14.483889012252625,45.5922514604907]]]}},{"type":"Feature","properties":{"_zoneType":"SI_BUILT","name":"Pozidano zemljišče","authority":"MKGP","dataSource":"raba-3000"},"geometry":{"type":"Polygon","coordinates":[[[14.475748447665103,45.53729412787796],[14.478749375669574,45.53935948195685],[14.476276989292982,45.53686770345145],[14.476783044585405,45.53451484799671],[14.473126585894784,45.531972798139435],[14.472770372890245,45.5324763085255],[14.47513853143264,45.53375423115836],[14.475748447665103,45.53729412787796]]]}},{"type":"Feature","properties":{"_zoneType":"SI_BUILT","name":"Pozidano zemljišče","authority":"MKGP","dataSource":"raba-3000"},"geometry":{"type":"Polygon","coordinates":[[[14.470481194756196,45.58385493082603],[14.470680742555862,45.58375167248116],[14.470179084510596,45.58270968109289],[14.470481194756196,45.58385493082603]]]}},{"type":"Feature","properties":{"_zoneType":"SI_BUILT","name":"Pozidano zemljišče","authority":"MKGP","dataSource":"raba-3000"},"geometry":{"type":"Polygon","coordinates":[[[14.470591261915201,45.550863412682396],[14.469480929878412,45.55088413181875],[14.468115890664365,45.551862700194505],[14.470591261915201,45.550863412682396]]]}},{"type":"Feature","properties":{"_zoneType":"SI_BUILT","name":"Pozidano zemljišče","authority":"MKGP","dataSource":"raba-3000"},"geometry":{"type":"Polygon","coordinates":[[[14.467426781961722,45.53326099277089],[14.468119323344864,45.53301604979839],[14.467432051202975,45.5331496952243],[14.467426781961722,45.53326099277089]]]}},{"type":"Feature","properties":{"_zoneType":"SI_BUILT","name":"Pozidano zemljišče","authority":"MKGP","dataSource":"raba-3000"},"geometry":{"type":"Polygon","coordinates":[[[14.466344706503477,45.5937103346758],[14.466022557781697,45.593247332783505],[14.465535002567535,45.59391863381972],[14.466344706503477,45.5937103346758]]]}},{"type":"Feature","properties":{"_zoneType":"SI_BUILT","name":"Pozidano zemljišče","authority":"MKGP","dataSource":"raba-3000"},"geometry":{"type":"Polygon","coordinates":[[[14.464152380143203,45.54020176735639],[14.463440436990016,45.5412490963983],[14.461888496843262,45.541610341382345],[14.463309313413589,45.54327413978364],[14.464152380143203,45.54020176735639]]]}},{"type":"Feature","properties":{"_zoneType":"SI_BUILT","name":"Pozidano zemljišče","authority":"MKGP","dataSource":"raba-3000"},"geometry":{"type":"Polygon","coordinates":[[[14.462800446674263,45.54740811147255],[14.462811416067424,45.546799542830136],[14.461226716790364,45.547153952082205],[14.462800446674263,45.54740811147255]]]}},{"type":"Feature","properties":{"_zoneType":"SI_BUILT","name":"Pozidano zemljišče","authority":"MKGP","dataSource":"raba-3000"},"geometry":{"type":"Polygon","coordinates":[[[14.453721608692256,45.54975466668592],[14.454784613004982,45.54941548664069],[14.457175356501597,45.547425414897994],[14.453721608692256,45.54975466668592]]]}},{"type":"Feature","properties":{"_zoneType":"SI_BUILT","name":"Pozidano zemljišče","authority":"MKGP","dataSource":"raba-3000"},"geometry":{"type":"Polygon","coordinates":[[[14.454428078175033,45.54628635400297],[14.45458261880749,45.54656862299855],[14.455132564909936,45.54609254981496],[14.454428078175033,45.54628635400297]]]}},{"type":"Feature","properties":{"_zoneType":"SI_BUILT","name":"Pozidano zemljišče","authority":"MKGP","dataSource":"raba-3000"},"geometry":{"type":"Polygon","coordinates":[[[14.452880041414822,45.5692420211745],[14.452651824449918,45.56902705776066],[14.452542849542231,45.56941599643589],[14.452880041414822,45.5692420211745]]]}},{"type":"Feature","properties":{"_zoneType":"SI_BUILT","name":"Pozidano zemljišče","authority":"MKGP","dataSource":"raba-3000"},"geometry":{"type":"Polygon","coordinates":[[[14.449581644331724,45.53201039049428],[14.450426041596849,45.530848726309124],[14.44865782405871,45.532281194412775],[14.449581644331724,45.53201039049428]]]}},{"type":"Feature","properties":{"_zoneType":"SI_BUILT","name":"Pozidano zemljišče","authority":"MKGP","dataSource":"raba-3000"},"geometry":{"type":"Polygon","coordinates":[[[14.447000504668155,45.588474976660045],[14.447412031999297,45.58863657946742],[14.447135083397841,45.588259447749664],[14.447000504668155,45.588474976660045]]]}},{"type":"Feature","properties":{"_zoneType":"SI_BUILT","name":"Pozidano zemljišče","authority":"MKGP","dataSource":"raba-3000"},"geometry":{"type":"Polygon","coordinates":[[[14.444460652102757,45.55503059349102],[14.443274911533155,45.553488437450476],[14.443589668676871,45.551960283430056],[14.446913948990789,45.549196771897456],[14.443249198141183,45.551923893096564],[14.442907879114113,45.5534684411377],[14.444138100027795,45.5549463418124],[14.442419656260016,45.558203454157656],[14.444460652102757,45.55503059349102]]]}},{"type":"Feature","properties":{"_zoneType":"SI_BUILT","name":"Pozidano zemljišče","authority":"MKGP","dataSource":"raba-3000"},"geometry":{"type":"Polygon","coordinates":[[[14.44532864691853,45.57536708256294],[14.44507009350856,45.57530881344523],[14.44499841739927,45.57608111908985],[14.44532864691853,45.57536708256294]]]}},{"type":"Feature","properties":{"_zoneType":"SI_BUILT","name":"Pozidano zemljišče","authority":"MKGP","dataSource":"raba-3000"},"geometry":{"type":"Polygon","coordinates":[[[14.442648289355319,45.51702571776808],[14.444619834037821,45.51696084305768],[14.441417485635085,45.516317522069365],[14.442648289355319,45.51702571776808]]]}},{"type":"Feature","properties":{"_zoneType":"SI_BUILT","name":"Pozidano zemljišče","authority":"MKGP","dataSource":"raba-3000"},"geometry":{"type":"Polygon","coordinates":[[[14.443824714734177,45.588480512077375],[14.441755363031048,45.587924965894516],[14.441237531170037,45.5881655841368],[14.443824714734177,45.588480512077375]]]}},{"type":"Feature","properties":{"_zoneType":"SI_BUILT","name":"Pozidano zemljišče","authority":"MKGP","dataSource":"raba-3000"},"geometry":{"type":"Polygon","coordinates":[[[14.439393949664845,45.57413555380615],[14.44,45.573684405479746],[14.44,45.57342992252369],[14.439393949664845,45.57413555380615]]]}},{"type":"Feature","properties":{"_zoneType":"SI_BUILT","name":"Pozidano zemljišče","authority":"MKGP","dataSource":"raba-3000"},"geometry":{"type":"Polygon","coordinates":[[[14.440039500744472,45.573383931358656],[14.44,45.57342992252369],[14.44,45.573684405479746],[14.440217196057423,45.57352272313733],[14.440039500744472,45.573383931358656]]]}},{"type":"Feature","properties":{"_zoneType":"SI_BUILT","name":"Pozidano zemljišče","authority":"MKGP","dataSource":"raba-3000"},"geometry":{"type":"Polygon","coordinates":[[[14.42460478751602,45.51531271610902],[14.426149530760496,45.515702822264494],[14.429286473484984,45.51493788812375],[14.430800638064838,45.51259666143141],[14.434157423534817,45.514091967307635],[14.438005288748633,45.514868920628885],[14.43896805295122,45.51379583185883],[14.4371865643162,45.51074627986924],[14.432381684754839,45.50951221962436],[14.42755923865189,45.50673103355739],[14.432375534652104,45.51050077290087],[14.436979204447164,45.510980361998065],[14.43799487762972,45.51273637531412],[14.437318855619036,45.51337356569199],[14.438570750274332,45.51387143726554],[14.437853666006857,45.514485800509675],[14.434648355143,45.51394798730075],[14.429563456828363,45.51210576552394],[14.43010428064983,45.512640629567144],[14.429148899902025,45.51467676955659],[14.425970809468895,45.51534783875563],[14.422100057335145,45.51199548262523],[14.418801538178284,45.51225878794051],[14.422027876434809,45.51226470646167],[14.42460478751602,45.51531271610902]]]}},{"type":"Feature","properties":{"_zoneType":"SI_BUILT","name":"Pozidano zemljišče","authority":"MKGP","dataSource":"raba-3000"},"geometry":{"type":"Polygon","coordinates":[[[14.42734271391207,45.51404724525702],[14.427165220276382,45.514196960725634],[14.427572541819686,45.51418896154737],[14.42734271391207,45.51404724525702]]]}},{"type":"Feature","properties":{"_zoneType":"SI_BUILT","name":"Pozidano zemljišče","authority":"MKGP","dataSource":"raba-3000"},"geometry":{"type":"Polygon","coordinates":[[[14.43608105273028,45.52375417095533],[14.435993014736455,45.52351500432996],[14.43575069594656,45.52382979053112],[14.43608105273028,45.52375417095533]]]}},{"type":"Feature","properties":{"_zoneType":"SI_BUILT","name":"Pozidano zemljišče","authority":"MKGP","dataSource":"raba-3000"},"geometry":{"type":"Polygon","coordinates":[[[14.432846005046471,45.58138546566841],[14.431912952562262,45.581410627735806],[14.43248274087478,45.58165164894405],[14.432846005046471,45.58138546566841]]]}},{"type":"Feature","properties":{"_zoneType":"SI_BUILT","name":"Pozidano zemljišče","authority":"MKGP","dataSource":"raba-3000"},"geometry":{"type":"Polygon","coordinates":[[[14.421976010836714,45.55689740049474],[14.421581220609804,45.55673572624022],[14.421516643481409,45.55734026260682],[14.421976010836714,45.55689740049474]]]}},{"type":"Feature","properties":{"_zoneType":"SI_BUILT","name":"Pozidano zemljišče","authority":"MKGP","dataSource":"raba-3000"},"geometry":{"type":"Polygon","coordinates":[[[14.415644613576767,45.58225802793776],[14.416089968822368,45.58086539281704],[14.414961783628986,45.58212317992644],[14.415644613576767,45.58225802793776]]]}},{"type":"Feature","properties":{"_zoneType":"SI_BUILT","name":"Pozidano zemljišče","authority":"MKGP","dataSource":"raba-3000"},"geometry":{"type":"Polygon","coordinates":[[[14.414972249071608,45.52405894256164],[14.415682337440513,45.523981592044734],[14.414961919126112,45.523912356763795],[14.414972249071608,45.52405894256164]]]}},{"type":"Feature","properties":{"_zoneType":"SI_BUILT","name":"Pozidano zemljišče","authority":"MKGP","dataSource":"raba-3000"},"geometry":{"type":"Polygon","coordinates":[[[14.40422328171358,45.57584385510806],[14.409771358691234,45.57580515545824],[14.409831110121516,45.58000574106945],[14.412407856384377,45.58202277628052],[14.408771117332074,45.583605936931164],[14.412654054016132,45.582493208743315],[14.414140476422372,45.583742704467554],[14.410949501015212,45.58467891025553],[14.41052130223245,45.58639517027818],[14.406759506167871,45.58960093997598],[14.402686067088307,45.59052159106445],[14.400794413604189,45.59201098885308],[14.4,45.59209125537632],[14.4,45.59236721834914],[14.400859527909535,45.592298287709816],[14.402891047727472,45.590741593481646],[14.407127349018584,45.589751244854455],[14.410745846513558,45.58662920988511],[14.41128267825438,45.58537758231568],[14.414490977291203,45.583796505398105],[14.410189884725348,45.57996093506716],[14.410050120010704,45.57563760755842],[14.403022687077987,45.57489316529449],[14.403152510682435,45.573773360846914],[14.405521524796608,45.57368672210267],[14.404749804470523,45.572221277189236],[14.401527121493457,45.572064434756214],[14.4,45.57284157977996],[14.4,45.57416316393947],[14.400187955742881,45.574160164395465],[14.40422328171358,45.57584385510806]]]}},{"type":"Feature","properties":{"_zoneType":"SI_BUILT","name":"Pozidano zemljišče","authority":"MKGP","dataSource":"raba-3000"},"geometry":{"type":"Polygon","coordinates":[[[14.408562848626769,45.514977651322305],[14.40768952780559,45.51524345572855],[14.408178332561432,45.51532442719327],[14.408562848626769,45.514977651322305]]]}},{"type":"Feature","properties":{"_zoneType":"SI_BUILT","name":"Pozidano zemljišče","authority":"MKGP","dataSource":"raba-3000"},"geometry":{"type":"Polygon","coordinates":[[[14.40806306973648,45.50971962327919],[14.407171379094613,45.509173507672145],[14.40784964494798,45.50984082544518],[14.40806306973648,45.50971962327919]]]}},{"type":"Feature","properties":{"_zoneType":"SI_BUILT","name":"Pozidano zemljišče","authority":"MKGP","dataSource":"raba-3000"},"geometry":{"type":"Polygon","coordinates":[[[14.406982819831951,45.525732708626386],[14.406901591124083,45.52561967083084],[14.40598215897079,45.52567950127474],[14.406982819831951,45.525732708626386]]]}},{"type":"Feature","properties":{"_zoneType":"SI_BUILT","name":"Pozidano zemljišče","authority":"MKGP","dataSource":"raba-3000"},"geometry":{"type":"Polygon","coordinates":[[[14.40625213938756,45.56264664036894],[14.405334609380422,45.56223611369398],[14.404145349614621,45.56261345221228],[14.404565284391229,45.56329360876688],[14.40625213938756,45.56264664036894]]]}},{"type":"Feature","properties":{"_zoneType":"SI_BUILT","name":"Pozidano zemljišče","authority":"MKGP","dataSource":"raba-3000"},"geometry":{"type":"Polygon","coordinates":[[[14.40513320902349,45.555740770291024],[14.405414515765601,45.555824654152794],[14.405247931032317,45.555556817923005],[14.40513320902349,45.555740770291024]]]}},{"type":"Feature","properties":{"_zoneType":"SI_BUILT","name":"Pozidano zemljišče","authority":"MKGP","dataSource":"raba-3000"},"geometry":{"type":"Polygon","coordinates":[[[14.40121299563357,45.57712256350234],[14.400784970341268,45.57707489614715],[14.40102481265536,45.577316732488626],[14.40121299563357,45.57712256350234]]]}},{"type":"Feature","properties":{"_zoneType":"SI_BUILT","name":"Pozidano zemljišče","authority":"MKGP","dataSource":"raba-3000"},"geometry":{"type":"Polygon","coordinates":[[[14.402204215481843,45.57690439178467],[14.401980360029182,45.57678122958349],[14.401988561936616,45.57707024777225],[14.402204215481843,45.57690439178467]]]}},{"type":"Feature","properties":{"_zoneType":"SI_BUILT","name":"Pozidano zemljišče","authority":"MKGP","dataSource":"raba-3000"},"geometry":{"type":"Polygon","coordinates":[[[14.40256708248155,45.51516739342455],[14.401611305252674,45.51545701940544],[14.401146989057919,45.518124509567436],[14.402440215568008,45.51687836803912],[14.40256708248155,45.51516739342455]]]}},{"type":"Feature","properties":{"_zoneType":"SI_BUILT","name":"Pozidano zemljišče","authority":"MKGP","dataSource":"raba-3000"},"geometry":{"type":"Polygon","coordinates":[[[14.498585881153465,45.548629677349766],[14.496407200192664,45.54684884949282],[14.497707020386242,45.54834291417536],[14.498585881153465,45.548629677349766]]]}},{"type":"Feature","properties":{"_zoneType":"SI_BUILT","name":"Pozidano zemljišče","authority":"MKGP","dataSource":"raba-3000"},"geometry":{"type":"Polygon","coordinates":[[[14.497165080330408,45.56462022238926],[14.497174615227632,45.563653269332754],[14.49646602193804,45.56444224546371],[14.497165080330408,45.56462022238926]]]}}]}