{"type":"FeatureCollection","features":[{"type":"Feature","properties":{"_zoneType":"SI_BUILT","name":"Pozidano zemljišče","authority":"MKGP","dataSource":"raba-3000"},"geometry":{"type":"Polygon","coordinates":[[[13.639652817911413,45.800000000000004],[13.639823501038729,45.800000000000004],[13.64,45.79948769466901],[13.64,45.79922563992977],[13.639652817911413,45.800000000000004]]]}},{"type":"Feature","properties":{"_zoneType":"SI_BUILT","name":"Pozidano zemljišče","authority":"MKGP","dataSource":"raba-3000"},"geometry":{"type":"Polygon","coordinates":[[[13.63144792047515,45.800000000000004],[13.633514248928414,45.800000000000004],[13.632155600822182,45.7993017761331],[13.63144792047515,45.800000000000004]]]}},{"type":"Feature","properties":{"_zoneType":"SI_BUILT","name":"Pozidano zemljišče","authority":"MKGP","dataSource":"raba-3000"},"geometry":{"type":"Polygon","coordinates":[[[13.679168197016391,45.79413308155784],[13.68,45.79423098607923],[13.68,45.79417701182134],[13.679168197016391,45.79413308155784]]]}},{"type":"Feature","properties":{"_zoneType":"SI_BUILT","name":"Pozidano zemljišče","authority":"MKGP","dataSource":"raba-3000"},"geometry":{"type":"Polygon","coordinates":[[[13.64,45.79922563992977],[13.64,45.79948769466901],[13.64038985679043,45.798356097572785],[13.64,45.79922563992977]]]}},{"type":"Feature","properties":{"_zoneType":"SI_BUILT","name":"Pozidano zemljišče","authority":"MKGP","dataSource":"raba-3000"},"geometry":{"type":"Polygon","coordinates":[[[13.710712785036913,45.79668914441837],[13.712391017741586,45.795882865679786],[13.710573687648113,45.7961808424096],[13.710010194116116,45.79468222706834],[13.710650235029139,45.79132247928665],[13.713821533069744,45.788686389914794],[13.71059811628106,45.79084534800397],[13.709812963407433,45.79292780463555],[13.707708739158745,45.79229900451462],[13.706454987966787,45.78905556360511],[13.700193277746818,45.78391489199243],[13.6999448945339,45.781959311227716],[13.701769338626509,45.78147590333129],[13.700633911020248,45.78139245772207],[13.700623125597714,45.779155762429525],[13.699561609974115,45.78185230280163],[13.699794639656933,45.78384928949096],[13.70047614480477,45.784759992376955],[13.6996548014361,45.78600521404997],[13.701074779854128,45.78531824824285],[13.706282239449862,45.78933601049997],[13.707263477932695,45.79241029556088],[13.709959360768648,45.79363002982586],[13.709657243738327,45.79472180814619],[13.710192965272324,45.797172787139466],[13.702728615551658,45.79730295117602],[13.70236245969607,45.797867782520264],[13.699911311009615,45.797971665601445],[13.697543547197505,45.79907052215322],[13.693989819773703,45.797859776551434],[13.692400940852234,45.79625051258644],[13.689229565376058,45.79647898173183],[13.684793423472502,45.794430168350424],[13.68,45.79417701182134],[13.68,45.79423098607923],[13.684610541619856,45.79477365409019],[13.68886626306122,45.796662903949006],[13.692336807056504,45.796496334935945],[13.693733510408792,45.79801832135337],[13.697496096774952,45.7993250249424],[13.700137765404667,45.79817202366571],[13.710396156335843,45.79790989352602],[13.709855609346425,45.799460516127915],[13.710168138447267,45.800000000000004],[13.710897388228508,45.800000000000004],[13.710273618450147,45.799384726432244],[13.710712785036913,45.79668914441837]]]}},{"type":"Feature","properties":{"_zoneType":"SI_BUILT","name":"Pozidano zemljišče","authority":"MKGP","dataSource":"raba-3000"},"geometry":{"type":"Polygon","coordinates":[[[13.709434819331372,45.775726498388984],[13.708450510609714,45.77639384438469],[13.713950082909259,45.778285432027616],[13.709349740796464,45.7765934350703],[13.709434819331372,45.775726498388984]]]}},{"type":"Feature","properties":{"_zoneType":"SI_BUILT","name":"Pozidano zemljišče","authority":"MKGP","dataSource":"raba-3000"},"geometry":{"type":"Polygon","coordinates":[[[13.710103199084124,45.78380865808864],[13.712568363860465,45.78382557931673],[13.713911956199771,45.78455670597046],[13.71275316881609,45.78360415519544],[13.710103199084124,45.78380865808864]]]}},{"type":"Feature","properties":{"_zoneType":"SI_BUILT","name":"Pozidano zemljišče","authority":"MKGP","dataSource":"raba-3000"},"geometry":{"type":"Polygon","coordinates":[[[13.710896340609448,45.78643230648781],[13.71085296926804,45.78764762940548],[13.713867767119238,45.78667638931079],[13.713883752665577,45.78531959017676],[13.712100048819421,45.785608513878394],[13.710896340609448,45.78643230648781]],[[13.713585524121866,45.786046448969685],[13.71266729265999,45.78677929163681],[13.712334219348238,45.78579901952513],[13.713585524121866,45.786046448969685]]]}},{"type":"Feature","properties":{"_zoneType":"SI_BUILT","name":"Pozidano zemljišče","authority":"MKGP","dataSource":"raba-3000"},"geometry":{"type":"Polygon","coordinates":[[[13.713541400769609,45.79752923486071],[13.713615871870255,45.797624810365576],[13.713620097406315,45.79744120320964],[13.713541400769609,45.79752923486071]]]}},{"type":"Feature","properties":{"_zoneType":"SI_BUILT","name":"Pozidano zemljišče","authority":"MKGP","dataSource":"raba-3000"},"geometry":{"type":"Polygon","coordinates":[[[13.707471596143582,45.77598464899602],[13.707092378864896,45.77567578009689],[13.707235946340635,45.776045815125215],[13.707471596143582,45.77598464899602]]]}},{"type":"Feature","properties":{"_zoneType":"SI_BUILT","name":"Pozidano zemljišče","authority":"MKGP","dataSource":"raba-3000"},"geometry":{"type":"Polygon","coordinates":[[[13.698282190066184,45.787493087011626],[13.696771707375879,45.787090568503444],[13.694693478241488,45.78902547759599],[13.694116896994775,45.790336540959814],[13.695147004717764,45.789007450326174],[13.698282190066184,45.787493087011626]]]}},{"type":"Feature","properties":{"_zoneType":"SI_BUILT","name":"Pozidano zemljišče","authority":"MKGP","dataSource":"raba-3000"},"geometry":{"type":"Polygon","coordinates":[[[13.693832532966004,45.791581147017226],[13.693613812290373,45.791540151918056],[13.692896508555819,45.79224701556945],[13.693832532966004,45.791581147017226]]]}},{"type":"Feature","properties":{"_zoneType":"SI_BUILT","name":"Pozidano zemljišče","authority":"MKGP","dataSource":"raba-3000"},"geometry":{"type":"Polygon","coordinates":[[[13.674839300645518,45.796228583430214],[13.675228207935833,45.79623810616174],[13.674844065500148,45.79594994063515],[13.674839300645518,45.796228583430214]]]}},{"type":"Feature","properties":{"_zoneType":"SI_BUILT","name":"Pozidano zemljišče","authority":"MKGP","dataSource":"raba-3000"},"geometry":{"type":"Polygon","coordinates":[[[13.643958453401893,45.800000000000004],[13.644000558948976,45.800000000000004],[13.644332848355374,45.7993507622582],[13.643025931595966,45.79977887942102],[13.643958453401893,45.800000000000004]]]}},{"type":"Feature","properties":{"_zoneType":"SI_BUILT","name":"Pozidano zemljišče","authority":"MKGP","dataSource":"raba-3000"},"geometry":{"type":"Polygon","coordinates":[[[13.718784526612646,45.78159914284298],[13.718661995510267,45.77920346021653],[13.714059310256387,45.77834687507543],[13.71565860087929,45.77942490289294],[13.718398290453194,45.779415792966375],[13.718079888750518,45.781532666214304],[13.719332771447421,45.78220085536415],[13.71712890763028,45.7839668421971],[13.71649393487425,45.7818444139186],[13.715234476409062,45.78220609015753],[13.715416059158956,45.784160827607785],[13.713909439637524,45.7848645155963],[13.715816833741856,45.784393183051975],[13.716208877673232,45.785058070034864],[13.713899191425412,45.78531011231777],[13.713867767119336,45.786676389306486],[13.715115037106514,45.78681062466921],[13.713808160693647,45.789267706956636],[13.715690040259341,45.786734088647734],[13.72,45.78448892595992],[13.72,45.781399565059935],[13.718784526612646,45.78159914284298]]]}},{"type":"Feature","properties":{"_zoneType":"SI_BUILT","name":"Pozidano zemljišče","authority":"MKGP","dataSource":"raba-3000"},"geometry":{"type":"Polygon","coordinates":[[[13.719092344439874,45.79909692530222],[13.71843369554378,45.800000000000004],[13.719326725888306,45.800000000000004],[13.719948226212484,45.79942545245468],[13.72,45.7994121475331],[13.72,45.79901719539178],[13.719092344439874,45.79909692530222]]]}},{"type":"Feature","properties":{"_zoneType":"SI_BUILT","name":"Pozidano zemljišče","authority":"MKGP","dataSource":"raba-3000"},"geometry":{"type":"Polygon","coordinates":[[[13.716658934568308,45.79897528334569],[13.713941654820603,45.798494665184],[13.715583772143644,45.800000000000004],[13.716194965457332,45.800000000000004],[13.716065100259728,45.79995821876256],[13.716658934568308,45.79897528334569]]]}},{"type":"Feature","properties":{"_zoneType":"SI_BUILT","name":"Pozidano zemljišče","authority":"MKGP","dataSource":"raba-3000"},"geometry":{"type":"Polygon","coordinates":[[[13.756317928639621,45.77177077470687],[13.75539966002176,45.770627255102454],[13.75850641544269,45.76970752402552],[13.75565133768243,45.76938543412841],[13.756759181238012,45.76710690421378],[13.754788003150676,45.76870741641497],[13.752891650449058,45.76534763665895],[13.75332715433977,45.76348737263927],[13.75523349945028,45.762528221469445],[13.753105100645172,45.76296398471786],[13.753534436765872,45.76157415302017],[13.75174433156896,45.76100121583342],[13.753031359895788,45.76604843821285],[13.751708926783346,45.7669501096135],[13.751492854783445,45.768171173096626],[13.750182890620602,45.76823127170291],[13.751713773786213,45.76871510959274],[13.751376778619136,45.76954970383051],[13.749340279457156,45.7698310711373],[13.746295572417147,45.76731902100304],[13.748930865599101,45.77016503548591],[13.741418344384282,45.77251478619875],[13.740093610937452,45.77525555161234],[13.73538075635085,45.77508672396924],[13.734847988638796,45.77167513804803],[13.734374911857026,45.77590505108294],[13.72922075202086,45.77699657967072],[13.728244398394178,45.775837121365896],[13.728666271770335,45.7773761664751],[13.726589604399239,45.77806442834581],[13.725412961205654,45.77623553727322],[13.725736458597957,45.77812242049363],[13.724073146473092,45.77845356537543],[13.723264203723973,45.780441915990984],[13.72162419931906,45.78017332268826],[13.721875232979148,45.78109165635164],[13.72,45.781399565059935],[13.72,45.78448892595992],[13.721055382024128,45.783939151835675],[13.720615443332404,45.783344388373614],[13.722637995604915,45.78090545413904],[13.726910056240005,45.78105525656287],[13.726747895640067,45.78019704221212],[13.730476057575155,45.77961970679585],[13.731195894575235,45.78089652973719],[13.734791090014404,45.78296198868942],[13.730276274401012,45.78643068366979],[13.734491307642699,45.783664864322326],[13.741717683554501,45.78549740210476],[13.741183310754971,45.78709909148521],[13.747318910022353,45.79185662787674],[13.74686056279376,45.79339181343185],[13.747767630978275,45.79509234021551],[13.74696572961228,45.79637260903714],[13.748062725720452,45.795763923348375],[13.750605372535714,45.79784912922194],[13.747359922186314,45.797940327033714],[13.745565660355334,45.79933531889808],[13.744177358766956,45.79799578898854],[13.73396360839165,45.79540424576852],[13.732896806617532,45.79441126946472],[13.733364514826757,45.79348034913878],[13.731995218982474,45.793825065808086],[13.73228789649231,45.79283171035217],[13.731057837905329,45.79200730859062],[13.728807882759043,45.79187880585698],[13.730542203518286,45.79359331911579],[13.729872170418734,45.794505105710165],[13.724910432927278,45.796265259539126],[13.72097160201357,45.79893184832298],[13.72,45.79901719539178],[13.72,45.7994121475331],[13.724622083937193,45.798224356041025],[13.72391105459544,45.79731370825746],[13.725275552148002,45.79639224099836],[13.729938793518636,45.79479957853776],[13.73123984916701,45.79377739002736],[13.733831312118188,45.79565724522412],[13.738638145437193,45.796651663747525],[13.745461101435692,45.79970501686712],[13.744638375763511,45.800000000000004],[13.74753091337369,45.800000000000004],[13.74708554905122,45.799021473260105],[13.748083427163257,45.79840151333242],[13.75058175934914,45.79899721545409],[13.749146769153965,45.800000000000004],[13.755161639153263,45.800000000000004],[13.755356503322293,45.79987559496256],[13.75549663661592,45.800000000000004],[13.756465505064636,45.800000000000004],[13.756483315823912,45.799526180428806],[13.750989339871019,45.79924733874147],[13.751898803566238,45.79665267738666],[13.754577416345208,45.79471956287992],[13.753773971627773,45.79304287187548],[13.75483039125989,45.79140743803472],[13.753050340413775,45.792238161553776],[13.754045521442203,45.79464221734034],[13.75058956807043,45.79727159671476],[13.748278164648596,45.79544943201692],[13.747274086827067,45.793412225595674],[13.747626452234206,45.791686853554936],[13.742777194319833,45.78808590445502],[13.743386336280965,45.78657519310994],[13.742777366871001,45.785389368616514],[13.744403382011532,45.78047780981483],[13.750536715556036,45.77656800582324],[13.75332335764536,45.78076039953572],[13.752655225832944,45.78391769357386],[13.753368554918854,45.786164372139794],[13.752978418385595,45.78382831174584],[13.753785913560655,45.78158024151194],[13.76,45.783673028838756],[13.76,45.783652648554614],[13.756025545973358,45.782066133134904],[13.756761177698687,45.78089608159495],[13.753780979417188,45.78121457843111],[13.75350663798624,45.78016994927704],[13.75516292086061,45.77936279062552],[13.753296384549968,45.779681846133265],[13.751471920749271,45.77723968977104],[13.751294043988448,45.77560758425793],[13.753367435238337,45.774552370167875],[13.753565472884173,45.77371124527066],[13.755677529949086,45.77356071295494],[13.75619612402216,45.77204072181035],[13.76,45.7716309695366],[13.76,45.771264496593126],[13.756317928639621,45.77177077470687]],[[13.755198265381948,45.77276531828797],[13.751722829285496,45.773571162156784],[13.751165691957151,45.77272725869999],[13.753498285197544,45.77207591269285],[13.755198265381948,45.77276531828797]],[[13.752612507561773,45.766686209013784],[13.754333865829896,45.76806889353444],[13.753156887788814,45.76904882306931],[13.75180797270088,45.76741005519226],[13.752612507561773,45.766686209013784]],[[13.735424413728946,45.77541538520551],[13.737931624069015,45.775735978232284],[13.738354490667632,45.77716706473762],[13.74112118437712,45.77702130781775],[13.742245773576995,45.77546214153326],[13.74123023391932,45.77462279637098],[13.741634636866245,45.772731592817856],[13.749937157620904,45.770318701838335],[13.751296533948468,45.77129818048515],[13.748913464188213,45.7733651271493],[13.753131353200322,45.774243307376004],[13.743362905172573,45.780762891053016],[13.743046918888805,45.78347360707183],[13.742096705991134,45.78296618168365],[13.741841570278226,45.78082085843692],[13.742278283694905,45.78526331049639],[13.736349499980962,45.78368446307048],[13.731873793810337,45.78082427937278],[13.731209195957492,45.779180454747475],[13.724330448019186,45.78024647979404],[13.726225110836024,45.77830391969864],[13.734350193316727,45.77623956146953],[13.735424413728946,45.77541538520551]]]}},{"type":"Feature","properties":{"_zoneType":"SI_BUILT","name":"Pozidano zemljišče","authority":"MKGP","dataSource":"raba-3000"},"geometry":{"type":"Polygon","coordinates":[[[13.799518542768485,45.767883611435394],[13.791959306062838,45.7700175382458],[13.789050024294449,45.77177849715863],[13.786937918434502,45.770923577847796],[13.790568079031639,45.76843721746874],[13.791580346306771,45.76643881183245],[13.790045865542908,45.767248436359175],[13.789676132888832,45.76885560201269],[13.78633735185865,45.770882835922656],[13.78435660480157,45.76957135936745],[13.782501586330937,45.7699898291425],[13.786521304491298,45.768252760724025],[13.786016198658615,45.767459208195454],[13.783033823137218,45.7690426718169],[13.781262459347728,45.76714364965619],[13.779384244520903,45.767360388132374],[13.778420538735485,45.766542175797504],[13.777719741538252,45.767130557104814],[13.780898118220883,45.76789476116087],[13.78228043222111,45.7696813002965],[13.77879629469541,45.77026819822357],[13.77836367011133,45.76924201007381],[13.777594413116669,45.77005836076655],[13.768971220558932,45.770030970086424],[13.76,45.771264496593126],[13.76,45.7716309695366],[13.76137050881603,45.77148333877607],[13.762476843101393,45.77243108446958],[13.763208719342026,45.77108392886359],[13.773994209440367,45.770094422938406],[13.777405961343803,45.77276092295232],[13.772141781738085,45.77447126420246],[13.769709627991489,45.77606102701571],[13.765572118150855,45.776376466274044],[13.769872428359376,45.77630858757546],[13.773427735988394,45.774440127370205],[13.773884279094917,45.777973875997425],[13.774405986629855,45.77393291423867],[13.777248130865571,45.7731255000837],[13.779113127152645,45.77411991940434],[13.777991803517997,45.777132143616384],[13.780071740856968,45.77401501485316],[13.782475385612662,45.77547580071192],[13.77971317258798,45.7761420668482],[13.781513899247482,45.77657356121998],[13.781952135165533,45.7778602189726],[13.781236200476103,45.78077731221415],[13.78196230894538,45.78470422076071],[13.777866373411921,45.78776569393516],[13.775308795386433,45.787587976085376],[13.775944217630395,45.788634348222345],[13.769091255885739,45.79381690538124],[13.76539386720262,45.800000000000004],[13.766187046353592,45.800000000000004],[13.769451000842189,45.79393918838571],[13.773683741732317,45.79108907858884],[13.77731234005387,45.79346001300308],[13.774232751236653,45.79054375211618],[13.782147647516059,45.78579267501899],[13.784743681276215,45.7937249844252],[13.781505621395068,45.79871723300907],[13.781568667333064,45.800000000000004],[13.782045076275258,45.800000000000004],[13.781828882211764,45.79912961612861],[13.785171810273182,45.79316107440801],[13.782323196359552,45.78489579783506],[13.792014181966048,45.781588045793264],[13.795091589061208,45.7838684352327],[13.795423739170966,45.78618670766109],[13.79300501108312,45.7858163412463],[13.792078026702097,45.787302675431256],[13.793106943658744,45.78751552734768],[13.79265396609116,45.7882727297528],[13.788485394915355,45.787716105157585],[13.791715461902477,45.78831092075604],[13.791734140344891,45.7892847278596],[13.794862965517925,45.78750122916346],[13.796610630095206,45.78816581750909],[13.8,45.792322044561985],[13.8,45.7920837827151],[13.796528749318,45.787634307717944],[13.8,45.78621530425474],[13.8,45.78597630550199],[13.79828903690342,45.78636613082829],[13.797600940565276,45.78517366700253],[13.796288368248332,45.78606396891236],[13.795518464112707,45.78374459972162],[13.792617636906908,45.781278072792944],[13.796706133479658,45.77906681253429],[13.79677251845746,45.77743396772063],[13.79872424210535,45.77552955521492],[13.8,45.77633633008207],[13.8,45.77602712144266],[13.799288607458626,45.775119188058916],[13.799597444408441,45.772169339108764],[13.8,45.77199800599472],[13.8,45.77112134236563],[13.798126594583023,45.771821293318204],[13.799368083051881,45.774246635104014],[13.796472202530971,45.777266509583136],[13.796543255861332,45.77876662110121],[13.793763243197422,45.78029963371405],[13.790555049961263,45.77797823714832],[13.789139840897437,45.77562170025477],[13.786463590022345,45.7750929636728],[13.786502735931807,45.77426366640639],[13.789932246339164,45.77344961902551],[13.786361356142248,45.771869639921874],[13.789054810746247,45.77205210131377],[13.7921080896699,45.771620450986894],[13.79356552766924,45.772576776979676],[13.791213075682123,45.77322480213659],[13.792529304834089,45.77326388669655],[13.794175407385106,45.77261928837018],[13.794294106240699,45.771713842847596],[13.791204651320253,45.77096885254278],[13.796071126481353,45.768881357698056],[13.8,45.76875279796999],[13.8,45.76718714046368],[13.799366320893817,45.76692881392587],[13.799518542768485,45.767883611435394]],[[13.78882372803145,45.77603040869621],[13.7902947531865,45.77813359490792],[13.792498385645553,45.780010813186415],[13.790510943616324,45.782021828850375],[13.782690316547335,45.784294570385796],[13.782450379203013,45.78149903958062],[13.781625678206957,45.78104682246655],[13.782933682898593,45.77555316254267],[13.78882372803145,45.77603040869621]],[[13.78628418008798,45.77248817184391],[13.788044639497326,45.77359361300923],[13.78542099475387,45.773723924611566],[13.785192647670934,45.77293720459195],[13.78628418008798,45.77248817184391]],[[13.78437332679218,45.77369675854273],[13.783924049709398,45.7740711088727],[13.782676803493269,45.773699902125074],[13.783354016438576,45.772937622341736],[13.78437332679218,45.77369675854273]],[[13.780807033601896,45.77160667147716],[13.779911727502899,45.77255937087269],[13.777992419892998,45.77252138531347],[13.774900340345873,45.77047556402755],[13.779810134290942,45.77055887020901],[13.780807033601896,45.77160667147716]]]}},{"type":"Feature","properties":{"_zoneType":"SI_BUILT","name":"Pozidano zemljišče","authority":"MKGP","dataSource":"raba-3000"},"geometry":{"type":"Polygon","coordinates":[[[13.760326622664712,45.783783029203256],[13.76,45.783652648554614],[13.76,45.783673028838756],[13.760326622664712,45.783783029203256]]]}},{"type":"Feature","properties":{"_zoneType":"SI_BUILT","name":"Pozidano zemljišče","authority":"MKGP","dataSource":"raba-3000"},"geometry":{"type":"Polygon","coordinates":[[[13.8,45.795605138793285],[13.792991015509292,45.800000000000004],[13.794484640457986,45.800000000000004],[13.8,45.7966921742301],[13.8,45.795605138793285]]]}},{"type":"Feature","properties":{"_zoneType":"SI_BUILT","name":"Pozidano zemljišče","authority":"MKGP","dataSource":"raba-3000"},"geometry":{"type":"Polygon","coordinates":[[[13.8,45.770507582821956],[13.8,45.77024512444353],[13.799433683447388,45.770354633913584],[13.8,45.770507582821956]]]}},{"type":"Feature","properties":{"_zoneType":"SI_BUILT","name":"Pozidano zemljišče","authority":"MKGP","dataSource":"raba-3000"},"geometry":{"type":"Polygon","coordinates":[[[13.77848182503638,45.79695982123179],[13.777025702529556,45.800000000000004],[13.77781742015824,45.800000000000004],[13.778190830333246,45.79991382821231],[13.77848182503638,45.79695982123179]]]}},{"type":"Feature","properties":{"_zoneType":"SI_BUILT","name":"Pozidano zemljišče","authority":"MKGP","dataSource":"raba-3000"},"geometry":{"type":"Polygon","coordinates":[[[13.779601044653331,45.76890110946955],[13.779360411258128,45.76879957006242],[13.779464282740818,45.76906338184719],[13.779601044653331,45.76890110946955]]]}},{"type":"Feature","properties":{"_zoneType":"SI_BUILT","name":"Pozidano zemljišče","authority":"MKGP","dataSource":"raba-3000"},"geometry":{"type":"Polygon","coordinates":[[[13.78727689108338,45.768973470212714],[13.787315325142016,45.769087893489115],[13.787618853274186,45.76892397727846],[13.78727689108338,45.768973470212714]]]}},{"type":"Feature","properties":{"_zoneType":"SI_BUILT","name":"Pozidano zemljišče","authority":"MKGP","dataSource":"raba-3000"},"geometry":{"type":"Polygon","coordinates":[[[13.8,45.77826133381424],[13.799830414197698,45.77834548577628],[13.8,45.77835613452778],[13.8,45.77826133381424]]]}},{"type":"Feature","properties":{"_zoneType":"SI_BUILT","name":"Pozidano zemljišče","authority":"MKGP","dataSource":"raba-3000"},"geometry":{"type":"Polygon","coordinates":[[[13.797980018814533,45.76441425357344],[13.797776176759328,45.764373592220714],[13.797139638153595,45.764660417842684],[13.797980018814533,45.76441425357344]]]}},{"type":"Feature","properties":{"_zoneType":"SI_BUILT","name":"Pozidano zemljišče","authority":"MKGP","dataSource":"raba-3000"},"geometry":{"type":"Polygon","coordinates":[[[13.799933152015765,45.76388896591115],[13.79912189911871,45.7638955338803],[13.799071095003818,45.76429418865481],[13.799933152015765,45.76388896591115]]]}},{"type":"Feature","properties":{"_zoneType":"SI_BUILT","name":"Pozidano zemljišče","authority":"MKGP","dataSource":"raba-3000"},"geometry":{"type":"Polygon","coordinates":[[[13.79959058236761,45.76490232088142],[13.799551815224891,45.76471361728534],[13.799282785929549,45.76493959600297],[13.79959058236761,45.76490232088142]]]}},{"type":"Feature","properties":{"_zoneType":"SI_BUILT","name":"Pozidano zemljišče","authority":"MKGP","dataSource":"raba-3000"},"geometry":{"type":"Polygon","coordinates":[[[13.791940577757233,45.784076539730464],[13.791922364882804,45.7842308667831],[13.792265054333994,45.78409140231779],[13.791940577757233,45.784076539730464]]]}},{"type":"Feature","properties":{"_zoneType":"SI_BUILT","name":"Pozidano zemljišče","authority":"MKGP","dataSource":"raba-3000"},"geometry":{"type":"Polygon","coordinates":[[[13.791459223586525,45.79182189411363],[13.791127524770374,45.79186115270056],[13.790761910053964,45.793191778366456],[13.791459223586525,45.79182189411363]]]}},{"type":"Feature","properties":{"_zoneType":"SI_BUILT","name":"Pozidano zemljišče","authority":"MKGP","dataSource":"raba-3000"},"geometry":{"type":"Polygon","coordinates":[[[13.787010622753089,45.77880538625103],[13.78697642758631,45.778942994701],[13.788079540816865,45.77981649516151],[13.787010622753089,45.77880538625103]]]}},{"type":"Feature","properties":{"_zoneType":"SI_BUILT","name":"Pozidano zemljišče","authority":"MKGP","dataSource":"raba-3000"},"geometry":{"type":"Polygon","coordinates":[[[13.745096477474807,45.782865298809384],[13.745023103659351,45.78265554853746],[13.744818433688758,45.78291452514141],[13.745096477474807,45.782865298809384]]]}},{"type":"Feature","properties":{"_zoneType":"SI_BUILT","name":"Pozidano zemljišče","authority":"MKGP","dataSource":"raba-3000"},"geometry":{"type":"Polygon","coordinates":[[[13.780748687050217,45.77781683928536],[13.780979589511164,45.77792838390358],[13.780884340166192,45.77766805637831],[13.780748687050217,45.77781683928536]]]}},{"type":"Feature","properties":{"_zoneType":"SI_BUILT","name":"Pozidano zemljišče","authority":"MKGP","dataSource":"raba-3000"},"geometry":{"type":"Polygon","coordinates":[[[13.754417538466464,45.776451710874206],[13.753311604592465,45.77601578148852],[13.752758298865155,45.77552240001173],[13.753313247555347,45.776306884536105],[13.754417538466464,45.776451710874206]]]}},{"type":"Feature","properties":{"_zoneType":"SI_BUILT","name":"Pozidano zemljišče","authority":"MKGP","dataSource":"raba-3000"},"geometry":{"type":"Polygon","coordinates":[[[13.779334327450341,45.7806325670795],[13.778818341354516,45.780538264060866],[13.779218829521813,45.780755550813694],[13.779334327450341,45.7806325670795]]]}},{"type":"Feature","properties":{"_zoneType":"SI_BUILT","name":"Pozidano zemljišče","authority":"MKGP","dataSource":"raba-3000"},"geometry":{"type":"Polygon","coordinates":[[[13.77895000917114,45.77941587485895],[13.778806279065696,45.779279054097685],[13.778692180096115,45.77957171837059],[13.77895000917114,45.77941587485895]]]}},{"type":"Feature","properties":{"_zoneType":"SI_BUILT","name":"Pozidano zemljišče","authority":"MKGP","dataSource":"raba-3000"},"geometry":{"type":"Polygon","coordinates":[[[13.776520833453432,45.78497801270063],[13.776760521378291,45.78505593356357],[13.776867273724832,45.784631647799884],[13.776520833453432,45.78497801270063]]]}},{"type":"Feature","properties":{"_zoneType":"SI_BUILT","name":"Pozidano zemljišče","authority":"MKGP","dataSource":"raba-3000"},"geometry":{"type":"Polygon","coordinates":[[[13.776509614789244,45.774761693755174],[13.776504395851594,45.77452953224349],[13.776052394488724,45.77470477275914],[13.776509614789244,45.774761693755174]]]}},{"type":"Feature","properties":{"_zoneType":"SI_BUILT","name":"Pozidano zemljišče","authority":"MKGP","dataSource":"raba-3000"},"geometry":{"type":"Polygon","coordinates":[[[13.773805565463324,45.76529627085789],[13.773891359839805,45.765865863380675],[13.774215720506172,45.76590979888742],[13.773805565463324,45.76529627085789]]]}},{"type":"Feature","properties":{"_zoneType":"SI_BUILT","name":"Pozidano zemljišče","authority":"MKGP","dataSource":"raba-3000"},"geometry":{"type":"Polygon","coordinates":[[[13.768924063909687,45.7592589419211],[13.769189096123025,45.75927928713169],[13.769043328543757,45.7588217150181],[13.768924063909687,45.7592589419211]]]}},{"type":"Feature","properties":{"_zoneType":"SI_BUILT","name":"Pozidano zemljišče","authority":"MKGP","dataSource":"raba-3000"},"geometry":{"type":"Polygon","coordinates":[[[13.76914442618208,45.76603625249446],[13.768797651113486,45.76578414390943],[13.768864385653313,45.766089943950675],[13.76914442618208,45.76603625249446]]]}},{"type":"Feature","properties":{"_zoneType":"SI_BUILT","name":"Pozidano zemljišče","authority":"MKGP","dataSource":"raba-3000"},"geometry":{"type":"Polygon","coordinates":[[[13.766176219154692,45.79460412842835],[13.764270074451122,45.794133789400476],[13.763289457525001,45.79343690863834],[13.76403414466029,45.79438125104922],[13.766176219154692,45.79460412842835]]]}},{"type":"Feature","properties":{"_zoneType":"SI_BUILT","name":"Pozidano zemljišče","authority":"MKGP","dataSource":"raba-3000"},"geometry":{"type":"Polygon","coordinates":[[[13.758358303871804,45.78019108261816],[13.75849713051198,45.780335827093026],[13.76,45.78010475321463],[13.76,45.78005924456065],[13.758358303871804,45.78019108261816]]]}},{"type":"Feature","properties":{"_zoneType":"SI_BUILT","name":"Pozidano zemljišče","authority":"MKGP","dataSource":"raba-3000"},"geometry":{"type":"Polygon","coordinates":[[[13.76,45.78005924456065],[13.76,45.78010475321463],[13.760619594313965,45.780009487416564],[13.76,45.78005924456065]]]}},{"type":"Feature","properties":{"_zoneType":"SI_BUILT","name":"Pozidano zemljišče","authority":"MKGP","dataSource":"raba-3000"},"geometry":{"type":"Polygon","coordinates":[[[13.757225412224685,45.79803125703715],[13.755541656492298,45.79876334448753],[13.756890781829286,45.7984234912599],[13.757225412224685,45.79803125703715]]]}},{"type":"Feature","properties":{"_zoneType":"SI_BUILT","name":"Pozidano zemljišče","authority":"MKGP","dataSource":"raba-3000"},"geometry":{"type":"Polygon","coordinates":[[[13.757147520794256,45.78524135976568],[13.756680551503214,45.78480716436338],[13.756894142479734,45.785310922638175],[13.757147520794256,45.78524135976568]]]}},{"type":"Feature","properties":{"_zoneType":"SI_BUILT","name":"Pozidano zemljišče","authority":"MKGP","dataSource":"raba-3000"},"geometry":{"type":"Polygon","coordinates":[[[13.75634151229866,45.79121693344736],[13.756257541415726,45.79105725161986],[13.75604578140326,45.79127616871514],[13.75634151229866,45.79121693344736]]]}},{"type":"Feature","properties":{"_zoneType":"SI_BUILT","name":"Pozidano zemljišče","authority":"MKGP","dataSource":"raba-3000"},"geometry":{"type":"Polygon","coordinates":[[[13.754077996056472,45.78982452760023],[13.754244706944158,45.78927835528758],[13.753915394065649,45.78973513711403],[13.754077996056472,45.78982452760023]]]}},{"type":"Feature","properties":{"_zoneType":"SI_BUILT","name":"Pozidano zemljišče","authority":"MKGP","dataSource":"raba-3000"},"geometry":{"type":"Polygon","coordinates":[[[13.725374135803662,45.798745316379694],[13.725337442203811,45.79851886612549],[13.725054087698362,45.798771433215336],[13.725374135803662,45.798745316379694]]]}},{"type":"Feature","properties":{"_zoneType":"SI_BUILT","name":"Pozidano zemljišče","authority":"MKGP","dataSource":"raba-3000"},"geometry":{"type":"Polygon","coordinates":[[[13.745680204859411,45.79847376447262],[13.745791501345273,45.798578561443826],[13.745980185925779,45.79833311587228],[13.745680204859411,45.79847376447262]]]}},{"type":"Feature","properties":{"_zoneType":"SI_BUILT","name":"Pozidano zemljišče","authority":"MKGP","dataSource":"raba-3000"},"geometry":{"type":"Polygon","coordinates":[[[13.748716415505742,45.77161494728554],[13.748618289535322,45.7714387223752],[13.74843171551836,45.771684858851415],[13.748716415505742,45.77161494728554]]]}},{"type":"Feature","properties":{"_zoneType":"SI_BUILT","name":"Pozidano zemljišče","authority":"MKGP","dataSource":"raba-3000"},"geometry":{"type":"Polygon","coordinates":[[[13.748868132665805,45.75937731664006],[13.748025500764417,45.75865460078477],[13.748553743646664,45.759464187566145],[13.748868132665805,45.75937731664006]]]}},{"type":"Feature","properties":{"_zoneType":"SI_BUILT","name":"Pozidano zemljišče","authority":"MKGP","dataSource":"raba-3000"},"geometry":{"type":"Polygon","coordinates":[[[13.743187915219632,45.79972642845277],[13.743225309527427,45.79991318188944],[13.743561744880843,45.79969999951585],[13.743187915219632,45.79972642845277]]]}},{"type":"Feature","properties":{"_zoneType":"SI_BUILT","name":"Pozidano zemljišče","authority":"MKGP","dataSource":"raba-3000"},"geometry":{"type":"Polygon","coordinates":[[[13.740078721565528,45.7737697620202],[13.739931332109816,45.77355740316892],[13.739782638741822,45.77384003480521],[13.740078721565528,45.7737697620202]]]}},{"type":"Feature","properties":{"_zoneType":"SI_BUILT","name":"Pozidano zemljišče","authority":"MKGP","dataSource":"raba-3000"},"geometry":{"type":"Polygon","coordinates":[[[13.734465761370647,45.79321143674297],[13.7346822739508,45.79339234650599],[13.734601925130935,45.79311298326447],[13.734465761370647,45.79321143674297]]]}},{"type":"Feature","properties":{"_zoneType":"SI_BUILT","name":"Pozidano zemljišče","authority":"MKGP","dataSource":"raba-3000"},"geometry":{"type":"Polygon","coordinates":[[[13.733777736292312,45.771692786929485],[13.732920390233705,45.77095954415488],[13.733556335695903,45.77176682337414],[13.733777736292312,45.771692786929485]]]}},{"type":"Feature","properties":{"_zoneType":"SI_BUILT","name":"Pozidano zemljišče","authority":"MKGP","dataSource":"raba-3000"},"geometry":{"type":"Polygon","coordinates":[[[13.731462855646589,45.79046962074779],[13.731308224439402,45.79027717659169],[13.731190986542142,45.79057432644579],[13.731462855646589,45.79046962074779]]]}},{"type":"Feature","properties":{"_zoneType":"SI_BUILT","name":"Pozidano zemljišče","authority":"MKGP","dataSource":"raba-3000"},"geometry":{"type":"Polygon","coordinates":[[[13.727593620406946,45.79227064537581],[13.727581847710141,45.79206742128204],[13.727264430172848,45.792274751978496],[13.727593620406946,45.79227064537581]]]}},{"type":"Feature","properties":{"_zoneType":"SI_BUILT","name":"Pozidano zemljišče","authority":"MKGP","dataSource":"raba-3000"},"geometry":{"type":"Polygon","coordinates":[[[13.727441228719954,45.788236215360904],[13.72732172613221,45.78948401279688],[13.726585078527993,45.78987358358972],[13.727604296226712,45.789657749592976],[13.727441228719954,45.788236215360904]]]}},{"type":"Feature","properties":{"_zoneType":"SI_BUILT","name":"Pozidano zemljišče","authority":"MKGP","dataSource":"raba-3000"},"geometry":{"type":"Polygon","coordinates":[[[13.723027559642821,45.785333756077584],[13.72251320650281,45.784950391757306],[13.722539144320944,45.78558467767865],[13.723027559642821,45.785333756077584]]]}},{"type":"Feature","properties":{"_zoneType":"SI_BUILT","name":"Pozidano zemljišče","authority":"MKGP","dataSource":"raba-3000"},"geometry":{"type":"Polygon","coordinates":[[[13.722566839940104,45.778551518352906],[13.721388005519465,45.7779138962295],[13.720801607909983,45.77826078427618],[13.722004507777841,45.77919300067507],[13.722566839940104,45.778551518352906]]]}},{"type":"Feature","properties":{"_zoneType":"SI_BUILT","name":"Pozidano zemljišče","authority":"MKGP","dataSource":"raba-3000"},"geometry":{"type":"Polygon","coordinates":[[[13.718889490562624,45.78824819870443],[13.718970161151127,45.788413464729736],[13.71921191490291,45.788170872908935],[13.718889490562624,45.78824819870443]]]}},{"type":"Feature","properties":{"_zoneType":"SI_BUILT","name":"Pozidano zemljišče","authority":"MKGP","dataSource":"raba-3000"},"geometry":{"type":"Polygon","coordinates":[[[13.713933859060509,45.79749610104644],[13.713620097406375,45.79744120320699],[13.713866115075147,45.79761033945174],[13.713933859060509,45.79749610104644]]]}}]}