{"type":"FeatureCollection","features":[{"type":"Feature","properties":{"_zoneType":"SI_BUILT","name":"Pozidano zemljišče","authority":"MKGP","dataSource":"raba-3000"},"geometry":{"type":"Polygon","coordinates":[[[14.215264623548105,46.427469921692065],[14.215087074895301,46.42840438681166],[14.217304814326669,46.42945867180998],[14.217385513385482,46.430484702768034],[14.215927213369493,46.43096992797015],[14.21869882126941,46.43009263100912],[14.215072660539755,46.42696225876231],[14.214713233195258,46.425534680762034],[14.21328693173789,46.425736016078986],[14.214088878517348,46.427592316371786],[14.215264623548105,46.427469921692065]]]}},{"type":"Feature","properties":{"_zoneType":"SI_BUILT","name":"Pozidano zemljišče","authority":"MKGP","dataSource":"raba-3000"},"geometry":{"type":"Polygon","coordinates":[[[14.218443137815274,46.409225611168345],[14.216533782946456,46.4081313954284],[14.216746861343909,46.40907555503015],[14.214575917466751,46.40908503060399],[14.216149568135048,46.40968489197555],[14.218443137815274,46.409225611168345]]]}},{"type":"Feature","properties":{"_zoneType":"SI_BUILT","name":"Pozidano zemljišče","authority":"MKGP","dataSource":"raba-3000"},"geometry":{"type":"Polygon","coordinates":[[[14.215887558625209,46.40706902418934],[14.215816528448292,46.40728314963374],[14.216211535746535,46.40711903989081],[14.215887558625209,46.40706902418934]]]}},{"type":"Feature","properties":{"_zoneType":"SI_BUILT","name":"Pozidano zemljišče","authority":"MKGP","dataSource":"raba-3000"},"geometry":{"type":"Polygon","coordinates":[[[14.212674552545083,46.41773075409432],[14.212212995940856,46.41755180537374],[14.212151062841427,46.418265106572456],[14.212674552545083,46.41773075409432]]]}},{"type":"Feature","properties":{"_zoneType":"SI_BUILT","name":"Pozidano zemljišče","authority":"MKGP","dataSource":"raba-3000"},"geometry":{"type":"Polygon","coordinates":[[[14.211215076796726,46.41014326029312],[14.209455165179136,46.410057097835434],[14.207499511325503,46.4083043276418],[14.209150384166167,46.41029624569452],[14.211215076796726,46.41014326029312]]]}},{"type":"Feature","properties":{"_zoneType":"SI_BUILT","name":"Pozidano zemljišče","authority":"MKGP","dataSource":"raba-3000"},"geometry":{"type":"Polygon","coordinates":[[[14.200711485024142,46.422514449243984],[14.200000000000001,46.422185232881624],[14.200000000000001,46.42363619731863],[14.20041526465418,46.42373882239846],[14.200711485024142,46.422514449243984]]]}},{"type":"Feature","properties":{"_zoneType":"SI_BUILT","name":"Pozidano zemljišče","authority":"MKGP","dataSource":"raba-3000"},"geometry":{"type":"Polygon","coordinates":[[[14.399335098074111,46.43005125036809],[14.398635688869339,46.431002149971164],[14.4,46.43187867912646],[14.4,46.430522572879966],[14.397934307533307,46.427610980843596],[14.39925870130196,46.42543038382345],[14.397488512967799,46.427662455691255],[14.399335098074111,46.43005125036809]]]}},{"type":"Feature","properties":{"_zoneType":"SI_BUILT","name":"Pozidano zemljišče","authority":"MKGP","dataSource":"raba-3000"},"geometry":{"type":"Polygon","coordinates":[[[14.345441458442833,46.400000000000006],[14.344543163330256,46.400000000000006],[14.344016260466663,46.40104410079029],[14.345441458442833,46.400000000000006]]]}},{"type":"Feature","properties":{"_zoneType":"SI_BUILT","name":"Pozidano zemljišče","authority":"MKGP","dataSource":"raba-3000"},"geometry":{"type":"Polygon","coordinates":[[[14.352608832259515,46.40014409433072],[14.355250427805533,46.40196584443691],[14.36,46.403310024397214],[14.36,46.402680053023374],[14.354086461156301,46.400326581848766],[14.352362286272498,46.400000000000006],[14.349540863219108,46.400000000000006],[14.350301315985247,46.40030830949589],[14.352608832259515,46.40014409433072]]]}},{"type":"Feature","properties":{"_zoneType":"SI_BUILT","name":"Pozidano zemljišče","authority":"MKGP","dataSource":"raba-3000"},"geometry":{"type":"Polygon","coordinates":[[[14.362265997196355,46.40395132594959],[14.365171193662812,46.40322165444521],[14.369310311981277,46.40576949303034],[14.369276231531137,46.40460524369165],[14.37056927851175,46.40368565848508],[14.37491680294014,46.4060505947584],[14.37726590900137,46.406769233588754],[14.374765995878374,46.407051564367855],[14.375967972644906,46.40758861128772],[14.378026705169075,46.40688806474067],[14.381488266946217,46.40780095575882],[14.385857132890457,46.40729343912422],[14.386779156879848,46.40827096272836],[14.38922139567958,46.40730918575391],[14.392371759966602,46.40895759740571],[14.392677193046259,46.407589105910226],[14.396130344050018,46.407959683494205],[14.393593141078115,46.40705981319346],[14.39471450848163,46.40590063565934],[14.392199174861195,46.40727570852589],[14.387394564298436,46.40732957351634],[14.385740171013154,46.406956845628414],[14.386275941477777,46.406018355110966],[14.385387061232798,46.40556766631073],[14.38670234613578,46.40384394514398],[14.388287952372078,46.4049739900413],[14.392414576139297,46.404773915363066],[14.392102478701817,46.402220671077735],[14.39021525367506,46.400000000000006],[14.390011523265317,46.400000000000006],[14.391923305257706,46.40273986053474],[14.390091096100646,46.40377652779895],[14.390697298548611,46.40456450724192],[14.388478676957046,46.40464589785304],[14.386351490171306,46.403483392111966],[14.38428610734309,46.40589849698067],[14.384739905494046,46.40733550258336],[14.381562725478526,46.407541104158],[14.375123817906571,46.405840390566595],[14.370729109036015,46.40342231906649],[14.367824725431907,46.40429017510851],[14.364337875075663,46.402588625083176],[14.362205941527225,46.40355797400004],[14.36,46.402680053023374],[14.36,46.403310024397214],[14.362265997196355,46.40395132594959]]]}},{"type":"Feature","properties":{"_zoneType":"SI_BUILT","name":"Pozidano zemljišče","authority":"MKGP","dataSource":"raba-3000"},"geometry":{"type":"Polygon","coordinates":[[[14.322673768883336,46.41873232857894],[14.325000395841855,46.41784805373285],[14.331971444184328,46.42466353318751],[14.334485939794627,46.42426514894708],[14.334690452451683,46.425194278295024],[14.337429256697671,46.42523748136198],[14.3398507202723,46.426461724316454],[14.349085020311081,46.42368806257083],[14.349217708509762,46.4248415790478],[14.346514012240188,46.42704190871789],[14.34627923189389,46.428235744726386],[14.351376676446986,46.42902188426478],[14.352437838266919,46.43021898936711],[14.352401143382732,46.429362977232664],[14.355835392079499,46.42944945662948],[14.357408903284243,46.42888733373149],[14.359176264890705,46.43105174202446],[14.36,46.43088511109038],[14.36,46.43001021013492],[14.358827664082295,46.43007016995747],[14.357632632122664,46.42845782441475],[14.35768793788459,46.42596022549242],[14.359152730947526,46.4261297347822],[14.359289016525288,46.42748883713322],[14.36,46.42691522954863],[14.36,46.42541423137525],[14.358884868884989,46.42531669615189],[14.359405060436952,46.424270079836845],[14.36,46.42415352899563],[14.36,46.42233452326403],[14.359736626973215,46.42253246800271],[14.357825132052144,46.421609840952364],[14.355714360971714,46.42186104400163],[14.353706235680475,46.419353503501924],[14.355752188623512,46.422877369007445],[14.357403896650808,46.42192895067126],[14.358515322475826,46.422344723299254],[14.358340933215437,46.42442037462846],[14.352584183763772,46.42341735640055],[14.350686368767867,46.42138075969262],[14.344460085790281,46.42210604164354],[14.344913875962911,46.422874154497435],[14.350393252466136,46.42164665082124],[14.352417928056742,46.42361956661569],[14.357273583078475,46.42437894307649],[14.357072248464531,46.42866268268614],[14.354171434157886,46.42930569672368],[14.351260349370474,46.42788139793035],[14.351600080624872,46.426496060443085],[14.35071954791184,46.42718085058351],[14.3512196343255,46.42869723275964],[14.346669318009498,46.428132733056614],[14.349553121047492,46.42486868716675],[14.348977062915626,46.423390256503076],[14.339873319154187,46.426191317498485],[14.336527568483845,46.4240824938933],[14.33218475593345,46.42440292053696],[14.324859307074897,46.41723069652427],[14.320673868300746,46.41528233354893],[14.323143235470976,46.41724055464681],[14.322673768883336,46.41873232857894]],[[14.335627974713287,46.42474130467272],[14.336084362018992,46.424385507438096],[14.336133969412177,46.42508001722849],[14.335627974713287,46.42474130467272]]]}},{"type":"Feature","properties":{"_zoneType":"SI_BUILT","name":"Pozidano zemljišče","authority":"MKGP","dataSource":"raba-3000"},"geometry":{"type":"Polygon","coordinates":[[[14.365788624015623,46.42971414749317],[14.36,46.43001021013492],[14.36,46.43088511109038],[14.365788624015623,46.42971414749317]]]}},{"type":"Feature","properties":{"_zoneType":"SI_BUILT","name":"Pozidano zemljišče","authority":"MKGP","dataSource":"raba-3000"},"geometry":{"type":"Polygon","coordinates":[[[14.360347403586225,46.426634951118736],[14.365907571559866,46.427518310640295],[14.366740736993867,46.42674247734366],[14.37015686293539,46.4276980208252],[14.373190573885635,46.431524516370004],[14.37619514735518,46.430646325289025],[14.378452870847012,46.4284829885078],[14.373281086945054,46.43126063142889],[14.370460365894365,46.427522101563945],[14.366667932474934,46.426453151602075],[14.363723493505193,46.42711444792617],[14.360885968359517,46.426430528644524],[14.361263889166414,46.42552477775897],[14.36,46.42541423137525],[14.36,46.42691522954863],[14.360347403586225,46.426634951118736]]]}},{"type":"Feature","properties":{"_zoneType":"SI_BUILT","name":"Pozidano zemljišče","authority":"MKGP","dataSource":"raba-3000"},"geometry":{"type":"Polygon","coordinates":[[[14.36145369675361,46.42386874447293],[14.36356292737589,46.42478674301783],[14.369789021374269,46.42505946759378],[14.36263288329259,46.42424580113637],[14.361312380976154,46.421869504095945],[14.363539540567077,46.42098859726123],[14.366258435981965,46.42321250279673],[14.370375390582096,46.423364165674634],[14.37038423216057,46.42184114346093],[14.372226157600974,46.42014656829828],[14.370145371476733,46.421635208591596],[14.369842535308518,46.42239277041139],[14.368473780379391,46.421588574058184],[14.367928393275934,46.42193713108956],[14.368823952910747,46.42269232175209],[14.366474278911907,46.42298331736911],[14.363820116865618,46.42072424940859],[14.361976607697473,46.42084895316246],[14.36,46.42233452326403],[14.36,46.42415352899563],[14.36145369675361,46.42386874447293]],[[14.361230592488571,46.42302849781623],[14.360557554841332,46.4232645265972],[14.360747076620134,46.42257580009151],[14.361230592488571,46.42302849781623]]]}},{"type":"Feature","properties":{"_zoneType":"SI_BUILT","name":"Pozidano zemljišče","authority":"MKGP","dataSource":"raba-3000"},"geometry":{"type":"Polygon","coordinates":[[[14.336822946891727,46.42320458536979],[14.33684447772994,46.423319579058756],[14.337568202582984,46.42333872265974],[14.336822946891727,46.42320458536979]]]}},{"type":"Feature","properties":{"_zoneType":"SI_BUILT","name":"Pozidano zemljišče","authority":"MKGP","dataSource":"raba-3000"},"geometry":{"type":"Polygon","coordinates":[[[14.382462524625772,46.429263565712624],[14.382825887301447,46.42863112070674],[14.381657517828273,46.42784173727511],[14.379408317727457,46.4279765982665],[14.380412433858083,46.42660886996805],[14.378934488093696,46.428288774444546],[14.382179956566011,46.42838094977631],[14.382462524625772,46.429263565712624]]]}},{"type":"Feature","properties":{"_zoneType":"SI_BUILT","name":"Pozidano zemljišče","authority":"MKGP","dataSource":"raba-3000"},"geometry":{"type":"Polygon","coordinates":[[[14.381160455715717,46.42573040814272],[14.380906096073577,46.42577185088879],[14.381056616118894,46.426196349300355],[14.381160455715717,46.42573040814272]]]}},{"type":"Feature","properties":{"_zoneType":"SI_BUILT","name":"Pozidano zemljišče","authority":"MKGP","dataSource":"raba-3000"},"geometry":{"type":"Polygon","coordinates":[[[14.37911046241806,46.42023781678165],[14.378011057557131,46.421926787645546],[14.375386822739122,46.422204885978594],[14.377018528977283,46.424248299340796],[14.375678586799228,46.42248795041335],[14.378239350715587,46.422131731960604],[14.37911046241806,46.42023781678165]]]}},{"type":"Feature","properties":{"_zoneType":"SI_BUILT","name":"Pozidano zemljišče","authority":"MKGP","dataSource":"raba-3000"},"geometry":{"type":"Polygon","coordinates":[[[14.36818919659696,46.414032551099346],[14.36776602984716,46.414136064556025],[14.368058880413953,46.41546235588684],[14.36818919659696,46.414032551099346]]]}},{"type":"Feature","properties":{"_zoneType":"SI_BUILT","name":"Pozidano zemljišče","authority":"MKGP","dataSource":"raba-3000"},"geometry":{"type":"Polygon","coordinates":[[[14.367821649922575,46.41664160836802],[14.367453413445041,46.41660246219973],[14.367667393143128,46.41689380291059],[14.367821649922575,46.41664160836802]]]}},{"type":"Feature","properties":{"_zoneType":"SI_BUILT","name":"Pozidano zemljišče","authority":"MKGP","dataSource":"raba-3000"},"geometry":{"type":"Polygon","coordinates":[[[14.36634359004158,46.416731257851325],[14.365209269756457,46.416925179383036],[14.366326524031228,46.41693113256961],[14.36634359004158,46.416731257851325]]]}},{"type":"Feature","properties":{"_zoneType":"SI_BUILT","name":"Pozidano zemljišče","authority":"MKGP","dataSource":"raba-3000"},"geometry":{"type":"Polygon","coordinates":[[[14.3431605097511,46.411646237916706],[14.342835984806525,46.411558486677855],[14.34304531637596,46.41182945318252],[14.3431605097511,46.411646237916706]]]}},{"type":"Feature","properties":{"_zoneType":"SI_BUILT","name":"Pozidano zemljišče","authority":"MKGP","dataSource":"raba-3000"},"geometry":{"type":"Polygon","coordinates":[[[14.338457793316707,46.41297866600979],[14.3376866024112,46.41224545798495],[14.337769672498927,46.41327063899622],[14.338457793316707,46.41297866600979]]]}},{"type":"Feature","properties":{"_zoneType":"SI_BUILT","name":"Pozidano zemljišče","authority":"MKGP","dataSource":"raba-3000"},"geometry":{"type":"Polygon","coordinates":[[[14.338068602810232,46.41094901708805],[14.338019569998142,46.41112695267024],[14.338370448315782,46.410991268907466],[14.338068602810232,46.41094901708805]]]}},{"type":"Feature","properties":{"_zoneType":"SI_BUILT","name":"Pozidano zemljišče","authority":"MKGP","dataSource":"raba-3000"},"geometry":{"type":"Polygon","coordinates":[[[14.334679797003854,46.41892666092908],[14.330355058501338,46.42116848952874],[14.331800281980708,46.421340342142884],[14.334679797003854,46.41892666092908]]]}},{"type":"Feature","properties":{"_zoneType":"SI_BUILT","name":"Pozidano zemljišče","authority":"MKGP","dataSource":"raba-3000"},"geometry":{"type":"Polygon","coordinates":[[[14.333292947496064,46.42302062404695],[14.333166819982045,46.422829017675625],[14.332914086328305,46.42318795077775],[14.333292947496064,46.42302062404695]]]}},{"type":"Feature","properties":{"_zoneType":"SI_BUILT","name":"Pozidano zemljišče","authority":"MKGP","dataSource":"raba-3000"},"geometry":{"type":"Polygon","coordinates":[[[14.33095024482879,46.41412487047571],[14.329434398901071,46.41314807418372],[14.33067765990099,46.41418980148027],[14.33095024482879,46.41412487047571]]]}},{"type":"Feature","properties":{"_zoneType":"SI_BUILT","name":"Pozidano zemljišče","authority":"MKGP","dataSource":"raba-3000"},"geometry":{"type":"Polygon","coordinates":[[[14.325510054481525,46.41499521451101],[14.325570606251002,46.41521465328235],[14.325846729788422,46.41496876311992],[14.325510054481525,46.41499521451101]]]}},{"type":"Feature","properties":{"_zoneType":"SI_BUILT","name":"Pozidano zemljišče","authority":"MKGP","dataSource":"raba-3000"},"geometry":{"type":"Polygon","coordinates":[[[14.319703542751842,46.41840841333769],[14.31853495703542,46.41883210530671],[14.31716616406867,46.41883316325338],[14.318384601535309,46.41909844224347],[14.319703542751842,46.41840841333769]]]}},{"type":"Feature","properties":{"_zoneType":"SI_BUILT","name":"Pozidano zemljišče","authority":"MKGP","dataSource":"raba-3000"},"geometry":{"type":"Polygon","coordinates":[[[14.234602588917456,46.412830665778294],[14.236708416391272,46.41403176097832],[14.24,46.41258321981487],[14.24,46.41229161627729],[14.237266545451616,46.4136288960872],[14.234655029909979,46.41244705493594],[14.230327461982368,46.41332160755348],[14.23233774713111,46.413751179102285],[14.234602588917456,46.412830665778294]]]}},{"type":"Feature","properties":{"_zoneType":"SI_BUILT","name":"Pozidano zemljišče","authority":"MKGP","dataSource":"raba-3000"},"geometry":{"type":"Polygon","coordinates":[[[14.243320002134427,46.41112217239026],[14.245034338162615,46.412597666454246],[14.248753153873826,46.413890011437694],[14.250182243937285,46.41565710038883],[14.253228870051498,46.41717213572855],[14.252540858900801,46.415812936495044],[14.250550191151518,46.415495590228154],[14.248752263418755,46.413576656036966],[14.24517470415356,46.41229620982426],[14.244511649228487,46.41146092210186],[14.24543047374251,46.41006738018594],[14.246268248061174,46.4098330389108],[14.246422510417297,46.41068939957391],[14.253152890347682,46.41091053178997],[14.254209305982169,46.41035329197878],[14.253142179714805,46.40854976099958],[14.260630971145915,46.408191620842494],[14.262906297831258,46.40904703684661],[14.261614814351972,46.40990354075117],[14.269535148421104,46.411787682678586],[14.269491522358143,46.416404549794976],[14.268519697089506,46.41802089536231],[14.269722275385329,46.42019996358988],[14.269133373889709,46.41815761062653],[14.271012427993833,46.41590648106207],[14.270603237802403,46.41483456772296],[14.272285072157592,46.414326525178645],[14.27237462964347,46.412083982201075],[14.274125584181693,46.41108537696878],[14.276564770527646,46.411775286260664],[14.27699297818878,46.410352942119694],[14.275180828852987,46.40981288772049],[14.27769889937164,46.40826877493703],[14.279337410005727,46.401837165701885],[14.280000000000001,46.40166703524762],[14.280000000000001,46.40060142028852],[14.279121745745593,46.40082812284556],[14.279170286779824,46.40049625453568],[14.280000000000001,46.40039648376228],[14.280000000000001,46.400000000000006],[14.276795037580493,46.400000000000006],[14.277837528574631,46.40272025699985],[14.276724035606353,46.40630359078547],[14.275462621832874,46.40653738815557],[14.27319934900465,46.410124229891075],[14.270581552967927,46.411690400918104],[14.263507362335348,46.41013567684185],[14.264459090950256,46.4088996078204],[14.260592982089854,46.407624522481605],[14.252660883072455,46.40816540141303],[14.251812653509202,46.40877020794284],[14.252690241899604,46.40964484576005],[14.250690347514379,46.40944380079154],[14.250991222162424,46.41017885573028],[14.249816126624223,46.41053909274494],[14.246953694778417,46.410321005263725],[14.247110404729604,46.40896684730721],[14.244391231530763,46.410165968385286],[14.243837023133496,46.40897549937752],[14.242781851444066,46.41093065939855],[14.24,46.41229161627729],[14.24,46.41258321981487],[14.243320002134427,46.41112217239026]],[[14.275187127334322,46.40869082843314],[14.27559680938287,46.40805881559059],[14.276348547416326,46.408553898449846],[14.275187127334322,46.40869082843314]],[[14.27188241682709,46.41184454214664],[14.271538892872915,46.412639822369535],[14.271001175808799,46.41183725654407],[14.27188241682709,46.41184454214664]]]}},{"type":"Feature","properties":{"_zoneType":"SI_BUILT","name":"Pozidano zemljišče","authority":"MKGP","dataSource":"raba-3000"},"geometry":{"type":"Polygon","coordinates":[[[14.282618239889073,46.40099476077087],[14.283536612877267,46.402129512124226],[14.282479604573174,46.40310491815653],[14.283308138078192,46.40467185927743],[14.292135071928218,46.40780048383587],[14.299569450207441,46.41494106683542],[14.30156770427159,46.41527618226969],[14.30290937519939,46.4147242653936],[14.303693462233118,46.41579753888325],[14.306556484187919,46.415216656743546],[14.309483772428562,46.41616092586141],[14.310426931422947,46.41545361398182],[14.307958348955987,46.41517449012806],[14.30744144098917,46.41312186538802],[14.306519083292624,46.414491986745944],[14.3048669293974,46.41450750908727],[14.304287106354833,46.41333292298556],[14.301619552559782,46.41485905505157],[14.298431222737198,46.41316935812147],[14.298356240585752,46.41189548861195],[14.300081579290303,46.41170491873312],[14.29697200623858,46.409590937634796],[14.297351339477569,46.40752018232185],[14.296734126411158,46.406225071647114],[14.298817354455666,46.40479211413549],[14.29842213825777,46.4038764482863],[14.299634897795872,46.40427455353552],[14.303246747010007,46.402663839228424],[14.302742394614006,46.40094038867052],[14.303494762195148,46.40023953679961],[14.302135149475836,46.40111817453171],[14.30246981941973,46.402577425066895],[14.296336065024438,46.40409307848079],[14.296923252465767,46.405502486814925],[14.295986855559619,46.406542526142275],[14.296919417593124,46.4077469921003],[14.296064979412462,46.40827099477122],[14.294780532435711,46.407147656405435],[14.29340086513328,46.40844186025436],[14.290942960382809,46.40642429689971],[14.287904792758532,46.40627090814812],[14.283573401414262,46.40452341056896],[14.283086553618592,46.403815674794274],[14.283885233235178,46.403415695462755],[14.282879732301794,46.40287756190071],[14.285424440885567,46.402716677787026],[14.286501806393309,46.400000000000006],[14.280000000000001,46.400000000000006],[14.280000000000001,46.40039648376228],[14.281486325537681,46.400217757131415],[14.280000000000001,46.40060142028852],[14.280000000000001,46.40166703524762],[14.282618239889073,46.40099476077087]]]}},{"type":"Feature","properties":{"_zoneType":"SI_BUILT","name":"Pozidano zemljišče","authority":"MKGP","dataSource":"raba-3000"},"geometry":{"type":"Polygon","coordinates":[[[14.305098668990617,46.41252376318604],[14.304818769591503,46.412666820169534],[14.305333207730829,46.41275485420007],[14.305098668990617,46.41252376318604]]]}},{"type":"Feature","properties":{"_zoneType":"SI_BUILT","name":"Pozidano zemljišče","authority":"MKGP","dataSource":"raba-3000"},"geometry":{"type":"Polygon","coordinates":[[[14.308666202855926,46.41358309917966],[14.308494169474567,46.41335360936315],[14.308357714698849,46.413692071640966],[14.308666202855926,46.41358309917966]]]}},{"type":"Feature","properties":{"_zoneType":"SI_BUILT","name":"Pozidano zemljišče","authority":"MKGP","dataSource":"raba-3000"},"geometry":{"type":"Polygon","coordinates":[[[14.308994357946752,46.41448260724029],[14.308749304515956,46.41427008011843],[14.308808669777468,46.4146174480842],[14.308994357946752,46.41448260724029]]]}},{"type":"Feature","properties":{"_zoneType":"SI_BUILT","name":"Pozidano zemljišče","authority":"MKGP","dataSource":"raba-3000"},"geometry":{"type":"Polygon","coordinates":[[[14.304838513157533,46.40770375514143],[14.303624584910496,46.40776432769446],[14.303951815400325,46.4082928229148],[14.304838513157533,46.40770375514143]]]}},{"type":"Feature","properties":{"_zoneType":"SI_BUILT","name":"Pozidano zemljišče","authority":"MKGP","dataSource":"raba-3000"},"geometry":{"type":"Polygon","coordinates":[[[14.304746210364241,46.409004840987585],[14.30403680212539,46.40890451026088],[14.304354791671429,46.40940876940231],[14.304746210364241,46.409004840987585]]]}},{"type":"Feature","properties":{"_zoneType":"SI_BUILT","name":"Pozidano zemljišče","authority":"MKGP","dataSource":"raba-3000"},"geometry":{"type":"Polygon","coordinates":[[[14.300546425621823,46.40688106066023],[14.30044472112369,46.405883530577235],[14.29933388986369,46.406075491915566],[14.300267426416283,46.40692011950063],[14.300546425621823,46.40688106066023]]]}},{"type":"Feature","properties":{"_zoneType":"SI_BUILT","name":"Pozidano zemljišče","authority":"MKGP","dataSource":"raba-3000"},"geometry":{"type":"Polygon","coordinates":[[[14.299796926697976,46.431810677359735],[14.29979460181843,46.431992207384205],[14.300139337637665,46.43181404856341],[14.299796926697976,46.431810677359735]]]}},{"type":"Feature","properties":{"_zoneType":"SI_BUILT","name":"Pozidano zemljišče","authority":"MKGP","dataSource":"raba-3000"},"geometry":{"type":"Polygon","coordinates":[[[14.297141607829536,46.401160471730705],[14.296572334072525,46.40104934496168],[14.297068975355234,46.40136382514289],[14.297141607829536,46.401160471730705]]]}},{"type":"Feature","properties":{"_zoneType":"SI_BUILT","name":"Pozidano zemljišče","authority":"MKGP","dataSource":"raba-3000"},"geometry":{"type":"Polygon","coordinates":[[[14.294156381382747,46.431152476215566],[14.295209419766643,46.430370103207196],[14.29388453119379,46.42945850628613],[14.294573935632277,46.43033580126508],[14.294156381382747,46.431152476215566]]]}},{"type":"Feature","properties":{"_zoneType":"SI_BUILT","name":"Pozidano zemljišče","authority":"MKGP","dataSource":"raba-3000"},"geometry":{"type":"Polygon","coordinates":[[[14.289894347914617,46.43689589596376],[14.29216191054093,46.434599250210816],[14.290548303357706,46.433216650508804],[14.29317970863388,46.43157203717942],[14.290371261042539,46.43293924239659],[14.290037457540942,46.434516858051396],[14.291018847005706,46.43555721205409],[14.289894347914617,46.43689589596376]],[[14.290562334848227,46.434774164880764],[14.290848301130747,46.43445263066445],[14.2911870366023,46.43505684811838],[14.290562334848227,46.434774164880764]]]}},{"type":"Feature","properties":{"_zoneType":"SI_BUILT","name":"Pozidano zemljišče","authority":"MKGP","dataSource":"raba-3000"},"geometry":{"type":"Polygon","coordinates":[[[14.29309494015422,46.410798179026564],[14.291399906742646,46.410586571442764],[14.292884967106717,46.410904492196465],[14.29309494015422,46.410798179026564]]]}},{"type":"Feature","properties":{"_zoneType":"SI_BUILT","name":"Pozidano zemljišče","authority":"MKGP","dataSource":"raba-3000"},"geometry":{"type":"Polygon","coordinates":[[[14.292401776075934,46.43010509797553],[14.290714545294968,46.429259489270976],[14.28857591442984,46.42934297386951],[14.290117944947674,46.429368487647245],[14.292401776075934,46.43010509797553]]]}},{"type":"Feature","properties":{"_zoneType":"SI_BUILT","name":"Pozidano zemljišče","authority":"MKGP","dataSource":"raba-3000"},"geometry":{"type":"Polygon","coordinates":[[[14.291875110554214,46.4003004225479],[14.29180767644996,46.400000000000006],[14.291603933677314,46.400000000000006],[14.291177769351377,46.400282990544405],[14.291875110554214,46.4003004225479]]]}},{"type":"Feature","properties":{"_zoneType":"SI_BUILT","name":"Pozidano zemljišče","authority":"MKGP","dataSource":"raba-3000"},"geometry":{"type":"Polygon","coordinates":[[[14.282765585695033,46.40927501068784],[14.282446664704102,46.409290601157764],[14.282755872163982,46.40942992503628],[14.282765585695033,46.40927501068784]]]}},{"type":"Feature","properties":{"_zoneType":"SI_BUILT","name":"Pozidano zemljišče","authority":"MKGP","dataSource":"raba-3000"},"geometry":{"type":"Polygon","coordinates":[[[14.274507619751727,46.40667853856423],[14.274071761791609,46.40610287710051],[14.274260124528624,46.40677252140545],[14.274507619751727,46.40667853856423]]]}},{"type":"Feature","properties":{"_zoneType":"SI_BUILT","name":"Pozidano zemljišče","authority":"MKGP","dataSource":"raba-3000"},"geometry":{"type":"Polygon","coordinates":[[[14.27383744308941,46.41526432960828],[14.272461823397244,46.41507776679956],[14.273682250761526,46.41538201383707],[14.27383744308941,46.41526432960828]]]}},{"type":"Feature","properties":{"_zoneType":"SI_BUILT","name":"Pozidano zemljišče","authority":"MKGP","dataSource":"raba-3000"},"geometry":{"type":"Polygon","coordinates":[[[14.24537500022514,46.43143163757127],[14.247466349607425,46.430573417913884],[14.250374007052047,46.43094027890346],[14.259193603230049,46.43254501408747],[14.261460621704424,46.43422330606096],[14.26528006736065,46.434838598721235],[14.265314582911316,46.43597598747207],[14.266997846380136,46.437547848306295],[14.266663658964735,46.439313161814084],[14.268516906966743,46.43869014057594],[14.268384003116232,46.436921362691905],[14.266078044554334,46.43616372740413],[14.265685965192459,46.434521401053374],[14.261509143363327,46.433547293661135],[14.270962277906602,46.433785831582405],[14.270886195849842,46.432587880802274],[14.267010988405922,46.43115861503779],[14.270595239766118,46.43007679398709],[14.270234731962152,46.428920431974376],[14.272641597950411,46.42784114293819],[14.270023423503053,46.42595765221755],[14.269660489294923,46.42114230151631],[14.26894306480959,46.42336152049451],[14.269448827028427,46.42699504844416],[14.265100353483463,46.430538984587415],[14.268201033683354,46.432858776748965],[14.262301784054015,46.4321962222987],[14.263902978052993,46.43110138705921],[14.26382012837452,46.43014871294292],[14.261388519183285,46.43169327405078],[14.26135371299099,46.43003865476153],[14.260294676144428,46.43006120782961],[14.258066402600287,46.43196702763789],[14.244263042836366,46.42957352790038],[14.246290549586123,46.430500528111835],[14.24537500022514,46.43143163757127]],[[14.27213543056313,46.427842761606534],[14.270068150891623,46.42770071184378],[14.27058387864545,46.426997894617216],[14.27213543056313,46.427842761606534]]]}},{"type":"Feature","properties":{"_zoneType":"SI_BUILT","name":"Pozidano zemljišče","authority":"MKGP","dataSource":"raba-3000"},"geometry":{"type":"Polygon","coordinates":[[[14.27212047094158,46.40089213686361],[14.272269000202941,46.401051194872146],[14.272421797273314,46.40077128629054],[14.27212047094158,46.40089213686361]]]}},{"type":"Feature","properties":{"_zoneType":"SI_BUILT","name":"Pozidano zemljišče","authority":"MKGP","dataSource":"raba-3000"},"geometry":{"type":"Polygon","coordinates":[[[14.234823245472532,46.42801241095684],[14.232794031161639,46.428527232253586],[14.233782319621954,46.4292135956822],[14.234823245472532,46.42801241095684]]]}},{"type":"Feature","properties":{"_zoneType":"SI_BUILT","name":"Pozidano zemljišče","authority":"MKGP","dataSource":"raba-3000"},"geometry":{"type":"Polygon","coordinates":[[[14.233486063823237,46.43106989467386],[14.233179490675495,46.43102553623232],[14.233452622831882,46.43122156482541],[14.233486063823237,46.43106989467386]]]}},{"type":"Feature","properties":{"_zoneType":"SI_BUILT","name":"Pozidano zemljišče","authority":"MKGP","dataSource":"raba-3000"},"geometry":{"type":"Polygon","coordinates":[[[14.22302093953652,46.43198972304053],[14.224098192897813,46.4309659894086],[14.2297260747319,46.42986888598796],[14.22385639462755,46.430732648223554],[14.223069903316023,46.43173647506535],[14.22078922899255,46.43201569764555],[14.22302093953652,46.43198972304053]]]}},{"type":"Feature","properties":{"_zoneType":"SI_BUILT","name":"Pozidano zemljišče","authority":"MKGP","dataSource":"raba-3000"},"geometry":{"type":"Polygon","coordinates":[[[14.226614590726797,46.412598617707104],[14.22734078393414,46.41182868921053],[14.22439240519637,46.4123636131159],[14.226614590726797,46.412598617707104]]]}}]}