{"type":"FeatureCollection","features":[{"type":"Feature","properties":{"_zoneType":"SI_BUILT","name":"Pozidano zemljišče","authority":"MKGP","dataSource":"raba-3000"},"geometry":{"type":"Polygon","coordinates":[[[14.59704445369032,46.42617347309751],[14.599701847279157,46.42753861750904],[14.6,46.42534509058849],[14.6,46.4244095919388],[14.598796499264008,46.42405727966943],[14.599904027165156,46.425457767147165],[14.599448702556957,46.42641458935771],[14.59835667575438,46.42596302499148],[14.594557352153705,46.42611230944791],[14.587783679112238,46.42743085563314],[14.585112675861206,46.42506073950971],[14.587695078032143,46.427839999997104],[14.59704445369032,46.42617347309751]]]}},{"type":"Feature","properties":{"_zoneType":"SI_BUILT","name":"Pozidano zemljišče","authority":"MKGP","dataSource":"raba-3000"},"geometry":{"type":"Polygon","coordinates":[[[14.6,46.41514677918558],[14.6,46.41474302369732],[14.599964470515244,46.41512064408413],[14.6,46.41514677918558]]]}},{"type":"Feature","properties":{"_zoneType":"SI_BUILT","name":"Pozidano zemljišče","authority":"MKGP","dataSource":"raba-3000"},"geometry":{"type":"Polygon","coordinates":[[[14.600000000000001,46.42534509058848],[14.600000000000001,46.4244095919388],[14.6,46.4244095919388],[14.6,46.42534509058849],[14.600000000000001,46.42534509058848]]]}},{"type":"Feature","properties":{"_zoneType":"SI_BUILT","name":"Pozidano zemljišče","authority":"MKGP","dataSource":"raba-3000"},"geometry":{"type":"Polygon","coordinates":[[[14.600000000000001,46.41514677918558],[14.600000000000001,46.4147430236973],[14.6,46.41474302369732],[14.6,46.41514677918558],[14.600000000000001,46.41514677918558]]]}},{"type":"Feature","properties":{"_zoneType":"SI_BUILT","name":"Pozidano zemljišče","authority":"MKGP","dataSource":"raba-3000"},"geometry":{"type":"Polygon","coordinates":[[[14.598086412950316,46.419036316378666],[14.596922167862978,46.41978932558633],[14.597395945841049,46.42141488669907],[14.598191309302937,46.41980016114245],[14.598086412950316,46.419036316378666]]]}},{"type":"Feature","properties":{"_zoneType":"SI_BUILT","name":"Pozidano zemljišče","authority":"MKGP","dataSource":"raba-3000"},"geometry":{"type":"Polygon","coordinates":[[[14.594085929964903,46.42448501275868],[14.595219224735404,46.42415929854895],[14.594110477969748,46.42434324642324],[14.594085929964903,46.42448501275868]]]}},{"type":"Feature","properties":{"_zoneType":"SI_BUILT","name":"Pozidano zemljišče","authority":"MKGP","dataSource":"raba-3000"},"geometry":{"type":"Polygon","coordinates":[[[14.592514935128113,46.41222108294922],[14.593687029945348,46.41155040293139],[14.591137013692842,46.410761072751924],[14.59250413166031,46.40967897741638],[14.59130464175017,46.40909520402515],[14.591455784680022,46.4099642767632],[14.588368599554391,46.41157325516796],[14.59098666481504,46.41134142010901],[14.592514935128113,46.41222108294922]]]}},{"type":"Feature","properties":{"_zoneType":"SI_BUILT","name":"Pozidano zemljišče","authority":"MKGP","dataSource":"raba-3000"},"geometry":{"type":"Polygon","coordinates":[[[14.592376215483164,46.407628204025954],[14.59252707507114,46.408464435268364],[14.592774715620555,46.40764869376862],[14.592376215483164,46.407628204025954]]]}},{"type":"Feature","properties":{"_zoneType":"SI_BUILT","name":"Pozidano zemljišče","authority":"MKGP","dataSource":"raba-3000"},"geometry":{"type":"Polygon","coordinates":[[[14.583494995482985,46.41720261055891],[14.583233398080482,46.416310876677166],[14.583217918591519,46.41732912006582],[14.583494995482985,46.41720261055891]]]}},{"type":"Feature","properties":{"_zoneType":"SI_BUILT","name":"Pozidano zemljišče","authority":"MKGP","dataSource":"raba-3000"},"geometry":{"type":"Polygon","coordinates":[[[14.536457738706266,46.41130542150166],[14.53437756373768,46.40903615291127],[14.532585373000815,46.4095721472611],[14.5326232796805,46.41024314450391],[14.535811594949298,46.411955369021236],[14.536457738706266,46.41130542150166]],[[14.535146505260157,46.41029360639846],[14.534219409759647,46.410666706228604],[14.532918935947047,46.40998238773373],[14.534330649423147,46.4093760368934],[14.535146505260157,46.41029360639846]]]}},{"type":"Feature","properties":{"_zoneType":"SI_BUILT","name":"Pozidano zemljišče","authority":"MKGP","dataSource":"raba-3000"},"geometry":{"type":"Polygon","coordinates":[[[14.505552166123884,46.402504798593576],[14.508516780010703,46.40376239498215],[14.510037326036858,46.405902847050264],[14.50871994592858,46.40695258540488],[14.506176734079098,46.406436335689854],[14.508267622855593,46.407990052938246],[14.504089607248515,46.4102224804221],[14.506656480588997,46.40943981205183],[14.510319322834,46.41043640970145],[14.507469081456621,46.40924506007089],[14.510530700262759,46.40627377256638],[14.512400616860269,46.40679953951832],[14.513893467261564,46.40924007139086],[14.513667961875878,46.411340237520044],[14.512183143011217,46.411663691865385],[14.513530833750705,46.412088201941785],[14.513452859421308,46.41333127613388],[14.515633864059172,46.41214191929257],[14.517977820465688,46.41236064633117],[14.5197242648138,46.41049163666197],[14.52,46.41044235046309],[14.52,46.40953709411082],[14.518989855827575,46.40950328428295],[14.518593928716015,46.408176736671074],[14.52,46.40823447954789],[14.52,46.40752242279891],[14.517444676957062,46.40753611832841],[14.515892467880706,46.404576561998205],[14.52,46.403333359128034],[14.52,46.402599085900036],[14.518009111037506,46.40388217916406],[14.514594955792207,46.40280134541742],[14.52,46.40242309503927],[14.52,46.401712830477045],[14.514746740885412,46.40237067573892],[14.51423385180785,46.40378585299098],[14.510086311853394,46.4039604004103],[14.508154507934357,46.40270401579213],[14.508911372368265,46.402060755199095],[14.507872923848987,46.40162140820659],[14.508382164399942,46.40006965963072],[14.508342415994786,46.400000000000006],[14.507944682543592,46.400000000000006],[14.50803979197442,46.40034041361284],[14.506968235049616,46.40223826476282],[14.506343643347643,46.401561031411404],[14.506984691714123,46.4002341154206],[14.506682415675451,46.400000000000006],[14.5050950807802,46.400000000000006],[14.505705191776585,46.40038495325818],[14.505552166123884,46.402504798593576]],[[14.514687989188673,46.40724673548497],[14.518388734524649,46.40919890753186],[14.517774127970176,46.41044641220287],[14.518591651557209,46.41126521692714],[14.515668064280014,46.411253272711036],[14.514422452264442,46.40838275028397],[14.514687989188673,46.40724673548497]],[[14.513310971216006,46.40392712749109],[14.515666286765203,46.404843771623966],[14.516192860002352,46.40698621247621],[14.510438128027754,46.405699592793624],[14.510273876530581,46.40425483892248],[14.513310971216006,46.40392712749109]],[[14.514245116137507,46.407032375199506],[14.513881431762295,46.407416584189306],[14.513627750109793,46.406759323727215],[14.514245116137507,46.407032375199506]]]}},{"type":"Feature","properties":{"_zoneType":"SI_BUILT","name":"Pozidano zemljišče","authority":"MKGP","dataSource":"raba-3000"},"geometry":{"type":"Polygon","coordinates":[[[14.524351536839253,46.4096645363834],[14.52554722013677,46.40864945399427],[14.526725093437255,46.410524751565426],[14.527036087585508,46.40928630801059],[14.529024022295662,46.41066337096478],[14.528868041144046,46.40944500222103],[14.52975491551417,46.409318476388485],[14.531001760057515,46.412386528696544],[14.5291075922283,46.41453543703401],[14.524984253390292,46.41612714236119],[14.52653722929587,46.41752823077739],[14.526268235539725,46.419822285202684],[14.527422736292506,46.41905387246145],[14.527306139474307,46.41722118165792],[14.526073875527297,46.415879622314534],[14.52934298847221,46.41474244747867],[14.531605161226796,46.41243762175524],[14.530166007334213,46.40917977849936],[14.531381585400817,46.4085605975721],[14.528714700574398,46.40894750133689],[14.529554299328577,46.4076274734254],[14.52700920635754,46.4079112796331],[14.527139759209131,46.4062921185576],[14.525269120622104,46.40836521407268],[14.524471422851756,46.40810818220058],[14.5258418196159,46.40613582813533],[14.527619729836351,46.40567759417195],[14.527270025010333,46.4037183658731],[14.524960186641673,46.40193202314988],[14.526177248886544,46.400776813437396],[14.526210238913727,46.400000000000006],[14.52342245133779,46.400000000000006],[14.520317028575722,46.40167313021824],[14.52,46.401712830477045],[14.52,46.40242309503927],[14.52030633659567,46.40240165729913],[14.52,46.402599085900036],[14.52,46.403333359128034],[14.521023338266783,46.40302363128331],[14.524205981229269,46.400793942284764],[14.526441442945458,46.40479145955394],[14.52334596378655,46.408320750450535],[14.520011590635002,46.40588685322885],[14.520987753308406,46.4075171288285],[14.52,46.40752242279891],[14.52,46.40823447954789],[14.522716734385911,46.40834604719086],[14.52189353315329,46.40960047123235],[14.52,46.40953709411082],[14.52,46.41044235046309],[14.524351536839253,46.4096645363834]]]}},{"type":"Feature","properties":{"_zoneType":"SI_BUILT","name":"Pozidano zemljišče","authority":"MKGP","dataSource":"raba-3000"},"geometry":{"type":"Polygon","coordinates":[[[14.522524018250257,46.40244716868569],[14.522561608426885,46.40265088442086],[14.522926439607962,46.40240896487064],[14.522524018250257,46.40244716868569]]]}},{"type":"Feature","properties":{"_zoneType":"SI_BUILT","name":"Pozidano zemljišče","authority":"MKGP","dataSource":"raba-3000"},"geometry":{"type":"Polygon","coordinates":[[[14.518371569489673,46.41978074038662],[14.52,46.41955071121143],[14.52,46.41953356925617],[14.518371569489673,46.41978074038662]]]}},{"type":"Feature","properties":{"_zoneType":"SI_BUILT","name":"Pozidano zemljišče","authority":"MKGP","dataSource":"raba-3000"},"geometry":{"type":"Polygon","coordinates":[[[14.522630991295795,46.42008592275358],[14.521555960997075,46.41929739790212],[14.52,46.41953356925617],[14.52,46.41955071121143],[14.520213995169298,46.41952048263737],[14.522630991295795,46.42008592275358]]]}},{"type":"Feature","properties":{"_zoneType":"SI_BUILT","name":"Pozidano zemljišče","authority":"MKGP","dataSource":"raba-3000"},"geometry":{"type":"Polygon","coordinates":[[[14.506924118971359,46.421989632779756],[14.503713380110575,46.42253213463184],[14.502833627843057,46.42112513272893],[14.502592943414857,46.42228355827312],[14.506313929355482,46.423657584430366],[14.506924118971359,46.421989632779756]]]}},{"type":"Feature","properties":{"_zoneType":"SI_BUILT","name":"Pozidano zemljišče","authority":"MKGP","dataSource":"raba-3000"},"geometry":{"type":"Polygon","coordinates":[[[14.50237872533822,46.4110539593749],[14.49918528198851,46.411051134148856],[14.50216337634864,46.41159194594932],[14.50237872533822,46.4110539593749]]]}},{"type":"Feature","properties":{"_zoneType":"SI_BUILT","name":"Pozidano zemljišče","authority":"MKGP","dataSource":"raba-3000"},"geometry":{"type":"Polygon","coordinates":[[[14.48,46.40223047700282],[14.48,46.40065038760853],[14.479825810538891,46.40029051030024],[14.479793273914066,46.402105897785695],[14.48,46.40223047700282]]]}},{"type":"Feature","properties":{"_zoneType":"SI_BUILT","name":"Pozidano zemljišče","authority":"MKGP","dataSource":"raba-3000"},"geometry":{"type":"Polygon","coordinates":[[[14.480971697760193,46.402816050640965],[14.483890077721542,46.40255251431412],[14.484660342645533,46.40170472202256],[14.484177769371192,46.40018876747674],[14.486545143083129,46.40024921588829],[14.489260909856752,46.40207051065148],[14.487466246463493,46.40446094407591],[14.48441986774951,46.40510771645083],[14.484855318944772,46.406322170549416],[14.48895981681454,46.40379156585321],[14.48969932596583,46.402203230895736],[14.48664929339811,46.40000515793988],[14.486615703067999,46.400000000000006],[14.482248273159431,46.400000000000006],[14.483649064684732,46.40131033702569],[14.48084931879,46.40240508940322],[14.48,46.40065038760853],[14.48,46.40223047700282],[14.480971697760193,46.402816050640965]]]}},{"type":"Feature","properties":{"_zoneType":"SI_BUILT","name":"Pozidano zemljišče","authority":"MKGP","dataSource":"raba-3000"},"geometry":{"type":"Polygon","coordinates":[[[14.48622835670036,46.40725808602427],[14.48543817246894,46.40718309248655],[14.48523577569859,46.408242890224784],[14.48622835670036,46.40725808602427]]]}},{"type":"Feature","properties":{"_zoneType":"SI_BUILT","name":"Pozidano zemljišče","authority":"MKGP","dataSource":"raba-3000"},"geometry":{"type":"Polygon","coordinates":[[[14.448248988990581,46.41984847710172],[14.446425023295514,46.418589113453805],[14.450346348347992,46.41595013096387],[14.453250197182102,46.41687821221306],[14.452563543694506,46.41521949145875],[14.454378984172507,46.41496900245316],[14.454471512726208,46.413674598977465],[14.450953785967052,46.412798132663056],[14.4481124578916,46.40908792560572],[14.453248391805042,46.41089966472219],[14.456135313639578,46.40629383084689],[14.460367748781447,46.40543717745339],[14.458421799227004,46.40413415583868],[14.462608791550213,46.403951298445996],[14.465366265411472,46.40121082073239],[14.468661926737425,46.400284372662284],[14.468888611366152,46.400000000000006],[14.468461889593618,46.400000000000006],[14.4683233294968,46.400128837446566],[14.465123974476437,46.40104596093619],[14.462445581922207,46.403751752839305],[14.458538900833291,46.403785855537805],[14.456079027204638,46.40464508954984],[14.457175571312701,46.40533124010798],[14.45545825806483,46.405974007633475],[14.453927171762835,46.40875610512244],[14.451889308760032,46.409543158269436],[14.450277458426125,46.408631110934905],[14.446997551990462,46.408955827848764],[14.448030321413082,46.41009033745989],[14.446492885996035,46.411438113828176],[14.44950858587319,46.41197489939725],[14.452986800154235,46.414287577370075],[14.45168997325364,46.41618138494053],[14.449002724432649,46.41461992593518],[14.448863883163412,46.41686825882242],[14.444793740899431,46.41935486731849],[14.448248988990581,46.41984847710172]]]}},{"type":"Feature","properties":{"_zoneType":"SI_BUILT","name":"Pozidano zemljišče","authority":"MKGP","dataSource":"raba-3000"},"geometry":{"type":"Polygon","coordinates":[[[14.479708672861207,46.400000000000006],[14.479609775398755,46.400000000000006],[14.47981076070717,46.40026600822959],[14.479708672861207,46.400000000000006]]]}},{"type":"Feature","properties":{"_zoneType":"SI_BUILT","name":"Pozidano zemljišče","authority":"MKGP","dataSource":"raba-3000"},"geometry":{"type":"Polygon","coordinates":[[[14.477688548437087,46.400000000000006],[14.479793273914066,46.402105897785695],[14.479804574135345,46.400543102404605],[14.478720161893964,46.400000000000006],[14.477688548437087,46.400000000000006]]]}},{"type":"Feature","properties":{"_zoneType":"SI_BUILT","name":"Pozidano zemljišče","authority":"MKGP","dataSource":"raba-3000"},"geometry":{"type":"Polygon","coordinates":[[[14.477436390273198,46.400000000000006],[14.476432033512541,46.400000000000006],[14.475927681242547,46.400783169785626],[14.477436390273198,46.400000000000006]]]}},{"type":"Feature","properties":{"_zoneType":"SI_BUILT","name":"Pozidano zemljišče","authority":"MKGP","dataSource":"raba-3000"},"geometry":{"type":"Polygon","coordinates":[[[14.460019955835161,46.40624062825979],[14.459627369713711,46.40600749302891],[14.459114353738594,46.40621783569477],[14.460019955835161,46.40624062825979]]]}},{"type":"Feature","properties":{"_zoneType":"SI_BUILT","name":"Pozidano zemljišče","authority":"MKGP","dataSource":"raba-3000"},"geometry":{"type":"Polygon","coordinates":[[[14.47116648815713,46.400960092678936],[14.47225200157466,46.400000000000006],[14.472184339651902,46.400000000000006],[14.469898786214936,46.401267031072074],[14.47116648815713,46.400960092678936]]]}},{"type":"Feature","properties":{"_zoneType":"SI_BUILT","name":"Pozidano zemljišče","authority":"MKGP","dataSource":"raba-3000"},"geometry":{"type":"Polygon","coordinates":[[[14.46899214417698,46.4125672578924],[14.467521209843854,46.4135221931287],[14.46847297542528,46.41645315231415],[14.46899214417698,46.4125672578924]]]}},{"type":"Feature","properties":{"_zoneType":"SI_BUILT","name":"Pozidano zemljišče","authority":"MKGP","dataSource":"raba-3000"},"geometry":{"type":"Polygon","coordinates":[[[14.466601036539247,46.40248935425455],[14.465735192976911,46.402480479340625],[14.46504786200985,46.403032528694496],[14.466601036539247,46.40248935425455]]]}},{"type":"Feature","properties":{"_zoneType":"SI_BUILT","name":"Pozidano zemljišče","authority":"MKGP","dataSource":"raba-3000"},"geometry":{"type":"Polygon","coordinates":[[[14.45715505197059,46.415586937420535],[14.457221568276347,46.415807289768445],[14.457555943269336,46.41552084895819],[14.45715505197059,46.415586937420535]]]}},{"type":"Feature","properties":{"_zoneType":"SI_BUILT","name":"Pozidano zemljišče","authority":"MKGP","dataSource":"raba-3000"},"geometry":{"type":"Polygon","coordinates":[[[14.431959210975721,46.43948708811439],[14.433882664640711,46.44],[14.433980489244536,46.44],[14.429688351232365,46.43817434633411],[14.431959210975721,46.43948708811439]]]}},{"type":"Feature","properties":{"_zoneType":"SI_BUILT","name":"Pozidano zemljišče","authority":"MKGP","dataSource":"raba-3000"},"geometry":{"type":"Polygon","coordinates":[[[14.434144877011368,46.44006992205942],[14.433980489244536,46.44],[14.433882664640711,46.44],[14.434144877011368,46.44006992205942]]]}},{"type":"Feature","properties":{"_zoneType":"SI_BUILT","name":"Pozidano zemljišče","authority":"MKGP","dataSource":"raba-3000"},"geometry":{"type":"Polygon","coordinates":[[[14.430478152476027,46.42324533270554],[14.430225304928191,46.42303526208184],[14.430083260969193,46.4234476056852],[14.430478152476027,46.42324533270554]]]}},{"type":"Feature","properties":{"_zoneType":"SI_BUILT","name":"Pozidano zemljišče","authority":"MKGP","dataSource":"raba-3000"},"geometry":{"type":"Polygon","coordinates":[[[14.42524566922023,46.43948142829907],[14.424636354521908,46.43939447543669],[14.425136436755073,46.439587689481975],[14.42524566922023,46.43948142829907]]]}},{"type":"Feature","properties":{"_zoneType":"SI_BUILT","name":"Pozidano zemljišče","authority":"MKGP","dataSource":"raba-3000"},"geometry":{"type":"Polygon","coordinates":[[[14.41597939006387,46.439053150568846],[14.423479172174554,46.43883506879819],[14.416383443446074,46.43820620785688],[14.412530083074543,46.43671046038838],[14.41597939006387,46.439053150568846]]]}},{"type":"Feature","properties":{"_zoneType":"SI_BUILT","name":"Pozidano zemljišče","authority":"MKGP","dataSource":"raba-3000"},"geometry":{"type":"Polygon","coordinates":[[[14.415796113275167,46.4165340426152],[14.415504207458415,46.41639323605395],[14.415620687840212,46.41670773444621],[14.415796113275167,46.4165340426152]]]}},{"type":"Feature","properties":{"_zoneType":"SI_BUILT","name":"Pozidano zemljišče","authority":"MKGP","dataSource":"raba-3000"},"geometry":{"type":"Polygon","coordinates":[[[14.406965834993727,46.43440088036389],[14.407997635640255,46.435947413207884],[14.409642613972775,46.43484453930815],[14.401593379028965,46.432768439467786],[14.4,46.43051534171221],[14.4,46.431816662065124],[14.40287334219591,46.4337203556656],[14.406965834993727,46.43440088036389]]]}},{"type":"Feature","properties":{"_zoneType":"SI_BUILT","name":"Pozidano zemljišče","authority":"MKGP","dataSource":"raba-3000"},"geometry":{"type":"Polygon","coordinates":[[[14.40062576217032,46.40940638340769],[14.400442411304684,46.40918013022179],[14.400370257972833,46.40952043286485],[14.40062576217032,46.40940638340769]]]}}]}