{"type":"FeatureCollection","features":[{"type":"Feature","properties":{"_zoneType":"SI_BUILT","name":"Pozidano zemljišče","authority":"MKGP","dataSource":"raba-3000"},"geometry":{"type":"Polygon","coordinates":[[[14.999999999999998,46.61821734008222],[15.0,46.61821734008222],[15.0,46.61613991795085],[14.999999999999998,46.61613991795085],[14.999999999999998,46.61821734008222]]]}},{"type":"Feature","properties":{"_zoneType":"SI_BUILT","name":"Pozidano zemljišče","authority":"MKGP","dataSource":"raba-3000"},"geometry":{"type":"Polygon","coordinates":[[[15.0,46.60097574937804],[15.0,46.60097574937765],[14.999999999999998,46.60097574937765],[15.0,46.60097574937804]]]}},{"type":"Feature","properties":{"_zoneType":"SI_BUILT","name":"Pozidano zemljišče","authority":"MKGP","dataSource":"raba-3000"},"geometry":{"type":"Polygon","coordinates":[[[15.0,46.609091872315794],[15.0,46.60909187231579],[14.999999999999998,46.609091872315794],[15.0,46.609091872315794]]]}},{"type":"Feature","properties":{"_zoneType":"SI_BUILT","name":"Pozidano zemljišče","authority":"MKGP","dataSource":"raba-3000"},"geometry":{"type":"Polygon","coordinates":[[[15.0,46.60707373607968],[14.999999999999998,46.60707373607967],[14.999999999999998,46.60731065190204],[15.0,46.60731065190201],[15.0,46.60707373607968]]]}},{"type":"Feature","properties":{"_zoneType":"SI_BUILT","name":"Pozidano zemljišče","authority":"MKGP","dataSource":"raba-3000"},"geometry":{"type":"Polygon","coordinates":[[[14.98621285845303,46.605536930997914],[14.990605335605304,46.60325013865766],[14.99356601874152,46.60493923673981],[14.988460953084711,46.60897918551011],[14.995064308850626,46.61382953030011],[14.996148398815361,46.61600222765224],[14.994918104179876,46.61829282386234],[14.995642262254277,46.6179026813614],[14.996551909878532,46.615250720320034],[14.995300062167589,46.613239016102625],[14.998400064957739,46.613333964024086],[14.999999999999998,46.61464563425843],[14.998546924759912,46.61311867435726],[14.994710783197707,46.612732583071804],[14.992793245183487,46.61070541698033],[14.99350971617239,46.60920570510095],[14.995201633183848,46.60900902197659],[14.993700993149256,46.60870147499129],[14.9940496481292,46.60779529519179],[14.996278662892216,46.60692386951018],[14.999999999999998,46.603438998799795],[14.999999999999998,46.60097574937765],[14.998249296264925,46.6],[14.997972422440624,46.6],[14.99872100345691,46.60058549110046],[14.99714786656729,46.60165471840993],[14.997660463399862,46.602744618046174],[14.996529432234718,46.60298812125126],[14.994348153218432,46.60138701089987],[14.995647863833735,46.6],[14.994742858080514,46.6],[14.993734027190335,46.60127725725875],[14.996154023899834,46.60323262620986],[14.994269448975098,46.60472452243354],[14.990645235916055,46.60288164884047],[14.98835752935854,46.604187054973096],[14.986811411795276,46.603889644649655],[14.992636082953187,46.6],[14.99181333820223,46.6],[14.98847500239277,46.602275582978315],[14.98475306111121,46.60328168364621],[14.984843132108168,46.604706354646034],[14.98621285845303,46.605536930997914]],[[14.998386898773031,46.60393854729985],[14.994062470769215,46.60745678201038],[14.99240912717053,46.607020652433704],[14.996703752646788,46.603364520724796],[14.998386898773031,46.60393854729985]],[[14.989953249911917,46.60886222845303],[14.99171339428669,46.60713739394225],[14.993106413767563,46.607849465737054],[14.99042232683371,46.60913463774912],[14.989953249911917,46.60886222845303]],[[14.992225460904134,46.60962279087895],[14.991982783763213,46.61051246582314],[14.990345306468303,46.60954910789269],[14.992225460904134,46.60962279087895]]]}},{"type":"Feature","properties":{"_zoneType":"SI_BUILT","name":"Pozidano zemljišče","authority":"MKGP","dataSource":"raba-3000"},"geometry":{"type":"Polygon","coordinates":[[[14.998707015704126,46.615354040791466],[14.99955007048845,46.61607135551737],[14.99908248749638,46.61702397671955],[14.999999999999998,46.61733846160669],[14.99998647878855,46.61611186249568],[14.998956509889124,46.6153094198493],[14.998707015704126,46.615354040791466]]]}},{"type":"Feature","properties":{"_zoneType":"SI_BUILT","name":"Pozidano zemljišče","authority":"MKGP","dataSource":"raba-3000"},"geometry":{"type":"Polygon","coordinates":[[[14.999999999999998,46.61821734008222],[14.999999999999998,46.61783685874697],[14.999961231063965,46.61800499609333],[14.999999999999998,46.61821734008222]]]}},{"type":"Feature","properties":{"_zoneType":"SI_BUILT","name":"Pozidano zemljišče","authority":"MKGP","dataSource":"raba-3000"},"geometry":{"type":"Polygon","coordinates":[[[14.99994624642193,46.622572714276366],[14.999773071649145,46.621565146373484],[14.998433677916115,46.62115401461242],[14.99994624642193,46.622572714276366]]]}},{"type":"Feature","properties":{"_zoneType":"SI_BUILT","name":"Pozidano zemljišče","authority":"MKGP","dataSource":"raba-3000"},"geometry":{"type":"Polygon","coordinates":[[[14.999999999999998,46.60788739880686],[14.998799769103782,46.6062088119722],[14.999924078506227,46.60458177353616],[14.998407423382758,46.60614489637596],[14.999999999999998,46.60788739880686]]]}},{"type":"Feature","properties":{"_zoneType":"SI_BUILT","name":"Pozidano zemljišče","authority":"MKGP","dataSource":"raba-3000"},"geometry":{"type":"Polygon","coordinates":[[[14.997087106056764,46.610420278806956],[14.999999999999998,46.610112389744245],[14.999994765336256,46.6086936374251],[14.998420052479698,46.60873245362675],[14.997087106056764,46.610420278806956]]]}},{"type":"Feature","properties":{"_zoneType":"SI_BUILT","name":"Pozidano zemljišče","authority":"MKGP","dataSource":"raba-3000"},"geometry":{"type":"Polygon","coordinates":[[[14.987919363428192,46.60150163820993],[14.98804590755262,46.60167573384981],[14.98821241511593,46.601392306450016],[14.987919363428192,46.60150163820993]]]}},{"type":"Feature","properties":{"_zoneType":"SI_BUILT","name":"Pozidano zemljišče","authority":"MKGP","dataSource":"raba-3000"},"geometry":{"type":"Polygon","coordinates":[[[14.989299826619487,46.600692461222],[14.989439276702344,46.60085611242935],[14.989585826820566,46.6005653847462],[14.989299826619487,46.600692461222]]]}},{"type":"Feature","properties":{"_zoneType":"SI_BUILT","name":"Pozidano zemljišče","authority":"MKGP","dataSource":"raba-3000"},"geometry":{"type":"Polygon","coordinates":[[[14.922578858997552,46.61599815383469],[14.925753358942075,46.61714352307665],[14.924372690609074,46.61761890324833],[14.924152642927059,46.61892082373809],[14.925865139515844,46.61981727717977],[14.926636540695888,46.619385732219584],[14.924582082127184,46.618298205207175],[14.927600151365594,46.61679722518022],[14.9251221679513,46.616016664564455],[14.934609152511328,46.613878221017224],[14.934425984343399,46.61538604350313],[14.935726325565541,46.61797763529029],[14.936781958829444,46.61826791970052],[14.936629959172636,46.61922188183078],[14.940844463645671,46.61722113676464],[14.938978270421421,46.61668452811615],[14.940019776738918,46.61509030998379],[14.94520665806619,46.61382593079896],[14.943826165883923,46.61282860505821],[14.944319421353736,46.61167458467675],[14.943929959942109,46.61091749421187],[14.945742253976986,46.6113219360248],[14.942779048654769,46.60921702688878],[14.943370448396257,46.60767816170471],[14.946255389243833,46.60900850498405],[14.948713942637548,46.611739448447956],[14.950800786956767,46.6119657914606],[14.952502520401406,46.61457269440937],[14.952036418159844,46.61517892100202],[14.949741533568465,46.61435546385962],[14.950420605979721,46.61550802441585],[14.952278852363746,46.61573528555037],[14.952143415879727,46.61725124251658],[14.950376551640153,46.61873222129085],[14.945120778856653,46.61862709739468],[14.944891017950338,46.61980546210411],[14.945843735453172,46.62064312280795],[14.94323062815583,46.623251305277904],[14.947038229708651,46.62174372375122],[14.951448764639437,46.62512317874518],[14.950115814066391,46.626564865252845],[14.951498282222035,46.6275461438054],[14.950659950518133,46.62644611481375],[14.953153892826775,46.62446862135266],[14.95690522097971,46.62678273234745],[14.953365281407278,46.62414026184561],[14.9517596539944,46.62492308660248],[14.950053733104138,46.62386503160997],[14.951412836503533,46.62231179661725],[14.956047290581509,46.624766554776514],[14.954678780922778,46.6226337315484],[14.959380496762575,46.62105378598363],[14.96,46.621417047011114],[14.96,46.619659784716355],[14.959376020169328,46.61849095972252],[14.96,46.618190492223974],[14.96,46.617821619697686],[14.958301835969127,46.61866159457747],[14.957002602021065,46.62013538996103],[14.952904431589241,46.620632820021704],[14.951197864265891,46.61890439637403],[14.953662232690808,46.617258873305175],[14.955750096515814,46.61744155908372],[14.954094349799313,46.61694265276848],[14.95456428408366,46.61551522332037],[14.957491966383511,46.614070639115134],[14.951914438690336,46.61255957208349],[14.952446546209229,46.610792708643835],[14.9535810209471,46.61036590542109],[14.95523120354522,46.61163800679939],[14.954585704491379,46.6098157936],[14.951810791487002,46.610772046137775],[14.94536889279501,46.60830221841819],[14.948917543208214,46.60806112366027],[14.950439056628221,46.60701274450642],[14.951469754357836,46.607315722523175],[14.952205117103482,46.609572761255755],[14.955273747129052,46.60849371200323],[14.956498711592378,46.6095520576187],[14.958735865373045,46.60645900588127],[14.958735352735507,46.60553418927612],[14.96,46.605323141247844],[14.96,46.60481610150711],[14.958171534276234,46.605500780663355],[14.957480715258495,46.607822008094494],[14.954449142974617,46.608156345965035],[14.956006309552523,46.60593001204285],[14.955811579967841,46.60481842097824],[14.957010457093109,46.604785117896185],[14.956436558370116,46.604213898173334],[14.957465773538553,46.60348484764898],[14.957769174285353,46.60150547987084],[14.953769927725096,46.60428004382166],[14.949367221631269,46.603707861972175],[14.951213625695988,46.604648280998724],[14.955349890556871,46.60417078665046],[14.955655479765444,46.605893907476315],[14.95358830689279,46.60820323263398],[14.950489407392025,46.60669474325574],[14.948556662047293,46.60786911635437],[14.943455007157594,46.60690628572281],[14.942310479821373,46.6096158586518],[14.94114050997518,46.60970381268504],[14.940145707493661,46.60782973275155],[14.940796758522874,46.60612682398759],[14.940099385302581,46.60606055629489],[14.93974268794421,46.607876183249694],[14.940595491483483,46.609716147754185],[14.942766469894147,46.61001485404368],[14.943931890878156,46.611715842442],[14.942562298883667,46.6133866918833],[14.942155056795915,46.61174472984751],[14.94107958798807,46.61086474903852],[14.939217587911378,46.61107284436022],[14.941775052391288,46.61204409841512],[14.94193932545551,46.61363225110567],[14.937493584091117,46.61587190216834],[14.937507451846486,46.61752771724156],[14.934775450948951,46.61529271941619],[14.93756960945422,46.61189659317657],[14.935937730275645,46.60772212960295],[14.936791284627343,46.60479492940329],[14.935610183984421,46.60377768543843],[14.935118723264994,46.60428583032505],[14.936179439047978,46.60507330175317],[14.93534313025911,46.60778240459857],[14.936852425095704,46.612434419765556],[14.933351395511911,46.61400721824399],[14.931005567725018,46.61264731976846],[14.930033002158334,46.61381211998192],[14.923815591982903,46.61406431552457],[14.929657269440902,46.61423247781896],[14.922578858997552,46.61599815383469]],[[14.959099939031335,46.61924443882423],[14.959370573734125,46.620027274476016],[14.957819701239938,46.619819092639936],[14.959099939031335,46.61924443882423]],[[14.955301479586867,46.614508478252596],[14.954050522486732,46.61548878461764],[14.953045084996068,46.61497064656746],[14.952663582239506,46.61314986960636],[14.955301479586867,46.614508478252596]],[[14.951879537912554,46.60849048736772],[14.952117587471097,46.608101332084864],[14.9525944814509,46.608688585340296],[14.951879537912554,46.60849048736772]],[[14.951940743573472,46.62081157948286],[14.949878428046167,46.62068870241475],[14.950968349551376,46.61955556624443],[14.951940743573472,46.62081157948286]],[[14.951341265212893,46.621940327904],[14.949383787670854,46.62341549690588],[14.947528137007783,46.62141364172321],[14.948894013889415,46.62053262666536],[14.951341265212893,46.621940327904]]]}},{"type":"Feature","properties":{"_zoneType":"SI_BUILT","name":"Pozidano zemljišče","authority":"MKGP","dataSource":"raba-3000"},"geometry":{"type":"Polygon","coordinates":[[[14.964472221654475,46.62403944466006],[14.960639388272039,46.62144095328431],[14.961597296096631,46.62062472342948],[14.96051799478192,46.62007188659958],[14.962422155011394,46.6188220818376],[14.960102521117703,46.6198518249697],[14.96,46.619659784716355],[14.96,46.621417047011114],[14.964472221654475,46.62403944466006]]]}},{"type":"Feature","properties":{"_zoneType":"SI_BUILT","name":"Pozidano zemljišče","authority":"MKGP","dataSource":"raba-3000"},"geometry":{"type":"Polygon","coordinates":[[[14.965014656437736,46.61577576469296],[14.967647904559092,46.620983538708366],[14.971426349470443,46.62027265490192],[14.972636832612844,46.61703501134286],[14.969404762597787,46.61706994985612],[14.96725385812958,46.616044069578244],[14.96888086858985,46.61484970226292],[14.965436722572205,46.6150805636471],[14.967885313949703,46.61266202694394],[14.969085494388077,46.61336635104131],[14.96906350994686,46.611067652022804],[14.973563440843964,46.61066993636903],[14.973709579709187,46.60815258196155],[14.9791969736367,46.6002715904461],[14.979703654157003,46.6],[14.97922527925167,46.6],[14.978646214915177,46.60032571024079],[14.974061262659301,46.60714588950841],[14.973000894571221,46.60706658183456],[14.965874487724568,46.61421114165198],[14.96425463149397,46.613648998828715],[14.964958388146417,46.61257638850105],[14.96273103522414,46.61276414106113],[14.96161682107185,46.611368229826155],[14.962141009038252,46.608252423448455],[14.961050929382978,46.606730801947],[14.963855405957249,46.60797023953464],[14.964125914082127,46.609727221521155],[14.96789724041469,46.60740645366975],[14.968712177950765,46.60665565732589],[14.968700647898196,46.60549582426157],[14.970652660455745,46.604439604678305],[14.972282655497379,46.602614244602684],[14.970824925849918,46.60108472846459],[14.971036966501446,46.6],[14.970311239530997,46.6],[14.96939996949568,46.60062533803768],[14.969063813610026,46.602713587467925],[14.966429322826096,46.60187213741729],[14.966572152014622,46.6],[14.964984219812589,46.6],[14.966461704740063,46.6023865217727],[14.969451025406395,46.60434388188777],[14.968278479821983,46.6055606032018],[14.96829918659192,46.60669798502528],[14.966113649347676,46.60762100057488],[14.964459669093355,46.606004525021625],[14.966191069918588,46.60605671581495],[14.966293664723683,46.605362555344485],[14.963578562464214,46.60504770663159],[14.965320634229244,46.60752019086163],[14.964720423820912,46.60801407774088],[14.961955799353236,46.605672604640446],[14.961584695858322,46.6029182611909],[14.960162237781988,46.60475535066763],[14.96,46.60481610150711],[14.96,46.605323141247844],[14.96043377347647,46.605250751863466],[14.960124385516139,46.606755147965856],[14.961386411329281,46.60828654137715],[14.96097305258619,46.61060619775414],[14.96336266092424,46.61477004791945],[14.961635286272875,46.61522554386201],[14.9620966678952,46.61678453003427],[14.96,46.617821619697686],[14.96,46.618190492223974],[14.965014656437736,46.61577576469296]],[[14.971346506216166,46.60257336568689],[14.97025221778795,46.60434850579587],[14.969366396807137,46.60353914706354],[14.970322309795607,46.6020298989944],[14.971346506216166,46.60257336568689]],[[14.96784479873718,46.61657997244579],[14.969994160831266,46.61744403056559],[14.969856210450386,46.61848136637566],[14.96796168611648,46.618978834148734],[14.966710607341046,46.617050863844206],[14.96784479873718,46.61657997244579]],[[14.965150034866438,46.60844538278899],[14.96455758225388,46.60869594368104],[14.964791256267814,46.60807846104777],[14.965150034866438,46.60844538278899]]]}},{"type":"Feature","properties":{"_zoneType":"SI_BUILT","name":"Pozidano zemljišče","authority":"MKGP","dataSource":"raba-3000"},"geometry":{"type":"Polygon","coordinates":[[[14.937616843438555,46.60381665535633],[14.937134379336516,46.603592830532875],[14.936515588277961,46.603721402864736],[14.93742120480258,46.603905017167854],[14.937616843438555,46.60381665535633]]]}},{"type":"Feature","properties":{"_zoneType":"SI_BUILT","name":"Pozidano zemljišče","authority":"MKGP","dataSource":"raba-3000"},"geometry":{"type":"Polygon","coordinates":[[[14.972764375532005,46.61548536056958],[14.971604559944858,46.61587489527982],[14.970744055651673,46.61571931325865],[14.97200590441424,46.61630612432202],[14.972764375532005,46.61548536056958]]]}},{"type":"Feature","properties":{"_zoneType":"SI_BUILT","name":"Pozidano zemljišče","authority":"MKGP","dataSource":"raba-3000"},"geometry":{"type":"Polygon","coordinates":[[[14.965238776565352,46.62264843415656],[14.965003272830119,46.6225271956962],[14.965039255402553,46.62299630343686],[14.965238776565352,46.62264843415656]]]}},{"type":"Feature","properties":{"_zoneType":"SI_BUILT","name":"Pozidano zemljišče","authority":"MKGP","dataSource":"raba-3000"},"geometry":{"type":"Polygon","coordinates":[[[14.87394065510789,46.60193677874187],[14.874257448723014,46.60327621506592],[14.87206192568394,46.60260053810156],[14.872468430834608,46.60365740483272],[14.871545446893265,46.604049819638455],[14.874932067669775,46.60413017087306],[14.87502518487046,46.60584334745206],[14.876811637617106,46.607440720529745],[14.878578027133258,46.605811076670285],[14.88,46.606796543328755],[14.88,46.60577349740718],[14.879646083292318,46.605384488654025],[14.877792497102677,46.605229616703646],[14.876716598648663,46.60691039181064],[14.875284336252443,46.60554958789785],[14.87660595313624,46.60369615054841],[14.874309707245791,46.602182512283385],[14.875589833666648,46.60107531673683],[14.875237311174264,46.6],[14.874787748166751,46.6],[14.87511309628973,46.60090586828153],[14.87394065510789,46.60193677874187]]]}},{"type":"Feature","properties":{"_zoneType":"SI_BUILT","name":"Pozidano zemljišče","authority":"MKGP","dataSource":"raba-3000"},"geometry":{"type":"Polygon","coordinates":[[[14.881452386397902,46.60780308740834],[14.8835726331927,46.60811313106368],[14.884334969333363,46.61005619377242],[14.884448062257036,46.6083479490811],[14.888784132849143,46.610821366087755],[14.888640182152422,46.61009439669775],[14.890582193881832,46.61011970187859],[14.893741755958494,46.6066189226311],[14.895682310312703,46.608756255827366],[14.897244952717543,46.607228093514],[14.89852330396956,46.60796276918052],[14.901247673082782,46.607592611080435],[14.90092118772263,46.606239387533826],[14.907040930533892,46.60405478292414],[14.902791421139552,46.604904767811554],[14.900513256584615,46.60248482022099],[14.900720275869979,46.60081541369034],[14.90579966032833,46.60008166405716],[14.905700380693467,46.6],[14.902796432136492,46.6],[14.90056551952033,46.600559061878684],[14.899914156160923,46.6],[14.899428730095424,46.6],[14.899773416230701,46.600223944970544],[14.900115170155289,46.60150955256376],[14.896281606707648,46.60400935969358],[14.889029084737414,46.604341748966334],[14.884187032131155,46.6],[14.882361186543234,46.6],[14.888746628431871,46.60452789292454],[14.896281404184009,46.60428712094484],[14.899833563546919,46.60252515489676],[14.90227175111945,46.60505441361245],[14.901190026433065,46.60565770378034],[14.898130588413306,46.60491608082526],[14.90042891921401,46.606238979124036],[14.900237455846693,46.607391585536135],[14.89879451959095,46.60772690914547],[14.897329418903338,46.60691777343625],[14.895295478023739,46.607655013451634],[14.894413358712388,46.605946333207115],[14.89097903729973,46.60745638015161],[14.889819351051598,46.6063661480231],[14.8911282233191,46.608311604678164],[14.88973328655022,46.60976911924506],[14.886356531852966,46.6093967880596],[14.883887101135517,46.607718516632204],[14.881661555892144,46.60759980221809],[14.88,46.60577349740718],[14.88,46.606796543328755],[14.881452386397902,46.60780308740834]]]}},{"type":"Feature","properties":{"_zoneType":"SI_BUILT","name":"Pozidano zemljišče","authority":"MKGP","dataSource":"raba-3000"},"geometry":{"type":"Polygon","coordinates":[[[14.910663047635325,46.601953692904324],[14.909337986813004,46.6],[14.908965274511907,46.6],[14.910089083790114,46.603118166247015],[14.910663047635325,46.601953692904324]]]}},{"type":"Feature","properties":{"_zoneType":"SI_BUILT","name":"Pozidano zemljišče","authority":"MKGP","dataSource":"raba-3000"},"geometry":{"type":"Polygon","coordinates":[[[14.92,46.60074909234869],[14.92,46.600534771008085],[14.91525842943135,46.600306840226786],[14.915181130520269,46.6],[14.914683527385932,46.6],[14.91531872333759,46.600605068124814],[14.92,46.60074909234869]]]}},{"type":"Feature","properties":{"_zoneType":"SI_BUILT","name":"Pozidano zemljišče","authority":"MKGP","dataSource":"raba-3000"},"geometry":{"type":"Polygon","coordinates":[[[14.921379528616411,46.60079153494558],[14.923197141692206,46.60030463619298],[14.9240422864521,46.601666567225415],[14.926484700677388,46.60065888808616],[14.931222508818704,46.60080331724338],[14.931132890802024,46.60416609610699],[14.929462166033336,46.60690724787918],[14.930822530613149,46.606844919053316],[14.930540868288812,46.605382786103576],[14.931642518135567,46.604349711055924],[14.93343995308812,46.60668947216516],[14.93438801228656,46.6053921436074],[14.932561534179339,46.60470870082372],[14.933100944654557,46.602864377879335],[14.93198731591367,46.601182203556725],[14.933578866207835,46.6],[14.931168068870742,46.6],[14.930337014920605,46.60068961350287],[14.926250526141716,46.60044421863739],[14.924014800043548,46.60123288405021],[14.923502294962832,46.6],[14.921655455167945,46.6],[14.920056604711593,46.600537492038164],[14.92,46.600534771008085],[14.92,46.60074909234869],[14.921379528616411,46.60079153494558]]]}},{"type":"Feature","properties":{"_zoneType":"SI_BUILT","name":"Pozidano zemljišče","authority":"MKGP","dataSource":"raba-3000"},"geometry":{"type":"Polygon","coordinates":[[[14.89267416854909,46.61059113767478],[14.891993459649305,46.60936137609035],[14.891010578102499,46.610896222210926],[14.89267416854909,46.61059113767478]]]}},{"type":"Feature","properties":{"_zoneType":"SI_BUILT","name":"Pozidano zemljišče","authority":"MKGP","dataSource":"raba-3000"},"geometry":{"type":"Polygon","coordinates":[[[14.938901129400138,46.600527729448],[14.939256653929908,46.6],[14.939195814695461,46.6],[14.93722341361806,46.60110983338004],[14.938901129400138,46.600527729448]]]}},{"type":"Feature","properties":{"_zoneType":"SI_BUILT","name":"Pozidano zemljišče","authority":"MKGP","dataSource":"raba-3000"},"geometry":{"type":"Polygon","coordinates":[[[14.895671800527385,46.60187617560974],[14.895807530934519,46.602022904358776],[14.895936806904173,46.60177070217693],[14.895671800527385,46.60187617560974]]]}},{"type":"Feature","properties":{"_zoneType":"SI_BUILT","name":"Pozidano zemljišče","authority":"MKGP","dataSource":"raba-3000"},"geometry":{"type":"Polygon","coordinates":[[[14.895165302607033,46.60958369453432],[14.895287530245858,46.609771736265486],[14.895438449538375,46.60950878227519],[14.895165302607033,46.60958369453432]]]}},{"type":"Feature","properties":{"_zoneType":"SI_BUILT","name":"Pozidano zemljišče","authority":"MKGP","dataSource":"raba-3000"},"geometry":{"type":"Polygon","coordinates":[[[14.894481643491936,46.60062773608773],[14.89372040448778,46.60001694083081],[14.89282983865896,46.60031731741118],[14.893982654181112,46.60084604880221],[14.894481643491936,46.60062773608773]]]}},{"type":"Feature","properties":{"_zoneType":"SI_BUILT","name":"Pozidano zemljišče","authority":"MKGP","dataSource":"raba-3000"},"geometry":{"type":"Polygon","coordinates":[[[14.87976362738216,46.602702559816066],[14.879743318925561,46.604205012933804],[14.88,46.60388464257348],[14.88,46.6025023927464],[14.87976362738216,46.602702559816066]]]}},{"type":"Feature","properties":{"_zoneType":"SI_BUILT","name":"Pozidano zemljišče","authority":"MKGP","dataSource":"raba-3000"},"geometry":{"type":"Polygon","coordinates":[[[14.88183837412422,46.60353817898011],[14.881318179191922,46.60199222012362],[14.884504206483943,46.60292209207588],[14.882936040098862,46.60401167476211],[14.885102937001932,46.60290078709638],[14.880910536224462,46.60173132472026],[14.88,46.6025023927464],[14.88,46.60388464257348],[14.880757688268169,46.60293895203508],[14.88183837412422,46.60353817898011]]]}},{"type":"Feature","properties":{"_zoneType":"SI_BUILT","name":"Pozidano zemljišče","authority":"MKGP","dataSource":"raba-3000"},"geometry":{"type":"Polygon","coordinates":[[[14.88302567416736,46.610424905061166],[14.880966267191628,46.61019661522167],[14.880765544203415,46.61077402948652],[14.882323636076494,46.61087760408534],[14.88302567416736,46.610424905061166]]]}},{"type":"Feature","properties":{"_zoneType":"SI_BUILT","name":"Pozidano zemljišče","authority":"MKGP","dataSource":"raba-3000"},"geometry":{"type":"Polygon","coordinates":[[[14.869871888938132,46.60306320187559],[14.869865490271485,46.60156915225664],[14.867776191199717,46.601954164277934],[14.869871888938132,46.60306320187559]]]}}]}