{"type":"FeatureCollection","features":[{"type":"Feature","properties":{"_zoneType":"SI_BUILT","name":"Pozidano zemljišče","authority":"MKGP","dataSource":"raba-3000"},"geometry":{"type":"Polygon","coordinates":[[[16.412654493479693,46.62761505729512],[16.41036718254353,46.623016127402465],[16.41131722459557,46.622133952398336],[16.41006956844158,46.622329296268276],[16.408713095077808,46.619475124076715],[16.406371682883186,46.61881704234394],[16.40571725156438,46.61671820477788],[16.41834583607697,46.61705979743113],[16.416981326728997,46.618645150943756],[16.41939945314875,46.61702535295497],[16.421570226141434,46.61685422255257],[16.420659470888246,46.61648945749112],[16.42008386967217,46.61059435583887],[16.417971133948296,46.60806213132057],[16.42045581956148,46.607277296659404],[16.42647927562598,46.611616786794706],[16.434914889235106,46.61182630252196],[16.436948215408602,46.60921399689112],[16.438747377881697,46.60348328766627],[16.44,46.602982063025294],[16.44,46.602488555375814],[16.43876696078991,46.60286697065366],[16.436786198585203,46.6],[16.436382127699158,46.6],[16.438591121060686,46.60316503421259],[16.436566082434084,46.60928387526325],[16.434533756906205,46.61159023590759],[16.426722991340576,46.611431672835096],[16.42340306455804,46.609339641615776],[16.42836888764004,46.606263007220115],[16.433434226915296,46.60153452668966],[16.435004116109603,46.601064200498286],[16.43582798090285,46.60200411878642],[16.435686574548853,46.601037102828705],[16.434392779672347,46.600918782260614],[16.433177754554492,46.601390442898015],[16.429992053023476,46.604421336773115],[16.428950261528698,46.60425995144708],[16.429738636600817,46.6017585114939],[16.429093551584675,46.6],[16.427667456272,46.6],[16.42658838514097,46.60218651162279],[16.423047120042476,46.60032558040239],[16.424180899189604,46.6],[16.423170050159978,46.6],[16.421572883073928,46.60058539547796],[16.418917816798903,46.60343107436264],[16.416774320992715,46.60247441171026],[16.419725561378492,46.6],[16.419380652048815,46.6],[16.41688093013961,46.60186156093809],[16.41297607106589,46.600285951162135],[16.411192269080832,46.600537562119264],[16.410727237393846,46.6],[16.409656794584993,46.6],[16.40966498691932,46.60019413500816],[16.40801340642043,46.600703962799706],[16.407555285193787,46.6034066305972],[16.40261326062414,46.60690396549863],[16.40017487882555,46.610219400658714],[16.400000000000002,46.61019585119017],[16.400000000000002,46.61158586460881],[16.40276169063088,46.60715529438837],[16.405470494778374,46.60514036025134],[16.409874189730647,46.607459824840966],[16.409059353581934,46.60863639809249],[16.410398258794213,46.60787415334313],[16.411687345237397,46.60864698441138],[16.408212168414202,46.611546565279205],[16.40847029619754,46.61251190985908],[16.404935003960954,46.614789370735046],[16.402449411529826,46.61441753166328],[16.400000000000002,46.61206193327456],[16.400000000000002,46.6125806022987],[16.402766611007557,46.61514771527752],[16.40133350989679,46.61630979259713],[16.400000000000002,46.616379943134305],[16.400000000000002,46.617032210282055],[16.401948568365107,46.61699127136463],[16.400000000000002,46.61899801170966],[16.400000000000002,46.61965761050221],[16.40188507357904,46.620920114446065],[16.402930428390263,46.62314337817843],[16.400000000000002,46.62506106911989],[16.400000000000002,46.62538987578474],[16.40290092422347,46.62349764445477],[16.404896874712758,46.62547743318512],[16.400000000000002,46.62837213460767],[16.400000000000002,46.629550579128804],[16.40959247278191,46.62288427314105],[16.412654493479693,46.62761505729512]],[[16.428493340983106,46.60423215927255],[16.42942143277127,46.604944374761686],[16.423141346179317,46.60889168415915],[16.420904585591302,46.60727139699089],[16.424193674629986,46.6040836235525],[16.428087895495786,46.60294507002114],[16.428493340983106,46.60423215927255]],[[16.42481687345384,46.602364409948265],[16.42377392304204,46.602963181088995],[16.422074341419208,46.60161119290293],[16.42298977502934,46.60099802444363],[16.42481687345384,46.602364409948265]],[[16.424104668917497,46.60361020833847],[16.421560045702734,46.606086514813484],[16.419746119006895,46.60488682535831],[16.421282370685127,46.60249510357066],[16.424104668917497,46.60361020833847]],[[16.421025007061058,46.60654981276047],[16.4190542699012,46.60707754971197],[16.417785140390134,46.60584828894014],[16.419392436759402,46.60525957646145],[16.421025007061058,46.60654981276047]],[[16.417481034382654,46.60853844718265],[16.419706682978898,46.61060869556986],[16.42026862577709,46.61603581859156],[16.41583337257107,46.616622922214816],[16.410638247153518,46.61294926282352],[16.417481034382654,46.60853844718265]],[[16.418683532826186,46.607453120443054],[16.417039387107877,46.6071191601222],[16.418598200500092,46.60710928653833],[16.418683532826186,46.607453120443054]],[[16.41379744559539,46.60320051348438],[16.41298843346888,46.60196320537677],[16.414512576265015,46.601792553449584],[16.418334404081698,46.603891548172186],[16.412705425233185,46.608875057940736],[16.41158120703203,46.60809899821612],[16.41234105371936,46.60727526644917],[16.41087095659588,46.60773771690444],[16.406209686040963,46.604997674185206],[16.408032107065136,46.603230991332964],[16.408496329857133,46.601389588198636],[16.40931726030399,46.60097674249857],[16.41272519580523,46.60356429862021],[16.41379744559539,46.60320051348438]],[[16.417487824730085,46.60777720264883],[16.416737437760027,46.608396777232834],[16.41640303137512,46.60729643560722],[16.417487824730085,46.60777720264883]],[[16.41621137581706,46.60873097682283],[16.415382781895758,46.60927829911198],[16.415653155563792,46.60839965779666],[16.41621137581706,46.60873097682283]],[[16.41497201548576,46.609475562270454],[16.41174222165568,46.611948850223314],[16.41109652419461,46.61146183072154],[16.414045211920776,46.609389658568595],[16.41497201548576,46.609475562270454]],[[16.414904130551676,46.61630478790476],[16.407127716626498,46.616387939348876],[16.40577012842107,46.61525624207754],[16.40918247346275,46.61262589427226],[16.414904130551676,46.61630478790476]],[[16.40783027413192,46.620251055691064],[16.40965706857102,46.62233380393654],[16.405420803917636,46.62506489191533],[16.403795712717276,46.622461641695615],[16.404474496774544,46.621235673645174],[16.40783027413192,46.620251055691064]],[[16.403296628265903,46.61691628091319],[16.404601931415222,46.61737727994275],[16.404748912892618,46.619600725659566],[16.401694153944987,46.620132171894056],[16.40078756842998,46.61858588230421],[16.403296628265903,46.61691628091319]]]}},{"type":"Feature","properties":{"_zoneType":"SI_BUILT","name":"Pozidano zemljišče","authority":"MKGP","dataSource":"raba-3000"},"geometry":{"type":"Polygon","coordinates":[[[16.432276168114303,46.6],[16.43177689648186,46.6],[16.431023431334438,46.60160581926904],[16.432276168114303,46.6]]]}},{"type":"Feature","properties":{"_zoneType":"SI_BUILT","name":"Pozidano zemljišče","authority":"MKGP","dataSource":"raba-3000"},"geometry":{"type":"Polygon","coordinates":[[[16.400000000000002,46.6],[16.400000000000002,46.600342268397185],[16.403001413506885,46.6],[16.400000000000002,46.6]]]}},{"type":"Feature","properties":{"_zoneType":"SI_BUILT","name":"Pozidano zemljišče","authority":"MKGP","dataSource":"raba-3000"},"geometry":{"type":"Polygon","coordinates":[[[16.41833678158464,46.67612189868528],[16.410572995047367,46.67913533424168],[16.409090894792122,46.677674365722396],[16.409854698465267,46.67935486489047],[16.408272186115468,46.68],[16.409473138257795,46.68],[16.41833678158464,46.67612189868528]]]}},{"type":"Feature","properties":{"_zoneType":"SI_BUILT","name":"Pozidano zemljišče","authority":"MKGP","dataSource":"raba-3000"},"geometry":{"type":"Polygon","coordinates":[[[16.407032296955112,46.67965910982605],[16.40820717481789,46.67895106506927],[16.405016932177226,46.679660275466865],[16.405213469676124,46.67812178677517],[16.40353337000962,46.676139583070935],[16.40634357398749,46.67521152950996],[16.403282457843115,46.67564250347345],[16.40063815423831,46.6743396892041],[16.40500885389099,46.67279511822461],[16.411921338988012,46.67371047740401],[16.422947420614893,46.67024699702981],[16.41191380866197,46.67346626649076],[16.404928553835145,46.67256917545091],[16.400222173659536,46.67400971421896],[16.400000000000002,46.67385069509366],[16.400000000000002,46.67430350822317],[16.40295513966397,46.67586096687958],[16.404016349167435,46.678380581692004],[16.400000000000002,46.67951533774538],[16.400000000000002,46.68],[16.40012623321664,46.68],[16.402226561259738,46.67903089670475],[16.404196810436797,46.67907400639059],[16.40466493237213,46.68],[16.40730391750891,46.68],[16.407032296955112,46.67965910982605]]]}},{"type":"Feature","properties":{"_zoneType":"SI_BUILT","name":"Pozidano zemljišče","authority":"MKGP","dataSource":"raba-3000"},"geometry":{"type":"Polygon","coordinates":[[[16.400000000000002,46.69384941022802],[16.400000000000002,46.69411606282138],[16.403838535732394,46.69353351165781],[16.400000000000002,46.69384941022802]]]}},{"type":"Feature","properties":{"_zoneType":"SI_BUILT","name":"Pozidano zemljišče","authority":"MKGP","dataSource":"raba-3000"},"geometry":{"type":"Polygon","coordinates":[[[16.400000000000002,46.69182460912616],[16.400000000000002,46.69211875801468],[16.407429701151564,46.689937262280914],[16.400000000000002,46.69182460912616]]]}},{"type":"Feature","properties":{"_zoneType":"SI_BUILT","name":"Pozidano zemljišče","authority":"MKGP","dataSource":"raba-3000"},"geometry":{"type":"Polygon","coordinates":[[[16.4149546661299,46.69551912616682],[16.416920134047874,46.69597200657499],[16.42264016126895,46.69442895005906],[16.420443141126718,46.69129343543482],[16.423265931680266,46.68985248002011],[16.420060317250613,46.691152206698874],[16.421768882272087,46.69429619418836],[16.41685576217537,46.69574664291708],[16.415527823592186,46.69529113784108],[16.411282463596592,46.68697803691773],[16.41595391558647,46.684885910368024],[16.41753264383012,46.687096843667746],[16.41656356699763,46.684680401866316],[16.41857152632768,46.68363043826788],[16.411318092950633,46.68642919631364],[16.409420130756693,46.68413414100123],[16.4176353396498,46.680348649365094],[16.40909325388683,46.68372558446525],[16.406795250678375,46.68117165356947],[16.409473138257795,46.68],[16.408272186115468,46.68],[16.407541321763063,46.68029794791434],[16.40730391750891,46.68],[16.40466493237213,46.68],[16.404758562501975,46.680185210081696],[16.400670603470562,46.681126377682645],[16.400000000000002,46.68092915347823],[16.400000000000002,46.68207143560114],[16.401219536740456,46.68126941913238],[16.405308240643528,46.68059175338914],[16.406945095024096,46.682163879229975],[16.400329670165302,46.68408832467755],[16.400000000000002,46.68423943623276],[16.400000000000002,46.68455924333378],[16.400449529291187,46.684321526564965],[16.40685908271677,46.68268965448651],[16.40940292608344,46.68476281833143],[16.400000000000002,46.68757346710829],[16.400000000000002,46.68792695189295],[16.4093188821168,46.68526883012731],[16.4149546661299,46.69551912616682]]]}},{"type":"Feature","properties":{"_zoneType":"SI_BUILT","name":"Pozidano zemljišče","authority":"MKGP","dataSource":"raba-3000"},"geometry":{"type":"Polygon","coordinates":[[[16.400000000000002,46.68005824472354],[16.40012623321664,46.68],[16.400000000000002,46.68],[16.400000000000002,46.68005824472354]]]}},{"type":"Feature","properties":{"_zoneType":"SI_BUILT","name":"Pozidano zemljišče","authority":"MKGP","dataSource":"raba-3000"},"geometry":{"type":"Polygon","coordinates":[[[16.442079323388366,46.602150041856596],[16.444199240892438,46.60407654959864],[16.44224635186481,46.60179915810597],[16.44,46.602488555375814],[16.44,46.602982063025294],[16.442079323388366,46.602150041856596]]]}},{"type":"Feature","properties":{"_zoneType":"SI_BUILT","name":"Pozidano zemljišče","authority":"MKGP","dataSource":"raba-3000"},"geometry":{"type":"Polygon","coordinates":[[[16.413366425226297,46.60656441038631],[16.41355450531432,46.60666835707499],[16.414226522839872,46.606210111619575],[16.413366425226297,46.60656441038631]]]}}]}