{"type":"FeatureCollection","features":[{"type":"Feature","properties":{"_zoneType":"SI_BUILT","name":"Pozidano zemljišče","authority":"MKGP","dataSource":"raba-3000"},"geometry":{"type":"Polygon","coordinates":[[[13.591076762420146,46.42169381114971],[13.59359018249739,46.42399758302941],[13.598472191340061,46.425864053210674],[13.599638390595409,46.42530946798009],[13.6,46.42538518490938],[13.6,46.42465435449629],[13.597494015341598,46.4239445760629],[13.598133112445455,46.42497596818533],[13.597080956703117,46.42504445813469],[13.59451725667476,46.42303899321932],[13.59828893117463,46.42099768592765],[13.6,46.420543590787055],[13.6,46.42025255670209],[13.598280209836316,46.42071299030571],[13.594004362343943,46.422844284191626],[13.588823639589114,46.42043229020551],[13.58618175301092,46.420703547414774],[13.583523252996946,46.420122206274556],[13.583507660961947,46.41909705361668],[13.57831001101904,46.41885239702805],[13.586550053392429,46.42133777722393],[13.591076762420146,46.42169381114971]]]}},{"type":"Feature","properties":{"_zoneType":"SI_BUILT","name":"Pozidano zemljišče","authority":"MKGP","dataSource":"raba-3000"},"geometry":{"type":"Polygon","coordinates":[[[13.597402108004129,46.400000000000006],[13.595583523825253,46.400000000000006],[13.595957398743222,46.401637147153835],[13.598006088970566,46.40268664797594],[13.596079307959258,46.40501913549384],[13.597573971367,46.405414061057186],[13.599942380470683,46.40423850232489],[13.6,46.40429777348426],[13.6,46.403522488876966],[13.598487746469024,46.402151273325686],[13.6,46.402585766666505],[13.6,46.40196176739048],[13.598675269540228,46.401405531356545],[13.597402108004129,46.400000000000006]]]}},{"type":"Feature","properties":{"_zoneType":"SI_BUILT","name":"Pozidano zemljišče","authority":"MKGP","dataSource":"raba-3000"},"geometry":{"type":"Polygon","coordinates":[[[13.600000000000001,46.42538518490938],[13.600000000000001,46.42465435449629],[13.6,46.42465435449629],[13.6,46.42538518490938],[13.600000000000001,46.42538518490938]]]}},{"type":"Feature","properties":{"_zoneType":"SI_BUILT","name":"Pozidano zemljišče","authority":"MKGP","dataSource":"raba-3000"},"geometry":{"type":"Polygon","coordinates":[[[13.600000000000001,46.420543590787055],[13.600000000000001,46.42025255670209],[13.6,46.42025255670209],[13.6,46.420543590787055],[13.600000000000001,46.420543590787055]]]}},{"type":"Feature","properties":{"_zoneType":"SI_BUILT","name":"Pozidano zemljišče","authority":"MKGP","dataSource":"raba-3000"},"geometry":{"type":"Polygon","coordinates":[[[13.600000000000001,46.40429777348426],[13.600000000000001,46.403522488876966],[13.6,46.403522488876966],[13.6,46.40429777348426],[13.600000000000001,46.40429777348426]]]}},{"type":"Feature","properties":{"_zoneType":"SI_BUILT","name":"Pozidano zemljišče","authority":"MKGP","dataSource":"raba-3000"},"geometry":{"type":"Polygon","coordinates":[[[13.600000000000001,46.402585766666505],[13.600000000000001,46.40196176739048],[13.6,46.40196176739048],[13.6,46.402585766666505],[13.600000000000001,46.402585766666505]]]}},{"type":"Feature","properties":{"_zoneType":"SI_BUILT","name":"Pozidano zemljišče","authority":"MKGP","dataSource":"raba-3000"},"geometry":{"type":"Polygon","coordinates":[[[13.598720240811517,46.40576685659297],[13.598614817110116,46.40562355314548],[13.59844554835751,46.40586638746853],[13.598720240811517,46.40576685659297]]]}},{"type":"Feature","properties":{"_zoneType":"SI_BUILT","name":"Pozidano zemljišče","authority":"MKGP","dataSource":"raba-3000"},"geometry":{"type":"Polygon","coordinates":[[[13.594717004215317,46.40127908426889],[13.594936336230901,46.40141686266467],[13.594957712781799,46.401121755098],[13.594717004215317,46.40127908426889]]]}}]}