{"type":"FeatureCollection","features":[{"type":"Feature","properties":{"_zoneType":"SI_BUILT","name":"Pozidano zemljišče","authority":"MKGP","dataSource":"raba-3000"},"geometry":{"type":"Polygon","coordinates":[[[15.404404733784348,45.648477615183054],[15.40606955140645,45.649749933050266],[15.40657260455589,45.64924291924156],[15.404626531333655,45.647479954623854],[15.403386693617799,45.64841575852174],[15.4000069900021,45.64845742845031],[15.4,45.648209373258325],[15.4,45.64879096002562],[15.400021067521811,45.64878469262224],[15.404404733784348,45.648477615183054]]]}},{"type":"Feature","properties":{"_zoneType":"SI_BUILT","name":"Pozidano zemljišče","authority":"MKGP","dataSource":"raba-3000"},"geometry":{"type":"Polygon","coordinates":[[[15.403306715513759,45.64993969925988],[15.401068396396221,45.65029009105042],[15.402248144519522,45.65045960392501],[15.403306715513759,45.64993969925988]]]}},{"type":"Feature","properties":{"_zoneType":"SI_BUILT","name":"Pozidano zemljišče","authority":"MKGP","dataSource":"raba-3000"},"geometry":{"type":"Polygon","coordinates":[[[15.4,45.6450201602907],[15.400097797371155,45.64509438169206],[15.40001576843291,45.6448550515892],[15.4,45.644846156911925],[15.4,45.6450201602907]]]}},{"type":"Feature","properties":{"_zoneType":"SI_BUILT","name":"Pozidano zemljišče","authority":"MKGP","dataSource":"raba-3000"},"geometry":{"type":"Polygon","coordinates":[[[15.415431009705866,45.800000000000004],[15.415504106563914,45.800000000000004],[15.415734557500217,45.79963845571679],[15.415431009705866,45.800000000000004]]]}},{"type":"Feature","properties":{"_zoneType":"SI_BUILT","name":"Pozidano zemljišče","authority":"MKGP","dataSource":"raba-3000"},"geometry":{"type":"Polygon","coordinates":[[[15.4,45.79537814938807],[15.4,45.79561192533294],[15.401365033195573,45.796912216820246],[15.401043965496324,45.800000000000004],[15.401456057417821,45.800000000000004],[15.401741839543527,45.79687761434063],[15.4,45.79537814938807]]]}},{"type":"Feature","properties":{"_zoneType":"SI_BUILT","name":"Pozidano zemljišče","authority":"MKGP","dataSource":"raba-3000"},"geometry":{"type":"Polygon","coordinates":[[[15.464433876601355,45.799455761264795],[15.464283234796245,45.798709362131746],[15.464164152835027,45.79948479773738],[15.464433876601355,45.799455761264795]]]}},{"type":"Feature","properties":{"_zoneType":"SI_BUILT","name":"Pozidano zemljišče","authority":"MKGP","dataSource":"raba-3000"},"geometry":{"type":"Polygon","coordinates":[[[15.463191134862349,45.79813518801679],[15.462100310200103,45.79795222046008],[15.463037918372825,45.798254569871034],[15.463191134862349,45.79813518801679]]]}},{"type":"Feature","properties":{"_zoneType":"SI_BUILT","name":"Pozidano zemljišče","authority":"MKGP","dataSource":"raba-3000"},"geometry":{"type":"Polygon","coordinates":[[[15.457296196540984,45.797820022300954],[15.4569620716244,45.79764018311938],[15.457114345537239,45.797935803547645],[15.457296196540984,45.797820022300954]]]}},{"type":"Feature","properties":{"_zoneType":"SI_BUILT","name":"Pozidano zemljišče","authority":"MKGP","dataSource":"raba-3000"},"geometry":{"type":"Polygon","coordinates":[[[15.45711237776727,45.79600113372953],[15.457236740906394,45.7958576095863],[15.456442177070667,45.795123460215905],[15.45711237776727,45.79600113372953]]]}}]}