{"type":"FeatureCollection","features":[{"type":"Feature","properties":{"_zoneType":"SI_BUILT","name":"Pozidano zemljišče","authority":"MKGP","dataSource":"raba-3000"},"geometry":{"type":"Polygon","coordinates":[[[13.517671019413287,46.03018911168573],[13.51836516199011,46.03334086100899],[13.519840530037696,46.03398526464107],[13.519344172158757,46.03476586074583],[13.52,46.03583823515184],[13.52,46.03366056102215],[13.517671019413287,46.03018911168573]]]}},{"type":"Feature","properties":{"_zoneType":"SI_BUILT","name":"Pozidano zemljišče","authority":"MKGP","dataSource":"raba-3000"},"geometry":{"type":"Polygon","coordinates":[[[13.511542385140611,46.03458131409853],[13.508591443552495,46.03007096779456],[13.511200592739264,46.03472690576784],[13.51043459324775,46.03786822926799],[13.510581620675522,46.04],[13.511118803732872,46.04],[13.511542385140611,46.03458131409853]]]}},{"type":"Feature","properties":{"_zoneType":"SI_BUILT","name":"Pozidano zemljišče","authority":"MKGP","dataSource":"raba-3000"},"geometry":{"type":"Polygon","coordinates":[[[13.499812063509996,46.052017256126135],[13.497068677478739,46.051024001759075],[13.497792757054674,46.05164984803834],[13.497318012682605,46.05700862235798],[13.49783527893987,46.058567836432715],[13.50121430083508,46.05955902461509],[13.503416547846394,46.061805800184146],[13.507749690242122,46.06046156036926],[13.511728617486941,46.062231996194505],[13.51419661195314,46.06169303671017],[13.519420848348478,46.06307413712601],[13.52,46.06340031105948],[13.52,46.0630904759629],[13.519627676115684,46.062879443307466],[13.514309267876168,46.061459214752986],[13.511854961220351,46.062010361548396],[13.507740698641573,46.06022019475354],[13.503542750619554,46.06158262791993],[13.501757861359668,46.05959648412522],[13.498581713448521,46.05857047473421],[13.498010131067165,46.057545514648176],[13.500037974743952,46.05823730319249],[13.499596979455836,46.056676580856426],[13.502000788920155,46.057813890574984],[13.507027554613943,46.05704588524484],[13.511503543231099,46.05855791921633],[13.52,46.05479947442214],[13.52,46.05442186735303],[13.519884325471534,46.05465750648543],[13.511465185032618,46.05830202946728],[13.50715867427725,46.05678503047708],[13.501965292431958,46.0575645965043],[13.500888604032497,46.05687299658997],[13.500523025882377,46.0547797106365],[13.499082587646194,46.05592374578388],[13.498173778317945,46.05518005461501],[13.503727620856363,46.05347595024889],[13.506695054728471,46.05488699458633],[13.50332445404637,46.05302999322337],[13.500018963409122,46.053880366378905],[13.49779811997663,46.0530538307352],[13.498504808896934,46.05199601841705],[13.500638628729567,46.05313593420566],[13.502605233287374,46.0521086769913],[13.500287940587368,46.05125508303967],[13.500569038405512,46.049466220119236],[13.498669472516518,46.049011138964396],[13.503318194108619,46.048849000797766],[13.503087943241797,46.04760819521907],[13.501735451425018,46.048694262185805],[13.499038100252395,46.04768079760096],[13.497932180176614,46.04880814907516],[13.496303403376066,46.04863554360945],[13.500053620595548,46.05058524661086],[13.499812063509996,46.052017256126135]],[[13.49873167322876,46.05642176733178],[13.498022559646435,46.05670743787769],[13.498336195210793,46.05605574967203],[13.49873167322876,46.05642176733178]]]}},{"type":"Feature","properties":{"_zoneType":"SI_BUILT","name":"Pozidano zemljišče","authority":"MKGP","dataSource":"raba-3000"},"geometry":{"type":"Polygon","coordinates":[[[13.519767784579711,46.04574165408878],[13.519959437050197,46.04463876466082],[13.52,46.0446283933189],[13.52,46.044286739011305],[13.519048063972159,46.044541116674495],[13.512071361016213,46.04300926628674],[13.511804301861519,46.04206292208379],[13.512928954620262,46.04114416733539],[13.511092741741729,46.04033339929797],[13.511118803732872,46.04],[13.510581620675522,46.04],[13.510613036998192,46.04045550954807],[13.51143534461435,46.041057755758295],[13.510767627536111,46.042273037714],[13.511591228143997,46.04323966174297],[13.510554140341553,46.04391955260132],[13.516636740482506,46.04451199569196],[13.518818490553386,46.04676371325847],[13.519215436831118,46.049528607305966],[13.52,46.04968974008076],[13.52,46.049338810002716],[13.519546933638976,46.04939089859778],[13.519810810584946,46.04838555786376],[13.52,46.04860592774612],[13.52,46.04720309714621],[13.51958130179263,46.047297057800186],[13.52,46.04660138401001],[13.52,46.04580500039749],[13.519767784579711,46.04574165408878]],[[13.518867033752555,46.04627735660511],[13.518020587534156,46.04497806794505],[13.51950659231011,46.04519323362126],[13.518867033752555,46.04627735660511]]]}},{"type":"Feature","properties":{"_zoneType":"SI_BUILT","name":"Pozidano zemljišče","authority":"MKGP","dataSource":"raba-3000"},"geometry":{"type":"Polygon","coordinates":[[[13.550732088773085,46.03919636247893],[13.547372449450496,46.03718411929441],[13.544432728334412,46.0377005985566],[13.543605097319505,46.03582689151512],[13.544642303097541,46.03520179348232],[13.538432431305916,46.03463147808789],[13.537776273768804,46.0355362702199],[13.53622503680718,46.03527456669507],[13.531882447336983,46.032435457852934],[13.530076269997009,46.03274310264378],[13.52868880910877,46.030331506358394],[13.526830838050897,46.030320111549635],[13.528776849658605,46.03350582181596],[13.52979165724919,46.032962379710426],[13.533261768219232,46.033811987370875],[13.5366437077898,46.03569389914503],[13.540875164971768,46.035322900184134],[13.5433129608097,46.03606775801524],[13.542151193003487,46.036453913369456],[13.542169007516176,46.03763122560301],[13.534571854817752,46.03693632318311],[13.535051581711592,46.03737243843718],[13.543043462078625,46.038136074561635],[13.547904745487562,46.03773647096687],[13.550507176259373,46.039389133081116],[13.552727433188036,46.04],[13.55373566120252,46.04],[13.550732088773085,46.03919636247893]]]}},{"type":"Feature","properties":{"_zoneType":"SI_BUILT","name":"Pozidano zemljišče","authority":"MKGP","dataSource":"raba-3000"},"geometry":{"type":"Polygon","coordinates":[[[13.523746776447535,46.038627924584766],[13.52086120864183,46.036833755279524],[13.520256438691801,46.03404279431837],[13.52,46.03366056102215],[13.52,46.03583823515184],[13.520866519602775,46.03725512139224],[13.525202101579577,46.03958627812398],[13.528238763028757,46.03978736512645],[13.528690065027147,46.04],[13.529820400027013,46.04],[13.530227664435458,46.03961050578122],[13.531868536623147,46.04],[13.533411320877631,46.04],[13.523746776447535,46.038627924584766]]]}},{"type":"Feature","properties":{"_zoneType":"SI_BUILT","name":"Pozidano zemljišče","authority":"MKGP","dataSource":"raba-3000"},"geometry":{"type":"Polygon","coordinates":[[[13.525868582363247,46.06670545331071],[13.530036314766182,46.06652323336023],[13.530168964577395,46.0685471337836],[13.534911644933915,46.07005583856351],[13.536319210564152,46.07350979866534],[13.539802577420256,46.076344733275725],[13.542885717678356,46.077484483190595],[13.543777982737737,46.08],[13.544097675550459,46.08],[13.543173881291827,46.07734950797639],[13.53669770178834,46.073469087669714],[13.53517817496089,46.069899626936106],[13.530487959692262,46.068442554945335],[13.53015919901324,46.066292535486056],[13.526010698701677,46.066497331556796],[13.52,46.0630904759629],[13.52,46.06340031105948],[13.525868582363247,46.06670545331071]]]}},{"type":"Feature","properties":{"_zoneType":"SI_BUILT","name":"Pozidano zemljišče","authority":"MKGP","dataSource":"raba-3000"},"geometry":{"type":"Polygon","coordinates":[[[13.520571431087012,46.054546699382776],[13.522537216968848,46.05473338088222],[13.530952009074012,46.0535088388704],[13.53131812409168,46.05608991410945],[13.528075850838384,46.056415805642025],[13.52822486013277,46.05745157930249],[13.525881704281263,46.059056237095156],[13.526635084346395,46.05969073110396],[13.527864015736697,46.05840045526511],[13.529801899813304,46.05891429854544],[13.53062633806623,46.056752045527745],[13.532732732434868,46.05631222735992],[13.532860690325938,46.05520619835852],[13.535553864725308,46.0585907928446],[13.538033573272127,46.056222127671404],[13.540700779994108,46.056880882950864],[13.53964606332432,46.058319872976796],[13.542447498454843,46.05644205995953],[13.544985409521283,46.05726327489181],[13.547175195081229,46.056349152165865],[13.550998286903678,46.057321036574976],[13.555413902557284,46.05698978248195],[13.56,46.05617540522283],[13.56,46.05572602366612],[13.551201755419862,46.056942490358274],[13.547423583606626,46.05609843792334],[13.544942962125546,46.05695842081666],[13.54335909764701,46.056222395412895],[13.53836456759837,46.0559189285915],[13.535064352747403,46.05733727177595],[13.532711567493795,46.054074951600526],[13.53258613582521,46.052481517048875],[13.531688014101944,46.05209025826195],[13.52560261195908,46.05173764483251],[13.525618053134231,46.04996183172757],[13.524665674717053,46.04938341622923],[13.525451863528737,46.04865212329165],[13.523273262260354,46.0483708266331],[13.521973154776166,46.04634325953394],[13.52,46.04580500039749],[13.52,46.04660138401001],[13.520117579630499,46.046406023567194],[13.520466648010174,46.0470983760095],[13.52,46.04720309714621],[13.52,46.04860592774612],[13.520572662750372,46.0492729715281],[13.52,46.049338810002716],[13.52,46.04968974008076],[13.521915811446066,46.05008320746048],[13.524876950861339,46.04996761428335],[13.525409544040102,46.051967381728495],[13.531801003072424,46.05236345572015],[13.53220343118643,46.05356115907545],[13.530925407608207,46.05301649281911],[13.522212136696593,46.05448597422395],[13.52034907068356,46.05371077983781],[13.52,46.05442186735303],[13.52,46.05479947442214],[13.520571431087012,46.054546699382776]],[[13.524378183797346,46.049516126310294],[13.52308822114212,46.04978001284242],[13.523510342346276,46.04880703736239],[13.524378183797346,46.049516126310294]],[[13.523090761487788,46.04862925074763],[13.522357428318134,46.04982413940415],[13.52097813291868,46.04819935614196],[13.523090761487788,46.04862925074763]]]}},{"type":"Feature","properties":{"_zoneType":"SI_BUILT","name":"Pozidano zemljišče","authority":"MKGP","dataSource":"raba-3000"},"geometry":{"type":"Polygon","coordinates":[[[13.55596938692123,46.060169601421045],[13.557797638231715,46.06005856172945],[13.556955555782361,46.06137303038513],[13.558586479386712,46.0601747539749],[13.56,46.060043095294304],[13.56,46.059642301435815],[13.55596938692123,46.060169601421045]]]}},{"type":"Feature","properties":{"_zoneType":"SI_BUILT","name":"Pozidano zemljišče","authority":"MKGP","dataSource":"raba-3000"},"geometry":{"type":"Polygon","coordinates":[[[13.559622119700725,46.066845214195645],[13.558063602206204,46.06651398014937],[13.559414655671556,46.06608553706992],[13.55816644687888,46.06537294161416],[13.557634836330845,46.06688655734581],[13.56,46.067122412514955],[13.56,46.06686289985759],[13.559622119700725,46.066845214195645]]]}},{"type":"Feature","properties":{"_zoneType":"SI_BUILT","name":"Pozidano zemljišče","authority":"MKGP","dataSource":"raba-3000"},"geometry":{"type":"Polygon","coordinates":[[[13.558219361212199,46.071683586498146],[13.559738022794011,46.073896539101014],[13.56,46.073829444197486],[13.56,46.07243728200105],[13.559640421856415,46.07167620404231],[13.56,46.07151927134831],[13.56,46.07101994532215],[13.558219361212199,46.071683586498146]]]}},{"type":"Feature","properties":{"_zoneType":"SI_BUILT","name":"Pozidano zemljišče","authority":"MKGP","dataSource":"raba-3000"},"geometry":{"type":"Polygon","coordinates":[[[13.55996505578466,46.04166674030254],[13.55373566120252,46.04],[13.552727433188036,46.04],[13.555167060675663,46.040671223094655],[13.556659975960052,46.042290365138264],[13.552546659111728,46.042912118357194],[13.551780869242346,46.0441188835562],[13.557074875636733,46.04275453648011],[13.556773889579345,46.041293024938604],[13.56,46.04184604172753],[13.56,46.04165388994856],[13.55996505578466,46.04166674030254]]]}},{"type":"Feature","properties":{"_zoneType":"SI_BUILT","name":"Pozidano zemljišče","authority":"MKGP","dataSource":"raba-3000"},"geometry":{"type":"Polygon","coordinates":[[[13.52433308567971,46.04352048786955],[13.529130387989426,46.04475653724895],[13.529890848492776,46.04596086042375],[13.527942714280151,46.04738084487525],[13.533666328419603,46.05011711438876],[13.536059494645235,46.04908385797101],[13.536604873510274,46.04686099118887],[13.538104863141655,46.044811241505684],[13.539290116008887,46.044973592473106],[13.5409915817965,46.04217904625775],[13.542529516794833,46.042049291141865],[13.543760439043064,46.043652340019506],[13.543064270395542,46.0458521184251],[13.54101100266742,46.04739005187759],[13.543202865288364,46.047864632418914],[13.54065885142383,46.04933475491484],[13.54084693304941,46.05010159978882],[13.543764688507611,46.04812586545377],[13.542343476475716,46.046776476349606],[13.543553172730618,46.0460357249123],[13.544088449953529,46.04375572189163],[13.543266682977059,46.04182109479278],[13.546952017703648,46.04338766121962],[13.543851085583155,46.04148213344114],[13.533411320877631,46.04],[13.531868536623147,46.04],[13.540534187803338,46.04205696766754],[13.539548683147858,46.04308164778545],[13.538359815362545,46.04286475879306],[13.539803291688647,46.04356662882749],[13.537740726106605,46.04436631817218],[13.533736845715218,46.04976684531514],[13.528904285520248,46.04718050026315],[13.530435991596041,46.04613618530636],[13.52978177567484,46.044944910443235],[13.531408309334955,46.041878769147715],[13.533268354451733,46.04153520965115],[13.529689184850476,46.040125489857736],[13.529820400027013,46.04],[13.528690065027147,46.04],[13.53165028957478,46.04139473561962],[13.529552276878428,46.04330222212919],[13.523891650342149,46.04324680681938],[13.52,46.044286739011305],[13.52,46.0446283933189],[13.52433308567971,46.04352048786955]]]}},{"type":"Feature","properties":{"_zoneType":"SI_BUILT","name":"Pozidano zemljišče","authority":"MKGP","dataSource":"raba-3000"},"geometry":{"type":"Polygon","coordinates":[[[13.54418206429553,46.08113920627095],[13.543515114204888,46.08272285819908],[13.547663841092998,46.08268531029426],[13.550356437812441,46.081890993936675],[13.552397471165845,46.083667835912124],[13.555714292993054,46.0837364495645],[13.56,46.085457149958536],[13.56,46.08514918038911],[13.555768255260508,46.08348235330649],[13.552557261946353,46.08344348286129],[13.550421342287233,46.081659429418885],[13.547531634702752,46.08246015209455],[13.544807260316862,46.08203589570497],[13.544097675550459,46.08],[13.543777982737737,46.08],[13.54418206429553,46.08113920627095]]]}},{"type":"Feature","properties":{"_zoneType":"SI_BUILT","name":"Pozidano zemljišče","authority":"MKGP","dataSource":"raba-3000"},"geometry":{"type":"Polygon","coordinates":[[[13.598611882905626,46.03893497920238],[13.6,46.03910346839311],[13.6,46.038858535534175],[13.598329853904922,46.03872016898487],[13.593485760769292,46.04],[13.595160548339127,46.04],[13.598611882905626,46.03893497920238]]]}},{"type":"Feature","properties":{"_zoneType":"SI_BUILT","name":"Pozidano zemljišče","authority":"MKGP","dataSource":"raba-3000"},"geometry":{"type":"Polygon","coordinates":[[[13.598126215145315,46.03682401034765],[13.598766869050229,46.032216248086584],[13.599779258856511,46.0320529076549],[13.599700388152398,46.031223765234586],[13.598071769137299,46.03120379632291],[13.597957699081956,46.035146254623065],[13.595157058562451,46.03803018575813],[13.591498079722788,46.03869084313195],[13.590097537337565,46.04],[13.593427290350881,46.04],[13.598126215145315,46.03682401034765]]]}},{"type":"Feature","properties":{"_zoneType":"SI_BUILT","name":"Pozidano zemljišče","authority":"MKGP","dataSource":"raba-3000"},"geometry":{"type":"Polygon","coordinates":[[[13.588502701649253,46.039937748074955],[13.591754385286926,46.037707347069386],[13.594084480642112,46.03766132098857],[13.596317775227917,46.03436061505858],[13.59585253733681,46.0331730593975],[13.59422065353029,46.033009698729984],[13.595084900801995,46.03116711322494],[13.592019720212182,46.031129387134634],[13.593294129871108,46.03500428352106],[13.588036484755133,46.03764316220929],[13.58691480251789,46.04],[13.588832340341973,46.04],[13.588502701649253,46.039937748074955]],[[13.593902437587392,46.03488664837511],[13.594994005273216,46.03518501608847],[13.59397076729609,46.0366238535545],[13.590186710985861,46.037719090740936],[13.590003219769141,46.0368885556131],[13.593902437587392,46.03488664837511]],[[13.589757193808769,46.03760337707694],[13.58960608209811,46.03844085138277],[13.588450159952801,46.03850292747255],[13.589018098703988,46.037495331314055],[13.589757193808769,46.03760337707694]]]}},{"type":"Feature","properties":{"_zoneType":"SI_BUILT","name":"Pozidano zemljišče","authority":"MKGP","dataSource":"raba-3000"},"geometry":{"type":"Polygon","coordinates":[[[13.566917738090016,46.03916347989446],[13.567384176933919,46.03819957163468],[13.565933524354726,46.03448647420595],[13.571037112985273,46.03297874416307],[13.573818038675094,46.03090366726759],[13.56559733334413,46.0342650039702],[13.565846107900903,46.03950404754444],[13.56449745482598,46.04],[13.565999525937267,46.04],[13.56653167981291,46.03982484808149],[13.566619316552313,46.04],[13.567915328487013,46.04],[13.566917738090016,46.03916347989446]]]}},{"type":"Feature","properties":{"_zoneType":"SI_BUILT","name":"Pozidano zemljišče","authority":"MKGP","dataSource":"raba-3000"},"geometry":{"type":"Polygon","coordinates":[[[13.562078711207004,46.05580627762439],[13.566056282332399,46.05362835681924],[13.564167665767132,46.05684776701785],[13.560978528625109,46.05951428663522],[13.56,46.059642301435815],[13.56,46.060043095294304],[13.561219529676917,46.05992950539212],[13.562558926724419,46.06341593421695],[13.567114938370839,46.06630500108994],[13.56643514988274,46.06716407958469],[13.56,46.06686289985759],[13.56,46.067122412514955],[13.566052456306686,46.06772596613985],[13.565840357811961,46.069416276495105],[13.563017000187578,46.06989551426618],[13.56,46.07101994532215],[13.56,46.07151927134831],[13.563272451545572,46.070091057074954],[13.566884121551633,46.069764578961056],[13.568425429235683,46.06835815982245],[13.575311089615067,46.06869446774089],[13.578779988296779,46.07083111569568],[13.580051085975532,46.07270376630681],[13.585524080207557,46.072157560228355],[13.583750805194999,46.074431638564796],[13.586415476457956,46.07551114986354],[13.58569127655493,46.07686841666141],[13.586024494474854,46.078225873503335],[13.582225627526475,46.078031490241635],[13.58099780326347,46.07707129874955],[13.575906133172122,46.077161923806656],[13.572109091931113,46.08],[13.5725751467004,46.08],[13.57358884384205,46.07901541541714],[13.577134944309984,46.07758956838247],[13.5894801377946,46.07927770711497],[13.59016229381796,46.08],[13.590606344556008,46.08],[13.589742114701451,46.078694091336764],[13.587264855718791,46.078826171193626],[13.590238546169763,46.07819717741564],[13.593572207773374,46.0786670191948],[13.594348060733529,46.08],[13.594479699572227,46.08],[13.593956245924034,46.07852856444073],[13.586718016812425,46.0777984807519],[13.586047345548144,46.07689227547707],[13.586806881859637,46.07526992844144],[13.584220352918365,46.07435354706157],[13.586079097538182,46.07189582971538],[13.580419193331617,46.07238424760945],[13.57995403313452,46.07067413590337],[13.57607020627312,46.06907252669959],[13.577186748687302,46.06790064068069],[13.572593100596348,46.06802549736802],[13.57198742916291,46.06581212176663],[13.57332670119171,46.064925168963484],[13.572655172964156,46.063377786135895],[13.57061116377354,46.063600653693854],[13.570355690119595,46.06284030734179],[13.574946500250224,46.05970788313413],[13.57443681689456,46.05805651747327],[13.575946314785597,46.058176966351645],[13.579707781154319,46.056101919150734],[13.586644243291264,46.055237702902325],[13.588538622544407,46.054102082960995],[13.586652230724045,46.05379636937946],[13.588982789205476,46.05198038223868],[13.58892224256997,46.05089055785378],[13.587246669188662,46.05039888314323],[13.587556537912478,46.04890418900458],[13.58926473596434,46.0479145757007],[13.594963507907357,46.05134465579943],[13.6,46.05297158275903],[13.6,46.05135535851558],[13.597797820086008,46.05119606817363],[13.6,46.050249195246444],[13.6,46.04864078946929],[13.595286372758963,46.04930742293487],[13.594183648291176,46.046666731692156],[13.591874358124914,46.04492297575928],[13.590671575901688,46.04138521749013],[13.595160548339127,46.04],[13.593485760769292,46.04],[13.593389766859286,46.040025362019236],[13.593427290350881,46.04],[13.590097537337565,46.04],[13.589884889260341,46.04019877277097],[13.588832340341973,46.04],[13.58691480251789,46.04],[13.586778575289568,46.040286235681705],[13.585443553858543,46.04102319851404],[13.58278553729018,46.04002612286963],[13.588903107956382,46.045138597059065],[13.589819562449613,46.04721628483723],[13.58569609563113,46.0497272049749],[13.584820492360913,46.05094996656153],[13.587233217403092,46.05151070841852],[13.586247443995694,46.0522543327171],[13.586370374315068,46.05356941848222],[13.584095928089218,46.05387532857265],[13.586295281797362,46.05501376793153],[13.579581300367652,46.055870498012304],[13.571994094811444,46.05843972316263],[13.573177967205945,46.06043981525606],[13.567726556546345,46.06279304676208],[13.569844456118824,46.06290276093562],[13.570974209807394,46.0643651261284],[13.571727920536993,46.06623766566543],[13.571181539204135,46.067489149289585],[13.567373873139108,46.06707249364232],[13.569245491106532,46.064649243962684],[13.567880028454747,46.06601923593369],[13.566503491246992,46.06558384457872],[13.562936485087874,46.06284773440793],[13.56171389723211,46.060082860916964],[13.566336114303502,46.05438876902934],[13.566921815683077,46.05321284131941],[13.566200425282869,46.050758873563595],[13.56841442615572,46.048442813056525],[13.565974296309493,46.0491288273227],[13.562583353468662,46.04583379064626],[13.563690545287082,46.04260076964602],[13.565549047320731,46.04150976551619],[13.565606145429193,46.04248120176316],[13.566530300381448,46.04234624832947],[13.568614198435219,46.04058603086456],[13.567915328487013,46.04],[13.566619316552313,46.04],[13.567028690833173,46.04081818072158],[13.565668906967817,46.04107448713848],[13.563121721173392,46.042767627964984],[13.562214685706229,46.04588151649082],[13.565323139367965,46.04870615608602],[13.565939591309597,46.052895397086644],[13.56175205688339,46.05548378002058],[13.56,46.05572602366612],[13.56,46.05617540522283],[13.562078711207004,46.05580627762439]],[[13.597233515863529,46.05021526199193],[13.59639138603087,46.05081626287101],[13.594530923373986,46.05012717211815],[13.595192967881164,46.04961020655819],[13.597233515863529,46.05021526199193]],[[13.58988709338623,46.04239416395148],[13.594547994432608,46.04956692406057],[13.593289279360297,46.04922051889734],[13.589684234615573,46.045030975043716],[13.588493153175163,46.04076888565689],[13.590086254642806,46.04113412435224],[13.58988709338623,46.04239416395148]],[[13.571316545408122,46.06814213098978],[13.568323110521604,46.06803258650216],[13.566368040811692,46.06893875746926],[13.566640042711034,46.06767633741447],[13.568353750335467,46.067327457537566],[13.571316545408122,46.06814213098978]]]}},{"type":"Feature","properties":{"_zoneType":"SI_BUILT","name":"Pozidano zemljišče","authority":"MKGP","dataSource":"raba-3000"},"geometry":{"type":"Polygon","coordinates":[[[13.56058674290573,46.073679173648145],[13.56,46.07243728200105],[13.56,46.073829444197486],[13.56058674290573,46.073679173648145]]]}},{"type":"Feature","properties":{"_zoneType":"SI_BUILT","name":"Pozidano zemljišče","authority":"MKGP","dataSource":"raba-3000"},"geometry":{"type":"Polygon","coordinates":[[[13.571353363382306,46.078821496902464],[13.572728547175034,46.077785641490614],[13.570629227263563,46.07874872369378],[13.570709622626982,46.079907682276],[13.56826639292208,46.07808880790829],[13.568127796624186,46.07978977859961],[13.568391811354935,46.08],[13.571737122158964,46.08],[13.571353363382306,46.078821496902464]]]}},{"type":"Feature","properties":{"_zoneType":"SI_BUILT","name":"Pozidano zemljišče","authority":"MKGP","dataSource":"raba-3000"},"geometry":{"type":"Polygon","coordinates":[[[13.56,46.04165388994856],[13.56,46.04184604172753],[13.560256971084732,46.04189009146719],[13.565999525937267,46.04],[13.56449745482598,46.04],[13.56,46.04165388994856]]]}},{"type":"Feature","properties":{"_zoneType":"SI_BUILT","name":"Pozidano zemljišče","authority":"MKGP","dataSource":"raba-3000"},"geometry":{"type":"Polygon","coordinates":[[[13.59600433218845,46.06586426500663],[13.590366022697596,46.064413055661575],[13.589281402318555,46.06557234040946],[13.585930400465063,46.06556121976779],[13.584343430615418,46.06762838644834],[13.586560431265076,46.06624940139585],[13.587657689968603,46.066710691108995],[13.5883767185503,46.06579698817598],[13.592109326470075,46.06512375814779],[13.596209669152193,46.066411242579676],[13.597340942630433,46.06466384109368],[13.6,46.06398978284245],[13.6,46.063681553506484],[13.597076960546929,46.06448441258225],[13.59600433218845,46.06586426500663]]]}},{"type":"Feature","properties":{"_zoneType":"SI_BUILT","name":"Pozidano zemljišče","authority":"MKGP","dataSource":"raba-3000"},"geometry":{"type":"Polygon","coordinates":[[[13.564442345965853,46.087240740493655],[13.56964923231441,46.08846121179625],[13.573004160570989,46.08800567299337],[13.574178531499616,46.0897241819969],[13.579982066373336,46.0878147300284],[13.581973152776278,46.088828260235715],[13.585481640687085,46.0873235230537],[13.585843162083764,46.088555067821204],[13.590101164117526,46.08809222906662],[13.588847120943308,46.08946421077681],[13.592022238110228,46.088549685434394],[13.590030162984407,46.087700897843725],[13.586493376303912,46.08823684536381],[13.586279092559547,46.086934411425744],[13.582166008176706,46.087844167238124],[13.583732735481789,46.08476034826063],[13.579436880318843,46.08397928390465],[13.578520796334713,46.0844190358469],[13.583095471377442,46.085027829082954],[13.582230035945708,46.08699329416138],[13.580302019255472,46.08660752721805],[13.579512134355666,46.087719622035436],[13.574361340112656,46.089469786620484],[13.57344710831508,46.08768857551824],[13.569592230908077,46.088215853432445],[13.564662368454847,46.08698562433554],[13.56,46.08514918038911],[13.56,46.085457149958536],[13.564442345965853,46.087240740493655]]]}},{"type":"Feature","properties":{"_zoneType":"SI_BUILT","name":"Pozidano zemljišče","authority":"MKGP","dataSource":"raba-3000"},"geometry":{"type":"Polygon","coordinates":[[[13.571809934652352,46.08022360335246],[13.571737122158964,46.08],[13.568391811354935,46.08],[13.569202471446568,46.08064548708785],[13.567289151958425,46.08118012479923],[13.569299750597532,46.08102184628778],[13.570036147666075,46.080006215068565],[13.571227970314993,46.08130848657352],[13.5725751467004,46.08],[13.572109091931113,46.08],[13.571809934652352,46.08022360335246]]]}},{"type":"Feature","properties":{"_zoneType":"SI_BUILT","name":"Pozidano zemljišče","authority":"MKGP","dataSource":"raba-3000"},"geometry":{"type":"Polygon","coordinates":[[[13.591105750237917,46.080998967737784],[13.6,46.08375927087084],[13.6,46.083319388732896],[13.59690038793097,46.08205179618981],[13.594546634149772,46.08018815403786],[13.594479699572227,46.08],[13.594348060733529,46.08],[13.595033416012821,46.08117749815874],[13.591056626013394,46.080680405164195],[13.590606344556008,46.08],[13.59016229381796,46.08],[13.591105750237917,46.080998967737784]],[[13.596127871207894,46.08170414343533],[13.595808716801672,46.082030067604414],[13.595572737583721,46.081431060038284],[13.596127871207894,46.08170414343533]]]}},{"type":"Feature","properties":{"_zoneType":"SI_BUILT","name":"Pozidano zemljišče","authority":"MKGP","dataSource":"raba-3000"},"geometry":{"type":"Polygon","coordinates":[[[13.594345292126667,46.09089649537687],[13.594528193194119,46.092504906734106],[13.596207267516922,46.09168070529324],[13.597563024543255,46.092838163400316],[13.598248192229033,46.09240334206382],[13.6,46.09415806699492],[13.6,46.093963315685954],[13.59779466609465,46.091079057256735],[13.594345292126667,46.09089649537687]]]}},{"type":"Feature","properties":{"_zoneType":"SI_BUILT","name":"Pozidano zemljišče","authority":"MKGP","dataSource":"raba-3000"},"geometry":{"type":"Polygon","coordinates":[[[13.597472225457869,46.0985866632557],[13.592955340484687,46.09825544980419],[13.590363778408507,46.0958669618318],[13.590945138787358,46.09819107057769],[13.588414238846383,46.09772231562798],[13.586301951166305,46.098464909830604],[13.584339534316483,46.09735993769318],[13.584377323244281,46.099212051707504],[13.58296526557175,46.09944685193406],[13.585076389536166,46.10027665213182],[13.588892652305818,46.09843206586519],[13.591649997451201,46.09822030668791],[13.593134706535027,46.099682232415894],[13.596264515352278,46.098857293091385],[13.599769444146096,46.10073230760104],[13.6,46.10075076554487],[13.6,46.10010941810498],[13.599294205603996,46.09997394347535],[13.597472225457869,46.0985866632557]],[[13.592413160571454,46.098949829208536],[13.592555416714944,46.09861243889638],[13.593072854655272,46.0990911371057],[13.592413160571454,46.098949829208536]]]}},{"type":"Feature","properties":{"_zoneType":"SI_BUILT","name":"Pozidano zemljišče","authority":"MKGP","dataSource":"raba-3000"},"geometry":{"type":"Polygon","coordinates":[[[13.597848137063437,46.19860972097522],[13.599013477430352,46.19893192532005],[13.599395240898938,46.2],[13.599836126837964,46.2],[13.598892654345581,46.19720176329873],[13.597848137063437,46.19860972097522]]]}},{"type":"Feature","properties":{"_zoneType":"SI_BUILT","name":"Pozidano zemljišče","authority":"MKGP","dataSource":"raba-3000"},"geometry":{"type":"Polygon","coordinates":[[[13.596500897666038,46.19882570936422],[13.592691838718318,46.19620486982525],[13.591891482892565,46.19413858356432],[13.587274039698238,46.18993701399823],[13.586523485827625,46.189936701905125],[13.591014498736099,46.193871892441365],[13.59177265361043,46.19591017592481],[13.59454527258094,46.19799325556024],[13.594911603183009,46.19973971397304],[13.593045018480145,46.199310807025626],[13.592540705351981,46.2],[13.595876399698293,46.2],[13.595364918593562,46.19927097546991],[13.596500897666038,46.19882570936422]]]}},{"type":"Feature","properties":{"_zoneType":"SI_BUILT","name":"Pozidano zemljišče","authority":"MKGP","dataSource":"raba-3000"},"geometry":{"type":"Polygon","coordinates":[[[13.587194976722575,46.196846130758544],[13.58484851349784,46.19393436277143],[13.581534412093498,46.1928790224416],[13.581674274260141,46.191439221893575],[13.579687684848173,46.191265037177246],[13.578465977845891,46.189377359939215],[13.576428813034015,46.18866080743401],[13.57593379152081,46.18964126772008],[13.580579814607896,46.191789582111994],[13.580799360605873,46.19330091610099],[13.585156151485608,46.19449406656085],[13.58608055183247,46.19608579436552],[13.585074299358146,46.197058641754936],[13.587245930908837,46.197170487643504],[13.588630936067963,46.198824211212056],[13.58658756611107,46.19887594692127],[13.585273159568,46.197643872253394],[13.584399421761308,46.198256263135],[13.583473846511104,46.19617273525875],[13.581523853435733,46.195575397896995],[13.578129786266846,46.19558280725426],[13.571652343424594,46.19169886368059],[13.572300785004703,46.19269147287056],[13.571541086636287,46.19379730238583],[13.57179734016864,46.19476676479031],[13.569210924186335,46.19511441319245],[13.570454701620669,46.19551038125398],[13.570031440196498,46.19933755183923],[13.572167313739248,46.19992568044968],[13.572001857241641,46.2],[13.57244734839083,46.2],[13.570672451940759,46.19896548389705],[13.570590667415754,46.1959547612917],[13.571414086275546,46.19543261311333],[13.573583353548836,46.19726203307002],[13.573644047424319,46.19561173204464],[13.571878012451293,46.19398422222426],[13.57236151278156,46.19340075992637],[13.577955170935784,46.195779118165845],[13.581704743602009,46.19586463905593],[13.584147993035016,46.19868627346785],[13.588193341971442,46.19963638641378],[13.58823931416106,46.2],[13.590091919543463,46.2],[13.59060398917585,46.19982608605424],[13.590010725582502,46.19932370272973],[13.59115488102624,46.19931110472964],[13.590916753552424,46.2],[13.592223427305635,46.2],[13.591349949755275,46.198978642927116],[13.587194976722575,46.196846130758544]],[[13.573270802731681,46.19581861104235],[13.572756466398207,46.19607451226725],[13.57246513820666,46.1951839646514],[13.573270802731681,46.19581861104235]]]}},{"type":"Feature","properties":{"_zoneType":"SI_BUILT","name":"Pozidano zemljišče","authority":"MKGP","dataSource":"raba-3000"},"geometry":{"type":"Polygon","coordinates":[[[13.600000000000001,46.03910346839311],[13.600000000000001,46.038858535534175],[13.6,46.038858535534175],[13.6,46.03910346839311],[13.600000000000001,46.03910346839311]]]}},{"type":"Feature","properties":{"_zoneType":"SI_BUILT","name":"Pozidano zemljišče","authority":"MKGP","dataSource":"raba-3000"},"geometry":{"type":"Polygon","coordinates":[[[13.600000000000001,46.05297158275903],[13.600000000000001,46.05135535851558],[13.6,46.05135535851558],[13.6,46.05297158275903],[13.600000000000001,46.05297158275903]]]}},{"type":"Feature","properties":{"_zoneType":"SI_BUILT","name":"Pozidano zemljišče","authority":"MKGP","dataSource":"raba-3000"},"geometry":{"type":"Polygon","coordinates":[[[13.600000000000001,46.050249195246444],[13.600000000000001,46.04864078946929],[13.6,46.04864078946929],[13.6,46.050249195246444],[13.600000000000001,46.050249195246444]]]}},{"type":"Feature","properties":{"_zoneType":"SI_BUILT","name":"Pozidano zemljišče","authority":"MKGP","dataSource":"raba-3000"},"geometry":{"type":"Polygon","coordinates":[[[13.600000000000001,46.06398978284245],[13.600000000000001,46.063681553506484],[13.6,46.063681553506484],[13.6,46.06398978284245],[13.600000000000001,46.06398978284245]]]}},{"type":"Feature","properties":{"_zoneType":"SI_BUILT","name":"Pozidano zemljišče","authority":"MKGP","dataSource":"raba-3000"},"geometry":{"type":"Polygon","coordinates":[[[13.600000000000001,46.08375927087084],[13.600000000000001,46.083319388732896],[13.6,46.083319388732896],[13.6,46.08375927087084],[13.600000000000001,46.08375927087084]]]}},{"type":"Feature","properties":{"_zoneType":"SI_BUILT","name":"Pozidano zemljišče","authority":"MKGP","dataSource":"raba-3000"},"geometry":{"type":"Polygon","coordinates":[[[13.600000000000001,46.09415806699492],[13.600000000000001,46.093963315685954],[13.6,46.093963315685954],[13.6,46.09415806699492],[13.600000000000001,46.09415806699492]]]}},{"type":"Feature","properties":{"_zoneType":"SI_BUILT","name":"Pozidano zemljišče","authority":"MKGP","dataSource":"raba-3000"},"geometry":{"type":"Polygon","coordinates":[[[13.600000000000001,46.10075076554487],[13.600000000000001,46.10010941810498],[13.6,46.10010941810498],[13.6,46.10075076554487],[13.600000000000001,46.10075076554487]]]}},{"type":"Feature","properties":{"_zoneType":"SI_BUILT","name":"Pozidano zemljišče","authority":"MKGP","dataSource":"raba-3000"},"geometry":{"type":"Polygon","coordinates":[[[13.590542067058827,46.03162300318638],[13.5904013046466,46.03110943457544],[13.58956042749393,46.031123674727326],[13.590082614228757,46.031736357978296],[13.590542067058827,46.03162300318638]]]}},{"type":"Feature","properties":{"_zoneType":"SI_BUILT","name":"Pozidano zemljišče","authority":"MKGP","dataSource":"raba-3000"},"geometry":{"type":"Polygon","coordinates":[[[13.558268389080235,46.03170795032819],[13.56,46.031193930030994],[13.56,46.03082728419172],[13.558268389080235,46.03170795032819]]]}},{"type":"Feature","properties":{"_zoneType":"SI_BUILT","name":"Pozidano zemljišče","authority":"MKGP","dataSource":"raba-3000"},"geometry":{"type":"Polygon","coordinates":[[[13.56151597851055,46.03155264413493],[13.562420904782037,46.030760854192],[13.560185945974666,46.03073271541693],[13.56,46.03082728419172],[13.56,46.031193930030994],[13.560177733402725,46.03114117073302],[13.562256887576469,46.032116147086555],[13.56915465295447,46.03231227832682],[13.572177806503722,46.0308831842087],[13.569034777332227,46.032024683580104],[13.56151597851055,46.03155264413493]]]}},{"type":"Feature","properties":{"_zoneType":"SI_BUILT","name":"Pozidano zemljišče","authority":"MKGP","dataSource":"raba-3000"},"geometry":{"type":"Polygon","coordinates":[[[13.512596950443813,46.030321595119055],[13.512489068275931,46.030121772299324],[13.512365055173468,46.03040084510537],[13.512596950443813,46.030321595119055]]]}},{"type":"Feature","properties":{"_zoneType":"SI_BUILT","name":"Pozidano zemljišče","authority":"MKGP","dataSource":"raba-3000"},"geometry":{"type":"Polygon","coordinates":[[[13.523382663971702,46.03085483624414],[13.521647953491495,46.03155599936395],[13.52090735837859,46.030365799111756],[13.521867360475264,46.03222867867959],[13.523382663971702,46.03085483624414]]]}},{"type":"Feature","properties":{"_zoneType":"SI_BUILT","name":"Pozidano zemljišče","authority":"MKGP","dataSource":"raba-3000"},"geometry":{"type":"Polygon","coordinates":[[[13.52784086111845,46.05089103813191],[13.526761966828037,46.049849080918165],[13.526433059337904,46.050582369454936],[13.52784086111845,46.05089103813191]]]}},{"type":"Feature","properties":{"_zoneType":"SI_BUILT","name":"Pozidano zemljišče","authority":"MKGP","dataSource":"raba-3000"},"geometry":{"type":"Polygon","coordinates":[[[13.588334949018428,46.04713208788496],[13.58842073396911,46.04729313804811],[13.588660723684294,46.04705510331995],[13.588334949018428,46.04713208788496]]]}},{"type":"Feature","properties":{"_zoneType":"SI_BUILT","name":"Pozidano zemljišče","authority":"MKGP","dataSource":"raba-3000"},"geometry":{"type":"Polygon","coordinates":[[[13.59702434662621,46.198037919640505],[13.596743809630498,46.19799995525688],[13.596969862304196,46.1982007662759],[13.59702434662621,46.198037919640505]]]}},{"type":"Feature","properties":{"_zoneType":"SI_BUILT","name":"Pozidano zemljišče","authority":"MKGP","dataSource":"raba-3000"},"geometry":{"type":"Polygon","coordinates":[[[13.527958359901561,46.059445856157495],[13.527809524029626,46.059269658260185],[13.527269984600588,46.05946203318837],[13.527958359901561,46.059445856157495]]]}},{"type":"Feature","properties":{"_zoneType":"SI_BUILT","name":"Pozidano zemljišče","authority":"MKGP","dataSource":"raba-3000"},"geometry":{"type":"Polygon","coordinates":[[[13.586080466056071,46.08993196128121],[13.587918447176012,46.091218470780916],[13.589323491640728,46.09029176033289],[13.587362117971237,46.0904434354191],[13.586080466056071,46.08993196128121]]]}},{"type":"Feature","properties":{"_zoneType":"SI_BUILT","name":"Pozidano zemljišče","authority":"MKGP","dataSource":"raba-3000"},"geometry":{"type":"Polygon","coordinates":[[[13.582942528022278,46.0736204281118],[13.5831159126779,46.07377386172874],[13.583178514213666,46.073491223809576],[13.582942528022278,46.0736204281118]]]}},{"type":"Feature","properties":{"_zoneType":"SI_BUILT","name":"Pozidano zemljišče","authority":"MKGP","dataSource":"raba-3000"},"geometry":{"type":"Polygon","coordinates":[[[13.598070908413614,46.09326870388632],[13.598085879338187,46.09306581730897],[13.597752603753909,46.09329898378811],[13.598070908413614,46.09326870388632]]]}},{"type":"Feature","properties":{"_zoneType":"SI_BUILT","name":"Pozidano zemljišče","authority":"MKGP","dataSource":"raba-3000"},"geometry":{"type":"Polygon","coordinates":[[[13.585354059855225,46.2],[13.585577259780704,46.2],[13.584753578440214,46.19950742718263],[13.585354059855225,46.2]]]}},{"type":"Feature","properties":{"_zoneType":"SI_BUILT","name":"Pozidano zemljišče","authority":"MKGP","dataSource":"raba-3000"},"geometry":{"type":"Polygon","coordinates":[[[13.581911571758473,46.03945629265432],[13.582019504031418,46.03966850787863],[13.58218306087302,46.039395598872495],[13.581911571758473,46.03945629265432]]]}},{"type":"Feature","properties":{"_zoneType":"SI_BUILT","name":"Pozidano zemljišče","authority":"MKGP","dataSource":"raba-3000"},"geometry":{"type":"Polygon","coordinates":[[[13.540203746941488,46.04780136713247],[13.540492696910805,46.04790346484556],[13.540315147796898,46.047647744887556],[13.540203746941488,46.04780136713247]]]}},{"type":"Feature","properties":{"_zoneType":"SI_BUILT","name":"Pozidano zemljišče","authority":"MKGP","dataSource":"raba-3000"},"geometry":{"type":"Polygon","coordinates":[[[13.599350965879367,46.062440768095165],[13.599861529059986,46.062490249378385],[13.6,46.0620117784656],[13.6,46.06193513243646],[13.599350965879367,46.062440768095165]]]}},{"type":"Feature","properties":{"_zoneType":"SI_BUILT","name":"Pozidano zemljišče","authority":"MKGP","dataSource":"raba-3000"},"geometry":{"type":"Polygon","coordinates":[[[13.600000000000001,46.06193513243646],[13.6,46.06193513243646],[13.6,46.0620117784656],[13.600000000000001,46.062011778465596],[13.600000000000001,46.06193513243646]]]}},{"type":"Feature","properties":{"_zoneType":"SI_BUILT","name":"Pozidano zemljišče","authority":"MKGP","dataSource":"raba-3000"},"geometry":{"type":"Polygon","coordinates":[[[13.595168423013712,46.10182368872623],[13.595461451898494,46.10194505572065],[13.595381189240653,46.10155416907495],[13.595168423013712,46.10182368872623]]]}},{"type":"Feature","properties":{"_zoneType":"SI_BUILT","name":"Pozidano zemljišče","authority":"MKGP","dataSource":"raba-3000"},"geometry":{"type":"Polygon","coordinates":[[[13.59094157723448,46.09420349703351],[13.590430250065339,46.09381319691453],[13.589821567342643,46.09417410413307],[13.59094157723448,46.09420349703351]]]}},{"type":"Feature","properties":{"_zoneType":"SI_BUILT","name":"Pozidano zemljišče","authority":"MKGP","dataSource":"raba-3000"},"geometry":{"type":"Polygon","coordinates":[[[13.589903989602266,46.076282971821094],[13.589683229138279,46.076130518364394],[13.58966398070161,46.076433848583946],[13.589903989602266,46.076282971821094]]]}},{"type":"Feature","properties":{"_zoneType":"SI_BUILT","name":"Pozidano zemljišče","authority":"MKGP","dataSource":"raba-3000"},"geometry":{"type":"Polygon","coordinates":[[[13.583136938439225,46.2],[13.583193634956555,46.199885909636535],[13.582915402651347,46.199799930848584],[13.58305681407381,46.2],[13.583136938439225,46.2]]]}},{"type":"Feature","properties":{"_zoneType":"SI_BUILT","name":"Pozidano zemljišče","authority":"MKGP","dataSource":"raba-3000"},"geometry":{"type":"Polygon","coordinates":[[[13.585836782911372,46.093790506591716],[13.585625280548765,46.09350696233348],[13.585279808115772,46.09399609669109],[13.585836782911372,46.093790506591716]]]}},{"type":"Feature","properties":{"_zoneType":"SI_BUILT","name":"Pozidano zemljišče","authority":"MKGP","dataSource":"raba-3000"},"geometry":{"type":"Polygon","coordinates":[[[13.580717883720657,46.19949694327458],[13.580490813270783,46.19938583364315],[13.580543786533129,46.19966412752707],[13.580717883720657,46.19949694327458]]]}},{"type":"Feature","properties":{"_zoneType":"SI_BUILT","name":"Pozidano zemljišče","authority":"MKGP","dataSource":"raba-3000"},"geometry":{"type":"Polygon","coordinates":[[[13.577285334314174,46.18688306574786],[13.577280883132014,46.18705556654839],[13.57761886097339,46.18688123661897],[13.577285334314174,46.18688306574786]]]}},{"type":"Feature","properties":{"_zoneType":"SI_BUILT","name":"Pozidano zemljišče","authority":"MKGP","dataSource":"raba-3000"},"geometry":{"type":"Polygon","coordinates":[[[13.577932823535996,46.06424744430853],[13.57668740282533,46.0639436421775],[13.576029640957588,46.06405029640688],[13.57730446740822,46.06441735493107],[13.577932823535996,46.06424744430853]]]}},{"type":"Feature","properties":{"_zoneType":"SI_BUILT","name":"Pozidano zemljišče","authority":"MKGP","dataSource":"raba-3000"},"geometry":{"type":"Polygon","coordinates":[[[13.57387775577471,46.1865892361846],[13.573900897773498,46.18677793496829],[13.574191398524706,46.18655666344103],[13.57387775577471,46.1865892361846]]]}},{"type":"Feature","properties":{"_zoneType":"SI_BUILT","name":"Pozidano zemljišče","authority":"MKGP","dataSource":"raba-3000"},"geometry":{"type":"Polygon","coordinates":[[[13.573932768877125,46.18770770254688],[13.573825805584777,46.1875322080281],[13.573647502560886,46.18781672985811],[13.573932768877125,46.18770770254688]]]}},{"type":"Feature","properties":{"_zoneType":"SI_BUILT","name":"Pozidano zemljišče","authority":"MKGP","dataSource":"raba-3000"},"geometry":{"type":"Polygon","coordinates":[[[13.574240707227728,46.090542377749735],[13.573961036023194,46.090378943757194],[13.574075665282791,46.09069714920575],[13.574240707227728,46.090542377749735]]]}},{"type":"Feature","properties":{"_zoneType":"SI_BUILT","name":"Pozidano zemljišče","authority":"MKGP","dataSource":"raba-3000"},"geometry":{"type":"Polygon","coordinates":[[[13.570495092618092,46.04740871609743],[13.570254699376488,46.04713691213834],[13.569195714135263,46.0478684860984],[13.570495092618092,46.04740871609743]]]}},{"type":"Feature","properties":{"_zoneType":"SI_BUILT","name":"Pozidano zemljišče","authority":"MKGP","dataSource":"raba-3000"},"geometry":{"type":"Polygon","coordinates":[[[13.564390086096516,46.06550636511224],[13.564018190138464,46.0654265619341],[13.564287249540326,46.06569966056797],[13.564390086096516,46.06550636511224]]]}},{"type":"Feature","properties":{"_zoneType":"SI_BUILT","name":"Pozidano zemljišče","authority":"MKGP","dataSource":"raba-3000"},"geometry":{"type":"Polygon","coordinates":[[[13.562390958508564,46.072204973769836],[13.562002984580545,46.072168236406064],[13.562226230396545,46.07257405198675],[13.562390958508564,46.072204973769836]]]}},{"type":"Feature","properties":{"_zoneType":"SI_BUILT","name":"Pozidano zemljišče","authority":"MKGP","dataSource":"raba-3000"},"geometry":{"type":"Polygon","coordinates":[[[13.56149145797844,46.07458451846242],[13.561222897035728,46.074506007073914],[13.561389295041922,46.074750826638265],[13.56149145797844,46.07458451846242]]]}},{"type":"Feature","properties":{"_zoneType":"SI_BUILT","name":"Pozidano zemljišče","authority":"MKGP","dataSource":"raba-3000"},"geometry":{"type":"Polygon","coordinates":[[[13.553989193858683,46.0526899326572],[13.553295829321216,46.0525314334751],[13.552686330427141,46.053341022248134],[13.553348663185096,46.05333378663345],[13.553989193858683,46.0526899326572]]]}},{"type":"Feature","properties":{"_zoneType":"SI_BUILT","name":"Pozidano zemljišče","authority":"MKGP","dataSource":"raba-3000"},"geometry":{"type":"Polygon","coordinates":[[[13.553445606085287,46.069908779246965],[13.553019373039778,46.069775052741186],[13.551922250146948,46.07024334836387],[13.553445606085287,46.069908779246965]]]}},{"type":"Feature","properties":{"_zoneType":"SI_BUILT","name":"Pozidano zemljišče","authority":"MKGP","dataSource":"raba-3000"},"geometry":{"type":"Polygon","coordinates":[[[13.549343410452243,46.06818645258077],[13.549079767002407,46.068403049614936],[13.54954497474059,46.06869561061872],[13.549343410452243,46.06818645258077]]]}},{"type":"Feature","properties":{"_zoneType":"SI_BUILT","name":"Pozidano zemljišče","authority":"MKGP","dataSource":"raba-3000"},"geometry":{"type":"Polygon","coordinates":[[[13.546990258923305,46.04444438772089],[13.545882204236408,46.04522862209478],[13.546392082408477,46.04571943080805],[13.546990258923305,46.04444438772089]]]}},{"type":"Feature","properties":{"_zoneType":"SI_BUILT","name":"Pozidano zemljišče","authority":"MKGP","dataSource":"raba-3000"},"geometry":{"type":"Polygon","coordinates":[[[13.541952958696227,46.05018707010915],[13.542263240039182,46.050277765621274],[13.542107834633107,46.0499951670627],[13.541952958696227,46.05018707010915]]]}},{"type":"Feature","properties":{"_zoneType":"SI_BUILT","name":"Pozidano zemljišče","authority":"MKGP","dataSource":"raba-3000"},"geometry":{"type":"Polygon","coordinates":[[[13.53633446265577,46.04487104831878],[13.536508497047166,46.04502392480886],[13.53655768468018,46.044741056275896],[13.53633446265577,46.04487104831878]]]}},{"type":"Feature","properties":{"_zoneType":"SI_BUILT","name":"Pozidano zemljišče","authority":"MKGP","dataSource":"raba-3000"},"geometry":{"type":"Polygon","coordinates":[[[13.528147636580222,46.05556071888339],[13.526721193665248,46.056038880808146],[13.528091180958537,46.055669863015716],[13.528147636580222,46.05556071888339]]]}},{"type":"Feature","properties":{"_zoneType":"SI_BUILT","name":"Pozidano zemljišče","authority":"MKGP","dataSource":"raba-3000"},"geometry":{"type":"Polygon","coordinates":[[[13.527721222347328,46.034346012142706],[13.526370580791674,46.033779202137254],[13.52666419506547,46.03458598563593],[13.527721222347328,46.034346012142706]]]}},{"type":"Feature","properties":{"_zoneType":"SI_BUILT","name":"Pozidano zemljišče","authority":"MKGP","dataSource":"raba-3000"},"geometry":{"type":"Polygon","coordinates":[[[13.526328309436025,46.03528581181312],[13.525958805613111,46.03504773185401],[13.526129374569187,46.035399248535825],[13.526328309436025,46.03528581181312]]]}},{"type":"Feature","properties":{"_zoneType":"SI_BUILT","name":"Pozidano zemljišče","authority":"MKGP","dataSource":"raba-3000"},"geometry":{"type":"Polygon","coordinates":[[[13.525418196232714,46.0583066746722],[13.525301255345594,46.05817485411295],[13.523528485136579,46.05813643739718],[13.525418196232714,46.0583066746722]]]}},{"type":"Feature","properties":{"_zoneType":"SI_BUILT","name":"Pozidano zemljišče","authority":"MKGP","dataSource":"raba-3000"},"geometry":{"type":"Polygon","coordinates":[[[13.524608787714499,46.0573372715533],[13.52419612305442,46.05729047613754],[13.524533161208922,46.05748981245945],[13.524608787714499,46.0573372715533]]]}},{"type":"Feature","properties":{"_zoneType":"SI_BUILT","name":"Pozidano zemljišče","authority":"MKGP","dataSource":"raba-3000"},"geometry":{"type":"Polygon","coordinates":[[[13.502410061674343,46.04981876686154],[13.50151281355062,46.04958910872071],[13.501979660895005,46.050021500315125],[13.502410061674343,46.04981876686154]]]}},{"type":"Feature","properties":{"_zoneType":"SI_BUILT","name":"Pozidano zemljišče","authority":"MKGP","dataSource":"raba-3000"},"geometry":{"type":"Polygon","coordinates":[[[13.478858221392052,46.00525392731833],[13.48,46.00476133438774],[13.48,46.00396387026872],[13.47839694767689,46.00376639227879],[13.478817057466618,46.00486171863087],[13.477256434448732,46.00660175637237],[13.478618348272953,46.006574403243384],[13.478858221392052,46.00525392731833]]]}},{"type":"Feature","properties":{"_zoneType":"SI_BUILT","name":"Pozidano zemljišče","authority":"MKGP","dataSource":"raba-3000"},"geometry":{"type":"Polygon","coordinates":[[[13.480185069442095,46.004681490626254],[13.48398905630817,46.00470068240388],[13.483886595787812,46.00580607925259],[13.482257428866902,46.00675206169694],[13.482831541002948,46.009293627383094],[13.481833181925937,46.009790659536314],[13.486683022654177,46.011065643642866],[13.486927947114962,46.01238129317031],[13.487824090154781,46.01134285920105],[13.489556934246929,46.012633698939425],[13.490295738641315,46.01251394063521],[13.48938895044012,46.011781259475065],[13.493436577931403,46.01114485083707],[13.49402239186084,46.010203910129185],[13.496099386722896,46.0109340919999],[13.497826252441207,46.01261812775395],[13.49568042713415,46.013181434318064],[13.498924460757383,46.01321078373485],[13.500327917839412,46.014316378860634],[13.499658305666257,46.01552777677625],[13.500750698824962,46.01723521535549],[13.497869791687153,46.017814372930935],[13.501068217949431,46.018452601223494],[13.50064594789901,46.01772865617112],[13.501438093853245,46.01738298540833],[13.502228904877148,46.019210007155536],[13.50386226967619,46.01646326245268],[13.507165091627588,46.01564628641364],[13.507493082192893,46.01619219208254],[13.505609980976246,46.01707409993704],[13.50659794877783,46.017510431140046],[13.508699601131942,46.01641471641087],[13.508195497452403,46.01526813413801],[13.50899020821686,46.01503960119097],[13.511576687992388,46.01859670589212],[13.510217451185854,46.019563857647704],[13.512224351961006,46.019156173636254],[13.513791184430927,46.02146587119031],[13.510355683969866,46.026327966004374],[13.510137548463716,46.028333953879354],[13.507855340287861,46.02758786264246],[13.508900210415819,46.02615957509619],[13.508071277700754,46.0246443989723],[13.51087180175224,46.02196709591007],[13.508207895219947,46.02303971167396],[13.507760657318974,46.021975294297114],[13.505703203864721,46.023031283673774],[13.504491367251013,46.02085885539861],[13.503484651135672,46.0210755840006],[13.504901339306086,46.02304192324925],[13.507931716112875,46.023896821870075],[13.506865847557043,46.02693267165907],[13.507428983137576,46.02785945722443],[13.505871065235787,46.02842987210529],[13.508591443545004,46.03007096779445],[13.512489068272767,46.03012177229929],[13.51315588872962,46.028865030745784],[13.513137761902437,46.02648030136257],[13.514691359199434,46.02642258061079],[13.515233318915785,46.02543426106148],[13.515340443070746,46.02709924987409],[13.517326575869662,46.03018464294084],[13.516703999070232,46.02836022416476],[13.517468158719415,46.02803263204197],[13.52,46.02874596025397],[13.52,46.02820316694114],[13.518181907772318,46.02704713363684],[13.515946685641705,46.02747699259003],[13.51580558344874,46.02529083231788],[13.513939411238779,46.023795395615494],[13.514387518741625,46.0231294655544],[13.516206184772074,46.023491213637364],[13.518271896556529,46.025981494486835],[13.52,46.02689004203187],[13.52,46.02644441082656],[13.51845246453621,46.02575209291368],[13.517324129917817,46.024412765239965],[13.518705342783592,46.02303014484775],[13.52,46.02352447901657],[13.52,46.023265497509605],[13.51930142698725,46.02041197265413],[13.518282201376374,46.02172002099722],[13.516677817974452,46.021725628367705],[13.518315882673187,46.022520230859435],[13.517300798028124,46.023691650705715],[13.514209203803905,46.02277256176605],[13.513352794748029,46.018648601007065],[13.510765896144695,46.01693715214221],[13.5097661487084,46.014445806815274],[13.511051166640453,46.01259927745958],[13.514378029803309,46.01201537136729],[13.514988382881143,46.013875485112976],[13.5122761158589,46.01362494735735],[13.513466009056659,46.01437140578474],[13.513304198091289,46.01619031122505],[13.516115237045952,46.0143691247705],[13.518285995247124,46.01501066617304],[13.51567183128863,46.01361089383409],[13.515259842102894,46.012143323615625],[13.516631849062161,46.01279645351519],[13.519511076298595,46.01312855778129],[13.51836795762061,46.012089372347035],[13.51674298504627,46.01254912741348],[13.515872479117453,46.011239799836986],[13.51892861142027,46.0108102306409],[13.519955617629162,46.011793670248004],[13.52,46.01179716718843],[13.52,46.011037955109586],[13.518661266202203,46.01059640173618],[13.51510823125298,46.01099306891141],[13.515002110359871,46.00978317278496],[13.516170374037005,46.009656317385286],[13.514076562649825,46.008073483107204],[13.515178716708155,46.00727039615243],[13.51412232667817,46.00710052057233],[13.514396873579305,46.00590440859626],[13.511654044091209,46.00302536528552],[13.516073853674575,46.00175650517005],[13.515444227546746,46.00328211164753],[13.516681391576407,46.00262490484032],[13.517367549936965,46.00515762183842],[13.52,46.00848595034436],[13.52,46.00693315757656],[13.517721892250586,46.00443617403771],[13.52,46.00322983138324],[13.52,46.00258477204323],[13.519974765561793,46.002566385662085],[13.519539255920659,46.00109270519748],[13.52,46.000971654040725],[13.52,46.000443135520264],[13.51761760469013,46.00112396256345],[13.51699382491367,46.00008770457022],[13.518711116101999,46.0],[13.5163691582515,46.0],[13.516955863230079,46.00100573577503],[13.51381341282004,46.0020955361689],[13.51365754419882,46.001181621924864],[13.512755296202068,46.001326570602295],[13.509697404573515,46.003510102224055],[13.508230779294852,46.002205005819455],[13.505006428640206,46.00294425756447],[13.503937069328009,46.00176917420722],[13.494953246974559,46.0],[13.494087766909713,46.0],[13.496801479024082,46.000701235506085],[13.496939489788723,46.00152339278579],[13.49083128680994,46.001874837913434],[13.489822517262548,46.000331238887426],[13.491354822825027,46.0],[13.48823650514307,46.0],[13.481377577155332,46.00253014667374],[13.488988761761084,46.00005484180252],[13.490109714679198,46.00195724488834],[13.483575673536993,46.00440435297322],[13.48,46.00396387026872],[13.48,46.00476133438774],[13.480185069442095,46.004681490626254]],[[13.517164150093386,46.002679794517185],[13.517856729893007,46.00238170093382],[13.518419976942576,46.00306586481767],[13.517652727475488,46.00340857205615],[13.517164150093386,46.002679794517185]],[[13.515080724827806,46.02521997836768],[13.511150966891242,46.02651665299462],[13.512236368334563,46.023995598258814],[13.513497753751295,46.023838587490644],[13.515080724827806,46.02521997836768]],[[13.50993527117512,46.00482684792306],[13.509664804949313,46.003877892197465],[13.511360453707093,46.00356294536587],[13.51206818790476,46.005125883419645],[13.511193508685738,46.00562369289191],[13.51339300929516,46.0061990087156],[13.513320454745061,46.00975241249248],[13.514257571728209,46.011261739620934],[13.512127595925959,46.012215223240474],[13.509712121371276,46.00946192997662],[13.510232514251177,46.008694559093],[13.508597988840119,46.00544951094719],[13.50993527117512,46.00482684792306]],[[13.512816188597213,46.02838842634387],[13.511305989737908,46.02977783397717],[13.509889383503179,46.02945213187618],[13.51099054675484,46.0282905843669],[13.512816188597213,46.02838842634387]],[[13.505671765431126,46.003494227057864],[13.505468869108226,46.00546568541021],[13.506427114213812,46.00327801080315],[13.508798728125969,46.00353372557888],[13.509122872563657,46.00447291004784],[13.5071789823272,46.00447134719764],[13.507632047497074,46.006937409997384],[13.506851299838669,46.00837298689957],[13.509009779324904,46.00764050096052],[13.509222974413369,46.01021057783413],[13.511003137203499,46.01128038120136],[13.510469878496709,46.01313477213381],[13.508585196331454,46.01166484160462],[13.509328930242722,46.01329866370169],[13.508241206890945,46.01348706107077],[13.505686954028674,46.00905484189289],[13.503974659531073,46.00833519880563],[13.502971553408122,46.00560255147062],[13.504242659331629,46.00322071041913],[13.505671765431126,46.003494227057864]],[[13.505856738227424,46.011791726013655],[13.508404132310085,46.01450724306198],[13.506369954588806,46.014506361539446],[13.505645365935107,46.015477194148055],[13.504848397554055,46.01404634792056],[13.502182592527413,46.016772569140855],[13.500441971272767,46.01604508341246],[13.500758804045049,46.01405369046942],[13.505856738227424,46.011791726013655]],[[13.50585219245247,46.01095238112842],[13.500681589130679,46.0137857208614],[13.499630336576889,46.013280023720974],[13.504158140242136,46.009849962512064],[13.50585219245247,46.01095238112842]],[[13.50226539270819,46.00626968386784],[13.502979989100409,46.00735197864331],[13.5003144285903,46.009876517185496],[13.502927613202582,46.008763010735734],[13.504405861438787,46.009285176212586],[13.500782910217511,46.011007490528954],[13.499205046236568,46.01286091512784],[13.496901134784832,46.011623674607236],[13.49954818090685,46.00585939597775],[13.50226539270819,46.00626968386784]],[[13.497337320623279,46.00095240333652],[13.504315101931166,46.00221340582344],[13.502654446829427,46.00404151991474],[13.497415367633105,46.00202669164726],[13.497337320623279,46.00095240333652]],[[13.501482999790825,46.00493068862793],[13.49979857693523,46.005556407468944],[13.498121347165778,46.00339162315232],[13.501482999790825,46.00493068862793]],[[13.494158685306262,46.002604341456205],[13.496206557133261,46.003336949073166],[13.496498041312206,46.00479552966011],[13.49661553006002,46.003554479716094],[13.497494674571678,46.00343515559242],[13.49851495072648,46.00586743584559],[13.496877775380701,46.00940142127241],[13.494995793321989,46.01010354370888],[13.494481825465742,46.00905829399875],[13.495611679056191,46.00891082400536],[13.494521694822165,46.00841630861566],[13.494340348861044,46.00460949974287],[13.493576309947677,46.00591191663862],[13.494057887725788,46.00761703060295],[13.493182283814825,46.007845060505716],[13.490977128224364,46.00651872288837],[13.490805760156572,46.004434740737516],[13.487639903746837,46.00383404570933],[13.488389674182793,46.002723808687605],[13.494158685306262,46.002604341456205]],[[13.498364823948862,46.002854205020704],[13.497377374028396,46.00307105874335],[13.49763736976121,46.00239420495037],[13.498364823948862,46.002854205020704]],[[13.49683686349418,46.0023472163773],[13.496370409742728,46.00300045244108],[13.494706499001001,46.002455768801795],[13.49536221426194,46.00179358921899],[13.49683686349418,46.0023472163773]],[[13.484505118405107,46.004334641061234],[13.485495927794357,46.004005225496364],[13.487250938162024,46.00617543711753],[13.487188344243966,46.00444945153926],[13.489392684245109,46.00491638217874],[13.490592984538583,46.007096059787976],[13.493269089050239,46.00867915558186],[13.492710491828348,46.01045242431337],[13.491273913934847,46.01029057923772],[13.491738189210507,46.011118415732774],[13.49022167458846,46.01152377852089],[13.483714978099545,46.00983417535329],[13.483004506381207,46.00822462922957],[13.483920809426154,46.0078389488859],[13.48252232557479,46.00728874566917],[13.48478268446073,46.00521738059068],[13.484505118405107,46.004334641061234]]]}},{"type":"Feature","properties":{"_zoneType":"SI_BUILT","name":"Pozidano zemljišče","authority":"MKGP","dataSource":"raba-3000"},"geometry":{"type":"Polygon","coordinates":[[[13.520829395327242,46.028979636468335],[13.521258866860693,46.03023559797189],[13.521339851775952,46.029055111222206],[13.52,46.02820316694114],[13.52,46.02874596025397],[13.520829395327242,46.028979636468335]]]}},{"type":"Feature","properties":{"_zoneType":"SI_BUILT","name":"Pozidano zemljišče","authority":"MKGP","dataSource":"raba-3000"},"geometry":{"type":"Polygon","coordinates":[[[13.521010773094108,46.02742145432476],[13.525234253259903,46.02879303268215],[13.526839032572994,46.03030767395949],[13.528688809107322,46.03033150635837],[13.52,46.02644441082656],[13.52,46.02689004203187],[13.521010773094108,46.02742145432476]]]}},{"type":"Feature","properties":{"_zoneType":"SI_BUILT","name":"Pozidano zemljišče","authority":"MKGP","dataSource":"raba-3000"},"geometry":{"type":"Polygon","coordinates":[[[13.520069938959079,46.023551183550225],[13.52,46.023265497509605],[13.52,46.02352447901657],[13.520069938959079,46.023551183550225]]]}},{"type":"Feature","properties":{"_zoneType":"SI_BUILT","name":"Pozidano zemljišče","authority":"MKGP","dataSource":"raba-3000"},"geometry":{"type":"Polygon","coordinates":[[[13.523074005933756,46.0120393718169],[13.523803297344273,46.01110186771086],[13.52,46.00693315757656],[13.52,46.00848595034436],[13.521450590718244,46.01031999935664],[13.52043009567891,46.011179813183404],[13.52,46.011037955109586],[13.52,46.01179716718843],[13.523074005933756,46.0120393718169]],[[13.5228182187519,46.01083029319625],[13.521523658918198,46.0111801195812],[13.522018717851216,46.010341477430984],[13.5228182187519,46.01083029319625]]]}},{"type":"Feature","properties":{"_zoneType":"SI_BUILT","name":"Pozidano zemljišče","authority":"MKGP","dataSource":"raba-3000"},"geometry":{"type":"Polygon","coordinates":[[[13.52000703800941,46.00322610449589],[13.521964913905224,46.00548278667977],[13.525057243998383,46.005659433223975],[13.523950673992864,46.00794332953822],[13.53030593052193,46.01169539357258],[13.529836449931226,46.01338045048108],[13.525234094730662,46.012879735368045],[13.529064591168638,46.01350262541355],[13.529516280289254,46.01429659897822],[13.5293502089898,46.01750435678452],[13.526586576404913,46.016631063231834],[13.528956550616227,46.01827687070323],[13.529174954237835,46.0197962227449],[13.527344876498415,46.0205162128516],[13.530133283178236,46.01984423256387],[13.532110767209003,46.021967286165165],[13.53138852422195,46.02234580963511],[13.52793943625355,46.02168373429275],[13.526611056324663,46.021991657804975],[13.522215249843997,46.01746222566391],[13.522604068071209,46.01973153716107],[13.524283713050423,46.0208090883561],[13.521979703767768,46.02186566524214],[13.523584388215992,46.02233687167419],[13.524133597756508,46.021593274342635],[13.524655553556437,46.02263098873679],[13.52785442805694,46.021921754529124],[13.529735771156487,46.022748908559485],[13.53322530203336,46.022549035943946],[13.533853496635032,46.023775238082855],[13.529009564509533,46.02350065644461],[13.532843447356862,46.024401111314646],[13.534978041471549,46.02361345442339],[13.543085475789164,46.02869870586028],[13.53339373319453,46.02875055858522],[13.53391889770485,46.02920931186843],[13.543112946419297,46.02923440835976],[13.543292869133328,46.02834313708791],[13.541049040586895,46.02687177287403],[13.541487291584748,46.026380156811996],[13.544038163100998,46.02739372483172],[13.543974375892013,46.028091565972844],[13.545434845789071,46.02750597301639],[13.547784712303033,46.028141056440006],[13.547932690215864,46.02960105846234],[13.548775872843969,46.02836513084879],[13.554272399227058,46.028023849665445],[13.559868749501605,46.02959720630182],[13.56,46.03006706062087],[13.56,46.028568288322504],[13.559251446190686,46.02924633288007],[13.556696372407416,46.02825688634096],[13.556047158678517,46.02616492927433],[13.557489170903878,46.025147624718564],[13.555001979635938,46.023801498144444],[13.554961115377047,46.02264435189919],[13.552700035054034,46.02254107764434],[13.553766062143676,46.02161355853313],[13.55160457459427,46.02205838346345],[13.555152404737113,46.02527073053315],[13.555793844135152,46.02744458505101],[13.549599292126894,46.02780399891647],[13.548766379951982,46.02660044657257],[13.549923155388298,46.02512209976446],[13.548792786235632,46.023580051950084],[13.549038720729124,46.02555200129347],[13.547771563444648,46.027859401227644],[13.546327263554701,46.02742967745372],[13.546894813256356,46.026770913736975],[13.544935425347019,46.02388926736283],[13.545434606959311,46.02592600031493],[13.544491845845872,46.027285463960865],[13.53218397135594,46.02090054355288],[13.531862417559672,46.0200760159769],[13.533039919969342,46.019669546102705],[13.530819850656195,46.018583918715706],[13.531004051764404,46.0166535572244],[13.529839299370915,46.015455282378745],[13.53069340331567,46.01285785164123],[13.530031699500324,46.010772494963234],[13.53060891299471,46.0086680767866],[13.529455561554876,46.00848639253002],[13.528979150742375,46.0068825750075],[13.531355148668073,46.007088732226286],[13.531386610495899,46.00563480880984],[13.532893242141954,46.00505426260804],[13.53369374103321,46.00591161806627],[13.533092398717562,46.00674824919546],[13.534261113732585,46.0067390837251],[13.535234745700969,46.0082719402946],[13.532495299573872,46.01073804506907],[13.533253770291198,46.01280980813427],[13.532647864201481,46.01717347078067],[13.535826905669946,46.01929224493592],[13.546307540965309,46.020243952499804],[13.536643966406967,46.01926520990699],[13.533060229170477,46.017226875771435],[13.534077205855766,46.01192452145652],[13.532810534284497,46.01084389491046],[13.534497412976407,46.00985688100364],[13.53674973465293,46.013279576260594],[13.535773675507935,46.014959733663105],[13.537011159504651,46.01414684038533],[13.538758268084175,46.01519605108775],[13.53680698031062,46.016118038707184],[13.537907717954276,46.01632058963705],[13.537165437397183,46.01771674810251],[13.539286713938067,46.015686381560336],[13.54098364543929,46.01600548366747],[13.541455325976239,46.017093022743836],[13.542323336247907,46.016345149961566],[13.545082743622256,46.01710874155999],[13.545780243551729,46.01818661424169],[13.546939850201868,46.01783500127731],[13.545792895301322,46.01771855472332],[13.545835791374815,46.01642629903369],[13.554502900370602,46.01872748863262],[13.56,46.017995289143705],[13.56,46.01735141903972],[13.559104855145824,46.01695325955846],[13.558485189786545,46.01773468552936],[13.556623561965733,46.01646637968229],[13.557243426327888,46.017492509968356],[13.554239964466795,46.01821392375979],[13.550201297909584,46.01734753893572],[13.54681209467315,46.015253103996855],[13.544491335158678,46.01601637169718],[13.543846624287978,46.01509793672682],[13.545437611789774,46.01448993737687],[13.5428336559697,46.014429505208724],[13.542307460327043,46.01316119439517],[13.540891773909188,46.013125744285276],[13.54083618069356,46.011839618427736],[13.539865373527547,46.01339079214833],[13.53819835664747,46.013448768190194],[13.539369527234703,46.014147327508304],[13.538698252753939,46.01475865578792],[13.535329594579757,46.01097801211691],[13.535965716972868,46.009116064348184],[13.539723299330644,46.00988159310327],[13.538621653054836,46.00846383322408],[13.536361510845877,46.00889851222492],[13.531908042006291,46.003250602808464],[13.5299000900878,46.00323812061377],[13.528324557812143,46.001145986573896],[13.528248569034263,46.00203275464271],[13.527210237859185,46.001916621549846],[13.524394175611162,46.0],[13.521550649310566,46.0],[13.52,46.000443135520264],[13.52,46.000971654040725],[13.521489298070042,46.00058037119584],[13.522018047368825,46.00233599035037],[13.524420276133423,46.00346152444473],[13.524643676133822,46.004698114054506],[13.52337850246297,46.00504642518055],[13.52,46.00258477204323],[13.52,46.00322983138324],[13.52000703800941,46.00322610449589]],[[13.544007108866005,46.01619938048265],[13.541593250580467,46.01603009320186],[13.543428365901898,46.0155738209009],[13.544007108866005,46.01619938048265]],[[13.530948514657457,46.00468974105757],[13.530347715636905,46.00364217104998],[13.531479174282774,46.00332225887196],[13.532689577269695,46.00460280858345],[13.529959175836552,46.00649323619904],[13.529053480578607,46.00550921077112],[13.529898825359755,46.004896438350436],[13.52817101416438,46.003278915257454],[13.528687547469529,46.00276110343935],[13.530948514657457,46.00468974105757]],[[13.529771541021924,46.01686302007067],[13.529436163890088,46.01611173655395],[13.530514641803615,46.01659569775619],[13.529771541021924,46.01686302007067]],[[13.528057578601759,46.00363530400382],[13.527896546950712,46.006512713251084],[13.529593982125052,46.01017328564309],[13.525285370490963,46.00840865818865],[13.525425514447234,46.00203592099511],[13.526451444987668,46.00185292701363],[13.528057578601759,46.00363530400382]],[[13.523364549226798,46.00208939681414],[13.522510645733444,46.00226035505099],[13.52277295867906,46.00107857049187],[13.523364549226798,46.00208939681414]]]}},{"type":"Feature","properties":{"_zoneType":"SI_BUILT","name":"Pozidano zemljišče","authority":"MKGP","dataSource":"raba-3000"},"geometry":{"type":"Polygon","coordinates":[[[13.559629090844016,46.02239194238236],[13.56,46.02256554477851],[13.56,46.02218549434014],[13.559629090844016,46.02239194238236]]]}},{"type":"Feature","properties":{"_zoneType":"SI_BUILT","name":"Pozidano zemljišče","authority":"MKGP","dataSource":"raba-3000"},"geometry":{"type":"Polygon","coordinates":[[[13.559082176513492,46.00843681397199],[13.559010571800242,46.00732450111818],[13.557077174445682,46.00667905360222],[13.556279005793886,46.00379190305929],[13.557380659482684,46.002181500276684],[13.56,46.00079057254887],[13.56,46.0],[13.55933441690683,46.0],[13.55916068150627,46.00018014607054],[13.558942157602903,46.0],[13.556708655437342,46.0],[13.557403076736561,46.00143231188936],[13.555222424015206,46.0],[13.555006339517117,46.0],[13.55555856239793,46.00085631159636],[13.55384645661397,46.002147017383315],[13.552110121705406,46.0],[13.551027357214144,46.0],[13.553174236221684,46.002630074688504],[13.551340438794869,46.00288011802273],[13.547173654912326,46.000344219379436],[13.55110250646359,46.00322779396149],[13.549258551679772,46.002980765416744],[13.549633313893697,46.0042494639827],[13.545904741736816,46.00473645046118],[13.543030020432075,46.00217793937873],[13.543243387074234,46.0],[13.543175767963879,46.0],[13.542178033941166,46.00155574786656],[13.543947737589123,46.003656645401804],[13.542086742315771,46.003679638581225],[13.544979197944693,46.004435059925406],[13.545360288447489,46.00530453222283],[13.541295184744607,46.00604764294421],[13.539791589806466,46.002958904798476],[13.539921971017893,46.005566736574565],[13.537843177864481,46.005064989683504],[13.536032394048348,46.002540421703245],[13.53745251485044,46.001073195611276],[13.53525225273636,46.00033343067621],[13.535268517378412,46.0],[13.533991016447606,46.0],[13.533989339223025,46.00003827491238],[13.533599067528923,46.0],[13.531010992055698,46.0],[13.532962481846317,46.00205589728214],[13.53388891400764,46.00182477747216],[13.533490301220759,46.00048179212521],[13.535048442975066,46.00057088670206],[13.535303706815931,46.00340711719669],[13.536513008513735,46.00410243226315],[13.535824642972726,46.004597695752686],[13.54049271066296,46.00670821938065],[13.54133530320331,46.00796126892639],[13.54353261866626,46.00781786407688],[13.544616225260386,46.00667165818096],[13.545684277730889,46.007087220851965],[13.545882907636821,46.00549352214988],[13.547919656652466,46.006104736558996],[13.547511527947949,46.004931729402394],[13.549670235275812,46.005459014723485],[13.551476196595075,46.004514388688044],[13.554692797709983,46.00592634946874],[13.555642769971838,46.008095870667894],[13.553002052182455,46.009060413490786],[13.550652843534163,46.00711480888944],[13.550932943368933,46.00887765003453],[13.545734782474097,46.01002610419551],[13.549333476980069,46.00962539089061],[13.550480362169084,46.01031569057137],[13.550125770300921,46.01198697240683],[13.55145818176034,46.011963727151716],[13.551367383987959,46.010696620110075],[13.553707487758633,46.01122502735808],[13.553911064713537,46.013449029456595],[13.554781892474193,46.01205562506015],[13.55654887460011,46.012301176290805],[13.5530929077849,46.010882858534934],[13.553266296318496,46.010176123490155],[13.558065201529999,46.01074515804157],[13.56,46.01143646411348],[13.56,46.01101753636653],[13.558076599170855,46.01050028596632],[13.554914982675639,46.0103639360651],[13.559687990359752,46.009709391919685],[13.56,46.009894550177556],[13.56,46.00849008008804],[13.559082176513492,46.00843681397199]],[[13.559077402451285,46.00893478202347],[13.557319462050005,46.00946114370299],[13.555201581186061,46.0091376978913],[13.557123859894736,46.007471252086255],[13.559077402451285,46.00893478202347]],[[13.5577678143213,46.000059717665366],[13.559192811879411,46.00053921117725],[13.557882196918143,46.0011824989289],[13.5577678143213,46.000059717665366]],[[13.555858647000012,46.0021181059306],[13.555774151821623,46.00282691691383],[13.554491561946506,46.00254405611443],[13.555858647000012,46.0021181059306]],[[13.543567629234957,46.00732579051419],[13.542850099461969,46.00757739592867],[13.54174734368231,46.006964307510195],[13.542698741934476,46.006381326292114],[13.543567629234957,46.00732579051419]]]}},{"type":"Feature","properties":{"_zoneType":"SI_BUILT","name":"Pozidano zemljišče","authority":"MKGP","dataSource":"raba-3000"},"geometry":{"type":"Polygon","coordinates":[[[13.557683866928745,46.01491187096604],[13.56,46.015342025431195],[13.56,46.014866244591],[13.557683866928745,46.01491187096604]]]}},{"type":"Feature","properties":{"_zoneType":"SI_BUILT","name":"Pozidano zemljišče","authority":"MKGP","dataSource":"raba-3000"},"geometry":{"type":"Polygon","coordinates":[[[13.56018594598414,46.03073271541705],[13.560971004088632,46.029224199344185],[13.563832849027365,46.02827732423664],[13.561310814473906,46.02898209036568],[13.56015866520301,46.028424568424164],[13.56,46.028568288322504],[13.56,46.03006706062087],[13.56018594598414,46.03073271541705]]]}},{"type":"Feature","properties":{"_zoneType":"SI_BUILT","name":"Pozidano zemljišče","authority":"MKGP","dataSource":"raba-3000"},"geometry":{"type":"Polygon","coordinates":[[[13.562160420759964,46.01770752667205],[13.564999673898624,46.01841173686725],[13.5682850959143,46.01623443091701],[13.568867824988466,46.01326108851082],[13.571402965193078,46.01303103160678],[13.57521421823983,46.01549526650424],[13.574566339172907,46.01635172763755],[13.57559056557718,46.01735125285333],[13.574586028944504,46.01917754733734],[13.576105124286123,46.02059505766806],[13.572891954107332,46.022640356167706],[13.574875141285501,46.02249664798365],[13.574909974582916,46.023307413075806],[13.572315896617996,46.02406766015839],[13.57139778296387,46.02255842909971],[13.569566469935816,46.02323511016495],[13.569328745966056,46.02221347258813],[13.566595576465321,46.02212205810909],[13.571427870279138,46.024501035472994],[13.571434799555254,46.02529781125085],[13.569429787424076,46.02554082525968],[13.562583149390965,46.02315354774404],[13.561090217679752,46.022185049967334],[13.561730996487883,46.021222021666986],[13.56,46.02218549434014],[13.56,46.02256554477851],[13.566647131120147,46.02567670521053],[13.567754699017597,46.02523285907953],[13.567827284823196,46.02608811573225],[13.570488976407912,46.02574923880029],[13.57439939054366,46.026975982016296],[13.574343159129318,46.02925753093844],[13.571612735485598,46.03087612220207],[13.573818038676396,46.03090366726761],[13.575573668711407,46.02628872089923],[13.577784622819786,46.02831973549865],[13.58150598685183,46.02953359019935],[13.582486122892607,46.03078307971246],[13.590401304641844,46.03110943457539],[13.588866057926046,46.02979884290688],[13.589522369034611,46.029389027856105],[13.592479255160056,46.03113504830938],[13.590055374506907,46.02920769201215],[13.586301725001343,46.02939013787474],[13.588716390484816,46.03074546357775],[13.582848446284038,46.03053349855729],[13.58169201159715,46.0291755424319],[13.578013582756258,46.02812135903396],[13.57586969178301,46.0259789131087],[13.57583356734782,46.0241942892286],[13.57898850135329,46.02254175887823],[13.578334102555432,46.021197542207055],[13.576596018162235,46.02175573115839],[13.576486493112089,46.02035637960896],[13.574992206310533,46.01922299509085],[13.577027580576082,46.01846194751579],[13.575173612885155,46.0164811776009],[13.575706312780733,46.01538575898277],[13.579749540125146,46.014818555226206],[13.5822291258269,46.01534967254431],[13.583219966342723,46.016864810173416],[13.583098670431136,46.01601409282229],[13.585420047164307,46.01407487963043],[13.59208234224692,46.01415821685457],[13.596234098123034,46.01245991797623],[13.599514764592756,46.01224959789301],[13.596101682770717,46.012244524427565],[13.591984915533844,46.01392341388101],[13.587849087945683,46.01347916804145],[13.58455778383148,46.01421453409977],[13.5832963896423,46.013485274830465],[13.585176131015505,46.011811852630814],[13.590280175835106,46.01183284675909],[13.593367401843183,46.01058334153599],[13.598228106905298,46.01102321367521],[13.6,46.01063228276019],[13.6,46.01028630169488],[13.598167367013536,46.01075916179663],[13.593233661530231,46.01032473845624],[13.590221289561155,46.011560459539425],[13.585918370151683,46.011692634182985],[13.584635563348659,46.010947092156215],[13.585091725797223,46.008770814876954],[13.586168308222087,46.00845132431849],[13.584960696112564,46.00712976398585],[13.585502965505176,46.00455711664749],[13.58416196954837,46.004212034868964],[13.5837865451664,46.00225097032942],[13.584975279458087,46.0],[13.58455725586969,46.0],[13.5834314909974,46.001996423996765],[13.583625333879901,46.00407283177046],[13.57773590681269,46.009179770531084],[13.575538176923315,46.00981002950232],[13.575367054811856,46.00893803043696],[13.576864058215278,46.008049900136434],[13.576131427171767,46.00750620676216],[13.57705493346813,46.00569257659652],[13.575953291307865,46.00541240438447],[13.578095473816836,46.004110730428664],[13.577061528606587,46.00318984387476],[13.578868278856753,46.00179149744678],[13.57806795466141,46.00104349074057],[13.582622429159398,46.000270823418994],[13.582708637914385,46.0],[13.581913817214474,46.0],[13.581674211329334,46.000335120680695],[13.580836775435719,46.0],[13.577414341143186,46.0],[13.577857309231742,46.00029251495372],[13.57671538350658,46.0],[13.57338637605317,46.0],[13.573369865950088,46.00075913218671],[13.575869562495658,46.000153015241736],[13.576789578702206,46.001728427483314],[13.57322417832241,46.00208002210407],[13.573086426105315,46.00114474894505],[13.572045248990152,46.001938720082435],[13.569496277561555,46.0],[13.569266861300509,46.0],[13.570606222786544,46.00124132015671],[13.569680491837136,46.00209494546922],[13.567867543880094,46.00167551018012],[13.566905336009855,46.000728547373],[13.56689588325301,46.0],[13.56602168955753,46.0],[13.565988849841927,46.00007619452198],[13.565030270107497,46.000343215621406],[13.56598674123244,46.00051040056662],[13.565873157395687,46.001556540871],[13.568729285309173,46.00199350194289],[13.569830752225133,46.00405608726275],[13.573883281285072,46.00376210273484],[13.573632683017772,46.005838520010826],[13.571708511618503,46.006408293782656],[13.572138325936582,46.00802875638411],[13.572342252721668,46.00709786862446],[13.574483956684139,46.00725800674103],[13.574125277825217,46.0088045439978],[13.571602858941725,46.008772155613855],[13.57117558772854,46.00927908271384],[13.572123895505076,46.00989534616234],[13.571217566570478,46.0102435437647],[13.57021921871331,46.008715667915375],[13.568448230697367,46.008864493813704],[13.568488870376017,46.009568044977286],[13.570333015390267,46.0097420606262],[13.568251531076326,46.01106426811479],[13.570221458968042,46.010213768618776],[13.570994739748377,46.010829246464134],[13.56801101846117,46.01246399160201],[13.562308389034138,46.00918012533704],[13.564437271654848,46.00487945683105],[13.56156493277619,46.006311766256054],[13.56141572157207,46.00857224184425],[13.56,46.00849008008804],[13.56,46.009894550177556],[13.563460530724969,46.01194815928989],[13.56,46.01101753636653],[13.56,46.01143646411348],[13.56448852258324,46.01304021921448],[13.562660803551173,46.01481382842276],[13.56,46.014866244591],[13.56,46.015342025431195],[13.560216301903862,46.01538219722915],[13.566816838627929,46.014490254194165],[13.567380096810822,46.015441966777026],[13.565624264474486,46.01559723821695],[13.56530010935894,46.016800933985415],[13.560644030554931,46.017637883147145],[13.56,46.01735141903972],[13.56,46.017995289143705],[13.562160420759964,46.01770752667205]],[[13.579158783154893,46.01089420921818],[13.579506171686289,46.009605600484946],[13.582627537976073,46.010474243151236],[13.58350045210144,46.00967399386394],[13.583120196785703,46.00848620814097],[13.584778530061701,46.008529862112084],[13.584519155177146,46.0123089103263],[13.5823130356294,46.012891691218584],[13.584100437580027,46.01440018216674],[13.583222175311873,46.01555219607393],[13.579726416691674,46.014556819772814],[13.576264584470206,46.01462290894891],[13.575683230567721,46.012081022401844],[13.57648999000064,46.01130117376226],[13.57419902555719,46.01124640467703],[13.577059460469412,46.00963961133177],[13.579158783154893,46.01089420921818]],[[13.58479311853445,46.0048768988279],[13.584531681697962,46.005292553959656],[13.583386544192058,46.005240110936086],[13.583956994922445,46.004346332666614],[13.58479311853445,46.0048768988279]],[[13.584743176657586,46.00582669330278],[13.582892971750782,46.00626034994214],[13.582300685381663,46.00733576948525],[13.580864116195452,46.006881738052094],[13.582123095895895,46.00539405559739],[13.584743176657586,46.00582669330278]],[[13.582604955438642,46.007625349979094],[13.583133807514256,46.009520624220634],[13.582258972481078,46.009962685539215],[13.580079411276934,46.00879541225387],[13.579787200238266,46.00771317338537],[13.582604955438642,46.007625349979094]],[[13.579341558473025,46.009115576157846],[13.578799340458593,46.00962390946981],[13.57865476048933,46.008710458953125],[13.579341558473025,46.009115576157846]],[[13.576676288145785,46.02275104333168],[13.57611904889383,46.02298393893083],[13.57640369116019,46.022424062857034],[13.576676288145785,46.02275104333168]],[[13.576909560086976,46.00433896792999],[13.576253213104689,46.00446440666278],[13.576510488795439,46.00318958545672],[13.576909560086976,46.00433896792999]],[[13.57548034465932,46.0218349003613],[13.575020155658459,46.02232468335289],[13.574714397506403,46.02152767025867],[13.57548034465932,46.0218349003613]],[[13.572669925881215,46.01136210983744],[13.575484148133203,46.0135547404662],[13.574244033979314,46.013974953588644],[13.570587207015778,46.01263006217064],[13.570848629648081,46.01156430325771],[13.572669925881215,46.01136210983744]],[[13.5747922733794,46.02617111689133],[13.574344637349537,46.026650611570965],[13.572451785013419,46.02609035131321],[13.573285756801798,46.025052065984596],[13.5747922733794,46.02617111689133]],[[13.575036018757098,46.00319495854348],[13.570903462762265,46.003895317705485],[13.569528561483757,46.003017372191024],[13.570928127005844,46.001609437258494],[13.575036018757098,46.00319495854348]],[[13.57257667462208,46.00947014763289],[13.573238392973755,46.00927317246697],[13.572854712325936,46.009834990060114],[13.57257667462208,46.00947014763289]],[[13.561896721498869,46.00683875420604],[13.562571974286284,46.00674725236202],[13.5619567768513,46.00724187938144],[13.561896721498869,46.00683875420604]],[[13.561285734178549,46.00961197195817],[13.56080719274211,46.0099382273593],[13.560663436407095,46.00918281338283],[13.561285734178549,46.00961197195817]]]}},{"type":"Feature","properties":{"_zoneType":"SI_BUILT","name":"Pozidano zemljišče","authority":"MKGP","dataSource":"raba-3000"},"geometry":{"type":"Polygon","coordinates":[[[13.560724790291323,46.000405692879205],[13.560998304374529,46.0],[13.56,46.0],[13.56,46.00079057254887],[13.560724790291323,46.000405692879205]]]}},{"type":"Feature","properties":{"_zoneType":"SI_BUILT","name":"Pozidano zemljišče","authority":"MKGP","dataSource":"raba-3000"},"geometry":{"type":"Polygon","coordinates":[[[13.594390499672256,46.00252423084259],[13.595293419378695,46.004003141909266],[13.59338309369331,46.00522528019325],[13.595364623400442,46.0049788216517],[13.596881072723656,46.007050855558184],[13.599216277136147,46.00760190562727],[13.599834427509979,46.00711921535451],[13.598553877045367,46.00733573172285],[13.595956251574014,46.005618552803405],[13.597440032809303,46.00332290214124],[13.595294779424332,46.00245351605009],[13.595271829082405,46.00106156541536],[13.595728958131419,46.0],[13.594212017799837,46.0],[13.594978629457946,46.00061779016415],[13.594390499672256,46.00252423084259]]]}},{"type":"Feature","properties":{"_zoneType":"SI_BUILT","name":"Pozidano zemljišče","authority":"MKGP","dataSource":"raba-3000"},"geometry":{"type":"Polygon","coordinates":[[[13.598085504117064,46.001645985830095],[13.6,46.00205352626663],[13.6,46.001055667458026],[13.598233859200326,46.001166734652415],[13.6,46.00039845164026],[13.6,46.0],[13.598844496697932,46.0],[13.598198241842752,46.000440351497176],[13.598085504117064,46.001645985830095]]]}},{"type":"Feature","properties":{"_zoneType":"SI_BUILT","name":"Pozidano zemljišče","authority":"MKGP","dataSource":"raba-3000"},"geometry":{"type":"Polygon","coordinates":[[[13.600000000000001,46.01063228276019],[13.600000000000001,46.01028630169488],[13.6,46.01028630169488],[13.6,46.01063228276019],[13.600000000000001,46.01063228276019]]]}},{"type":"Feature","properties":{"_zoneType":"SI_BUILT","name":"Pozidano zemljišče","authority":"MKGP","dataSource":"raba-3000"},"geometry":{"type":"Polygon","coordinates":[[[13.600000000000001,46.00205352626663],[13.600000000000001,46.001055667458026],[13.6,46.001055667458026],[13.6,46.00205352626663],[13.600000000000001,46.00205352626663]]]}},{"type":"Feature","properties":{"_zoneType":"SI_BUILT","name":"Pozidano zemljišče","authority":"MKGP","dataSource":"raba-3000"},"geometry":{"type":"Polygon","coordinates":[[[13.600000000000001,46.00039845164026],[13.600000000000001,46.0],[13.6,46.0],[13.6,46.00039845164026],[13.600000000000001,46.00039845164026]]]}},{"type":"Feature","properties":{"_zoneType":"SI_BUILT","name":"Pozidano zemljišče","authority":"MKGP","dataSource":"raba-3000"},"geometry":{"type":"Polygon","coordinates":[[[13.59874513678747,46.02659027517357],[13.597367325896322,46.02883035312063],[13.598071769142207,46.03120379632298],[13.599700388153504,46.03122376523461],[13.6,46.030938131027135],[13.6,46.02983024788982],[13.599836030321423,46.02990156174982],[13.599766802379634,46.02879980738735],[13.599300430785426,46.03095873343755],[13.598064574653584,46.03027397782095],[13.597855741394206,46.02883770648605],[13.599441444361867,46.02728094259239],[13.6,46.02718502706617],[13.6,46.025505089408774],[13.595859916367878,46.02661846056993],[13.593641704122494,46.02810741342253],[13.59388296010648,46.02913962051585],[13.592476661173315,46.02870522020874],[13.593040378712722,46.031141958483325],[13.595085090806545,46.03116345485846],[13.595408385530522,46.02804970269652],[13.59874513678747,46.02659027517357]]]}},{"type":"Feature","properties":{"_zoneType":"SI_BUILT","name":"Pozidano zemljišče","authority":"MKGP","dataSource":"raba-3000"},"geometry":{"type":"Polygon","coordinates":[[[13.600000000000001,46.030938131027135],[13.600000000000001,46.02983024788982],[13.6,46.02983024788982],[13.6,46.030938131027135],[13.600000000000001,46.030938131027135]]]}},{"type":"Feature","properties":{"_zoneType":"SI_BUILT","name":"Pozidano zemljišče","authority":"MKGP","dataSource":"raba-3000"},"geometry":{"type":"Polygon","coordinates":[[[13.600000000000001,46.02718502706617],[13.600000000000001,46.025505089408774],[13.6,46.025505089408774],[13.6,46.02718502706617],[13.600000000000001,46.02718502706617]]]}},{"type":"Feature","properties":{"_zoneType":"SI_BUILT","name":"Pozidano zemljišče","authority":"MKGP","dataSource":"raba-3000"},"geometry":{"type":"Polygon","coordinates":[[[13.562024017598691,46.03033004651076],[13.561991086993018,46.0307554460587],[13.562637315921478,46.03056331268778],[13.562024017598691,46.03033004651076]]]}},{"type":"Feature","properties":{"_zoneType":"SI_BUILT","name":"Pozidano zemljišče","authority":"MKGP","dataSource":"raba-3000"},"geometry":{"type":"Polygon","coordinates":[[[13.482675569893368,46.003632092084594],[13.482326255949141,46.003664087111204],[13.482725207556163,46.00379163459267],[13.482675569893368,46.003632092084594]]]}},{"type":"Feature","properties":{"_zoneType":"SI_BUILT","name":"Pozidano zemljišče","authority":"MKGP","dataSource":"raba-3000"},"geometry":{"type":"Polygon","coordinates":[[[13.596674367957048,46.013276515707496],[13.596593552212314,46.01306293578468],[13.596388211827504,46.01332617361814],[13.596674367957048,46.013276515707496]]]}},{"type":"Feature","properties":{"_zoneType":"SI_BUILT","name":"Pozidano zemljišče","authority":"MKGP","dataSource":"raba-3000"},"geometry":{"type":"Polygon","coordinates":[[[13.578475139874342,46.0204182501053],[13.578267900979567,46.02051783628778],[13.578650464663953,46.02065105478857],[13.578475139874342,46.0204182501053]]]}},{"type":"Feature","properties":{"_zoneType":"SI_BUILT","name":"Pozidano zemljišče","authority":"MKGP","dataSource":"raba-3000"},"geometry":{"type":"Polygon","coordinates":[[[13.592237751259388,46.01593465627379],[13.592914681433035,46.01691430491753],[13.593056459223515,46.01578114223746],[13.596239703784464,46.01512041038718],[13.590901294143299,46.01574961384924],[13.586823342291384,46.014840481491206],[13.59069956668907,46.01598529336086],[13.592237751259388,46.01593465627379]]]}},{"type":"Feature","properties":{"_zoneType":"SI_BUILT","name":"Pozidano zemljišče","authority":"MKGP","dataSource":"raba-3000"},"geometry":{"type":"Polygon","coordinates":[[[13.587803861888409,46.00499326063875],[13.586261901242201,46.005071280334036],[13.587309595869527,46.005252716158225],[13.587803861888409,46.00499326063875]]]}},{"type":"Feature","properties":{"_zoneType":"SI_BUILT","name":"Pozidano zemljišče","authority":"MKGP","dataSource":"raba-3000"},"geometry":{"type":"Polygon","coordinates":[[[13.562856738999264,46.02099524417937],[13.562632260428622,46.02087582828082],[13.56271107837575,46.02113057561596],[13.562856738999264,46.02099524417937]]]}},{"type":"Feature","properties":{"_zoneType":"SI_BUILT","name":"Pozidano zemljišče","authority":"MKGP","dataSource":"raba-3000"},"geometry":{"type":"Polygon","coordinates":[[[13.5501094335849,46.02085221878113],[13.550705430890428,46.02220272248371],[13.550555774789412,46.02086565456302],[13.5501094335849,46.02085221878113]]]}},{"type":"Feature","properties":{"_zoneType":"SI_BUILT","name":"Pozidano zemljišče","authority":"MKGP","dataSource":"raba-3000"},"geometry":{"type":"Polygon","coordinates":[[[13.567742684123433,46.01139460558131],[13.568090626064352,46.011455260600314],[13.567783736991489,46.01128249245702],[13.567742684123433,46.01139460558131]]]}},{"type":"Feature","properties":{"_zoneType":"SI_BUILT","name":"Pozidano zemljišče","authority":"MKGP","dataSource":"raba-3000"},"geometry":{"type":"Polygon","coordinates":[[[13.557745833947408,46.01196253596113],[13.557398949905314,46.01145346261646],[13.557506704418136,46.01206182804491],[13.557745833947408,46.01196253596113]]]}},{"type":"Feature","properties":{"_zoneType":"SI_BUILT","name":"Pozidano zemljišče","authority":"MKGP","dataSource":"raba-3000"},"geometry":{"type":"Polygon","coordinates":[[[13.546263971013522,46.01453124371573],[13.546057099014131,46.014412323713735],[13.546098026270457,46.014672974601886],[13.546263971013522,46.01453124371573]]]}},{"type":"Feature","properties":{"_zoneType":"SI_BUILT","name":"Pozidano zemljišče","authority":"MKGP","dataSource":"raba-3000"},"geometry":{"type":"Polygon","coordinates":[[[13.56056877662201,46.00529857520242],[13.560276764944355,46.00520137332368],[13.560412506296013,46.005478344139135],[13.56056877662201,46.00529857520242]]]}},{"type":"Feature","properties":{"_zoneType":"SI_BUILT","name":"Pozidano zemljišče","authority":"MKGP","dataSource":"raba-3000"},"geometry":{"type":"Polygon","coordinates":[[[13.557314382337356,46.014055838485824],[13.55711048081661,46.013957449317886],[13.55610822809283,46.01472767036921],[13.557314382337356,46.014055838485824]]]}},{"type":"Feature","properties":{"_zoneType":"SI_BUILT","name":"Pozidano zemljišče","authority":"MKGP","dataSource":"raba-3000"},"geometry":{"type":"Polygon","coordinates":[[[13.553548632481172,46.026034523001336],[13.553097966820104,46.0261549823289],[13.553036881316899,46.02687323963896],[13.553548632481172,46.026034523001336]]]}},{"type":"Feature","properties":{"_zoneType":"SI_BUILT","name":"Pozidano zemljišče","authority":"MKGP","dataSource":"raba-3000"},"geometry":{"type":"Polygon","coordinates":[[[13.553475297100135,46.0005345298663],[13.553719312986448,46.00062331486716],[13.553618211299549,46.00036576685283],[13.553475297100135,46.0005345298663]]]}},{"type":"Feature","properties":{"_zoneType":"SI_BUILT","name":"Pozidano zemljišče","authority":"MKGP","dataSource":"raba-3000"},"geometry":{"type":"Polygon","coordinates":[[[13.551698215026805,46.02052922951356],[13.551693944921917,46.02069273867855],[13.552011005547254,46.02053319356682],[13.551698215026805,46.02052922951356]]]}},{"type":"Feature","properties":{"_zoneType":"SI_BUILT","name":"Pozidano zemljišče","authority":"MKGP","dataSource":"raba-3000"},"geometry":{"type":"Polygon","coordinates":[[[13.54506612228358,46.01258301957274],[13.545308792304802,46.01265798007635],[13.545155055840613,46.01241981627685],[13.54506612228358,46.01258301957274]]]}},{"type":"Feature","properties":{"_zoneType":"SI_BUILT","name":"Pozidano zemljišče","authority":"MKGP","dataSource":"raba-3000"},"geometry":{"type":"Polygon","coordinates":[[[13.544977208526578,46.023059436798256],[13.544876327144644,46.02291362749681],[13.544713267611087,46.023144301226935],[13.544977208526578,46.023059436798256]]]}},{"type":"Feature","properties":{"_zoneType":"SI_BUILT","name":"Pozidano zemljišče","authority":"MKGP","dataSource":"raba-3000"},"geometry":{"type":"Polygon","coordinates":[[[13.543787350066975,46.01005248001497],[13.54353192086728,46.01000943436603],[13.543427555909922,46.010609571979835],[13.543787350066975,46.01005248001497]]]}},{"type":"Feature","properties":{"_zoneType":"SI_BUILT","name":"Pozidano zemljišče","authority":"MKGP","dataSource":"raba-3000"},"geometry":{"type":"Polygon","coordinates":[[[13.542155013342915,46.00511878660049],[13.542454715257817,46.00515567048032],[13.542216949418679,46.00494806478053],[13.542155013342915,46.00511878660049]]]}},{"type":"Feature","properties":{"_zoneType":"SI_BUILT","name":"Pozidano zemljišče","authority":"MKGP","dataSource":"raba-3000"},"geometry":{"type":"Polygon","coordinates":[[[13.540092740986609,46.0173982974667],[13.540374602701133,46.01749290968343],[13.540130256670594,46.01728668306814],[13.540092740986609,46.0173982974667]]]}},{"type":"Feature","properties":{"_zoneType":"SI_BUILT","name":"Pozidano zemljišče","authority":"MKGP","dataSource":"raba-3000"},"geometry":{"type":"Polygon","coordinates":[[[13.521782573768009,46.006672599360975],[13.521561271497282,46.006803278264435],[13.522070031609575,46.00739157563836],[13.521782573768009,46.006672599360975]]]}},{"type":"Feature","properties":{"_zoneType":"SI_BUILT","name":"Pozidano zemljišče","authority":"MKGP","dataSource":"raba-3000"},"geometry":{"type":"Polygon","coordinates":[[[13.520800891156686,46.02051470969383],[13.520766056686538,46.02032358828687],[13.520476229970496,46.02054344489462],[13.520800891156686,46.02051470969383]]]}},{"type":"Feature","properties":{"_zoneType":"SI_BUILT","name":"Pozidano zemljišče","authority":"MKGP","dataSource":"raba-3000"},"geometry":{"type":"Polygon","coordinates":[[[13.52063431809831,46.016377079781265],[13.520422531014404,46.01482059101467],[13.520433887312825,46.0163160793399],[13.52063431809831,46.016377079781265]]]}},{"type":"Feature","properties":{"_zoneType":"SI_BUILT","name":"Pozidano zemljišče","authority":"MKGP","dataSource":"raba-3000"},"geometry":{"type":"Polygon","coordinates":[[[13.519876284301766,46.0055231573148],[13.519849833150255,46.00569107430083],[13.52,46.00561551197748],[13.52,46.00552971750462],[13.519876284301766,46.0055231573148]]]}},{"type":"Feature","properties":{"_zoneType":"SI_BUILT","name":"Pozidano zemljišče","authority":"MKGP","dataSource":"raba-3000"},"geometry":{"type":"Polygon","coordinates":[[[13.52,46.00552971750462],[13.52,46.00561551197748],[13.520154246837365,46.005537896648804],[13.52,46.00552971750462]]]}},{"type":"Feature","properties":{"_zoneType":"SI_BUILT","name":"Pozidano zemljišče","authority":"MKGP","dataSource":"raba-3000"},"geometry":{"type":"Polygon","coordinates":[[[13.517654992111535,46.0080893899288],[13.518168747832183,46.008909351251816],[13.518050331040289,46.00815418798747],[13.517654992111535,46.0080893899288]]]}},{"type":"Feature","properties":{"_zoneType":"SI_BUILT","name":"Pozidano zemljišče","authority":"MKGP","dataSource":"raba-3000"},"geometry":{"type":"Polygon","coordinates":[[[13.516068544621726,46.01899833894954],[13.51658078709683,46.019236070299584],[13.515369561042741,46.0176980627766],[13.516068544621726,46.01899833894954]]]}},{"type":"Feature","properties":{"_zoneType":"SI_BUILT","name":"Pozidano zemljišče","authority":"MKGP","dataSource":"raba-3000"},"geometry":{"type":"Polygon","coordinates":[[[13.512458487066873,46.01087837855932],[13.512516033138436,46.01104522281568],[13.512755293682359,46.01081788407434],[13.512458487066873,46.01087837855932]]]}},{"type":"Feature","properties":{"_zoneType":"SI_BUILT","name":"Pozidano zemljišče","authority":"MKGP","dataSource":"raba-3000"},"geometry":{"type":"Polygon","coordinates":[[[13.489948620605952,46.009796453756685],[13.487266170195157,46.008139767185945],[13.48830440399492,46.00938202476274],[13.489948620605952,46.009796453756685]]]}}]}