{"type":"FeatureCollection","features":[{"type":"Feature","properties":{"_zoneType":"SI_BUILT","name":"Pozidano zemljišče","authority":"MKGP","dataSource":"raba-3000"},"geometry":{"type":"Polygon","coordinates":[[[13.836525702424007,46.47955100360782],[13.835719449727332,46.479132041902766],[13.835042599872235,46.480000000000004],[13.836442707032056,46.480000000000004],[13.836525702424007,46.47955100360782]]]}},{"type":"Feature","properties":{"_zoneType":"SI_BUILT","name":"Pozidano zemljišče","authority":"MKGP","dataSource":"raba-3000"},"geometry":{"type":"Polygon","coordinates":[[[13.83321399100805,46.47758188713968],[13.832146723681946,46.47584771737593],[13.832834364557295,46.47777105313827],[13.831327921046588,46.480000000000004],[13.832181841491996,46.480000000000004],[13.83321399100805,46.47758188713968]]]}},{"type":"Feature","properties":{"_zoneType":"SI_BUILT","name":"Pozidano zemljišče","authority":"MKGP","dataSource":"raba-3000"},"geometry":{"type":"Polygon","coordinates":[[[13.8,46.49711557372926],[13.8,46.49786329796325],[13.800718618107858,46.49828353708965],[13.8,46.49711557372926]]]}},{"type":"Feature","properties":{"_zoneType":"SI_BUILT","name":"Pozidano zemljišče","authority":"MKGP","dataSource":"raba-3000"},"geometry":{"type":"Polygon","coordinates":[[[13.8,46.49574943749957],[13.8,46.49643887494638],[13.800368851872806,46.496074463086636],[13.8,46.49574943749957]]]}},{"type":"Feature","properties":{"_zoneType":"SI_BUILT","name":"Pozidano zemljišče","authority":"MKGP","dataSource":"raba-3000"},"geometry":{"type":"Polygon","coordinates":[[[13.806765162146329,46.492535176179395],[13.804702320118254,46.49331651363695],[13.802960005312137,46.49231493648873],[13.803576902805267,46.49357285568478],[13.8,46.49400014185782],[13.8,46.4946574527922],[13.806744226335574,46.493160383251414],[13.806765162146329,46.492535176179395]]]}},{"type":"Feature","properties":{"_zoneType":"SI_BUILT","name":"Pozidano zemljišče","authority":"MKGP","dataSource":"raba-3000"},"geometry":{"type":"Polygon","coordinates":[[[13.814058103560205,46.4884864921449],[13.8158587730747,46.48741891357874],[13.826276010394809,46.48776893618078],[13.83353916002186,46.48530002711645],[13.831579624808663,46.48667618076932],[13.834885446900676,46.48590035275981],[13.837416346158433,46.48692213629222],[13.834005270836077,46.48784741641968],[13.8365649443385,46.48824589858265],[13.835938131498331,46.490318738180704],[13.833401962132356,46.48939735071511],[13.821353800434656,46.49312335208733],[13.823696510062678,46.49336807396935],[13.824509174402674,46.49464987485834],[13.823965899745877,46.492666826748284],[13.828385217880856,46.49094965816916],[13.833609831168458,46.49034432228412],[13.835362043634644,46.49240635198368],[13.836212787842967,46.49206545952315],[13.83509682637407,46.490745169923244],[13.839656509688211,46.490326186177995],[13.84,46.49038529963739],[13.84,46.489239376199464],[13.837840063543618,46.48942178006349],[13.84,46.48859527501204],[13.84,46.487948567447845],[13.839372440637996,46.48766646262905],[13.839729906755007,46.487139610341494],[13.84,46.48713392376481],[13.84,46.48583691506594],[13.839964683076824,46.48584233596931],[13.83829090550438,46.483997008872315],[13.84,46.484333720855936],[13.84,46.48232392066477],[13.83908399547435,46.48207955298632],[13.839020764827309,46.480603424195365],[13.84,46.48062001629998],[13.84,46.480424784830824],[13.83899452963088,46.48027771388638],[13.837799279720606,46.48147195447656],[13.83631138403433,46.48071044368614],[13.836442707032056,46.480000000000004],[13.835042599872235,46.480000000000004],[13.834814865644248,46.480292034881465],[13.832094940997834,46.480203589886194],[13.832181841491996,46.480000000000004],[13.831327921046588,46.480000000000004],[13.830979386413238,46.48051569486124],[13.823446432747081,46.484110924524856],[13.818881774713981,46.48511183673513],[13.817955888914533,46.484516926105734],[13.815635531217916,46.48605794693905],[13.813025181308713,46.48627260373442],[13.813721442349989,46.48432192442745],[13.812170991077322,46.486043521215635],[13.810572343143255,46.48438476257239],[13.810933783004081,46.486210544431565],[13.8065662629061,46.486023381578086],[13.805421210716359,46.48424493814033],[13.804574397724117,46.485610294335295],[13.802248244137315,46.48595650672413],[13.8,46.485492991470565],[13.8,46.48788077088389],[13.81539518877264,46.489142406973635],[13.814058103560205,46.4884864921449]],[[13.838887023312536,46.483168119117124],[13.836408654445622,46.4842092634871],[13.835391052736762,46.48403095798328],[13.838142923453473,46.48271796868866],[13.838887023312536,46.483168119117124]],[[13.837496454722519,46.48709251650344],[13.83763650049797,46.48674963057548],[13.838248373936043,46.48723306500302],[13.837496454722519,46.48709251650344]],[[13.835556472480057,46.480863650601755],[13.83601056370518,46.48203932943429],[13.835205315147606,46.483020224377206],[13.831878381900184,46.48337242166494],[13.830964266155426,46.481447734803886],[13.833573265281123,46.480463249372065],[13.835556472480057,46.480863650601755]],[[13.830947133692641,46.48353372041907],[13.830053795584261,46.48337928562028],[13.829808287943456,46.48122737354736],[13.83040925205232,46.4813892996371],[13.830947133692641,46.48353372041907]],[[13.830983887384217,46.48566480209742],[13.830336989151968,46.48614517479209],[13.830436079691259,46.48533601846851],[13.830983887384217,46.48566480209742]],[[13.829333320264078,46.4820371525846],[13.829761884586485,46.48358200472357],[13.828108364934407,46.48385787048353],[13.828399009397984,46.48517692819985],[13.825611334666997,46.48554045334092],[13.823701293836505,46.48432078258641],[13.829333320264078,46.4820371525846]],[[13.824944514467798,46.48723627792778],[13.824650672731492,46.48757514514453],[13.823791775603148,46.48683327466535],[13.824944514467798,46.48723627792778]],[[13.824838888431872,46.4857165681977],[13.81956190534003,46.4863612695162],[13.818948376710589,46.48573149604649],[13.821921805933524,46.4846795144243],[13.824838888431872,46.4857165681977]],[[13.823119054428467,46.48675677921801],[13.823096828925454,46.48712325805483],[13.822419147842174,46.4867193384969],[13.823119054428467,46.48675677921801]],[[13.818503407304254,46.48677798212062],[13.818255783122368,46.48711665028485],[13.81711726113578,46.48660327011625],[13.818503407304254,46.48677798212062]],[[13.814479569701186,46.48763421246424],[13.813674933164085,46.48828123828815],[13.813103466011912,46.48785960626878],[13.813948973330357,46.48736737890256],[13.814479569701186,46.48763421246424]],[[13.813825034006891,46.486869740369016],[13.813248312676148,46.487257752112335],[13.812080176540835,46.487158144411765],[13.81252684324348,46.486624300169275],[13.813825034006891,46.486869740369016]],[[13.812597358582254,46.48825151818041],[13.812184708136165,46.488548456175955],[13.810494340730553,46.48833567302876],[13.811704379099975,46.487684610148676],[13.812597358582254,46.48825151818041]],[[13.80950249167215,46.486728977452],[13.809658340939102,46.48639152921203],[13.810330364897904,46.48689340430939],[13.80950249167215,46.486728977452]]]}},{"type":"Feature","properties":{"_zoneType":"SI_BUILT","name":"Pozidano zemljišče","authority":"MKGP","dataSource":"raba-3000"},"geometry":{"type":"Polygon","coordinates":[[[13.879895984469776,46.430290992648324],[13.878438353171681,46.431022898399156],[13.8756147177114,46.430326955307564],[13.868457030592415,46.425711555713235],[13.866001589487523,46.42498925276951],[13.864272353599883,46.42259053821869],[13.858264118691379,46.41770054390255],[13.848821291301318,46.413826592744506],[13.850610468447973,46.41212401713096],[13.84721516474596,46.41278346353297],[13.845977600395125,46.41200655072587],[13.844446622762165,46.41056439049418],[13.844939262593549,46.409693876414224],[13.84381270607259,46.409683618475356],[13.84413432052551,46.40851886043513],[13.842469961724596,46.408461967738276],[13.841439693731617,46.405756869734056],[13.842148223424406,46.40962411050634],[13.84608414647052,46.41267119719169],[13.857872364476785,46.41803750073308],[13.862722134456055,46.42161993697831],[13.862904938209166,46.422588282821664],[13.86112184185485,46.42214205273934],[13.861631842375013,46.423355368290835],[13.863469673302665,46.422894162138334],[13.865681616474465,46.42513364735935],[13.871105480773005,46.42755366136617],[13.875077088080177,46.43069533623541],[13.879244160469115,46.43132012724931],[13.88,46.43217365283065],[13.88,46.430327324909314],[13.879895984469776,46.430290992648324]]]}},{"type":"Feature","properties":{"_zoneType":"SI_BUILT","name":"Pozidano zemljišče","authority":"MKGP","dataSource":"raba-3000"},"geometry":{"type":"Polygon","coordinates":[[[13.873372539971518,46.478997746612485],[13.876767428168748,46.4799104525159],[13.877746136624877,46.47894877543149],[13.88,46.47911450145943],[13.88,46.47867306802653],[13.873664117063239,46.47821769800952],[13.877020267910257,46.47676021486639],[13.88,46.47731480643116],[13.88,46.47638330516057],[13.875389617252656,46.476778804933275],[13.86902822375295,46.4795489538459],[13.860631864350813,46.480000000000004],[13.867844003775648,46.480000000000004],[13.873372539971518,46.478997746612485]]]}},{"type":"Feature","properties":{"_zoneType":"SI_BUILT","name":"Pozidano zemljišče","authority":"MKGP","dataSource":"raba-3000"},"geometry":{"type":"Polygon","coordinates":[[[13.850856227392356,46.478896037790314],[13.850369753906222,46.480000000000004],[13.851252336560789,46.480000000000004],[13.850856227392356,46.478896037790314]]]}},{"type":"Feature","properties":{"_zoneType":"SI_BUILT","name":"Pozidano zemljišče","authority":"MKGP","dataSource":"raba-3000"},"geometry":{"type":"Polygon","coordinates":[[[13.847245951170423,46.49163230202902],[13.857509835315243,46.495120911048154],[13.861928183322963,46.495427904986165],[13.862744987316056,46.49521753060079],[13.857603093649457,46.49490450310026],[13.847057383277235,46.49120661461672],[13.841603527250054,46.49016228374909],[13.843508858875472,46.488943057566885],[13.84,46.489239376199464],[13.84,46.49038529963739],[13.847245951170423,46.49163230202902]]]}},{"type":"Feature","properties":{"_zoneType":"SI_BUILT","name":"Pozidano zemljišče","authority":"MKGP","dataSource":"raba-3000"},"geometry":{"type":"Polygon","coordinates":[[[13.840777125185973,46.488297906128835],[13.84,46.487948567447845],[13.84,46.48859527501204],[13.840777125185973,46.488297906128835]]]}},{"type":"Feature","properties":{"_zoneType":"SI_BUILT","name":"Pozidano zemljišče","authority":"MKGP","dataSource":"raba-3000"},"geometry":{"type":"Polygon","coordinates":[[[13.84489887980329,46.48703078214169],[13.850391839928552,46.484934423074094],[13.852286954276815,46.48514603920275],[13.855187788183732,46.48321467457853],[13.856816001114074,46.48326687253149],[13.856775110898635,46.481945383442586],[13.860057809463044,46.48063978427876],[13.866811317745293,46.48018721285988],[13.867844003775648,46.480000000000004],[13.860631864350813,46.480000000000004],[13.851429706625538,46.48049433303801],[13.851252336560789,46.480000000000004],[13.850369753906222,46.480000000000004],[13.850151600172275,46.4804950598235],[13.84798510580858,46.480920328652026],[13.842821778622358,46.483076702416106],[13.84,46.48232392066477],[13.84,46.484333720855936],[13.84162545405335,46.48465395467565],[13.841324984054744,46.48563353918021],[13.84,46.48583691506594],[13.84,46.48713392376481],[13.84489887980329,46.48703078214169]],[[13.854774221818966,46.48241228077862],[13.850971984417138,46.48324400548923],[13.850482338219274,46.48232633895115],[13.854129329468318,46.481313290433],[13.854774221818966,46.48241228077862]],[[13.850935801872968,46.48122463935945],[13.851230728044946,46.48073655981281],[13.853160504641167,46.480667479587986],[13.85294376854865,46.481347154933054],[13.850935801872968,46.48122463935945]],[[13.850596425015299,46.481020387453384],[13.847728869132428,46.4834308813926],[13.846601771959175,46.48265879379491],[13.8455587266812,46.4839837761014],[13.842518789325451,46.483821843614216],[13.847504540599598,46.48135257652903],[13.850596425015299,46.481020387453384]],[[13.849623034886644,46.48355179990804],[13.848289432981252,46.484137600920455],[13.849184988445577,46.48317865081363],[13.849623034886644,46.48355179990804]]]}},{"type":"Feature","properties":{"_zoneType":"SI_BUILT","name":"Pozidano zemljišče","authority":"MKGP","dataSource":"raba-3000"},"geometry":{"type":"Polygon","coordinates":[[[13.84150959738322,46.480645594831486],[13.84,46.480424784830824],[13.84,46.48062001629998],[13.84150959738322,46.480645594831486]]]}},{"type":"Feature","properties":{"_zoneType":"SI_BUILT","name":"Pozidano zemljišče","authority":"MKGP","dataSource":"raba-3000"},"geometry":{"type":"Polygon","coordinates":[[[13.897606116109387,46.43933582463391],[13.896219064433442,46.438066246453495],[13.891206235761919,46.436875028752745],[13.887648514520333,46.43384311156398],[13.884558005710915,46.432726682185056],[13.88419738601236,46.43179345716619],[13.88,46.430327324909314],[13.88,46.43217365283065],[13.882210029214846,46.43466931016704],[13.882287113897815,46.437327332589156],[13.886683221844773,46.439741545091195],[13.888998039199224,46.44],[13.889349854544571,46.44],[13.887193518450436,46.43965599046923],[13.885230464532926,46.43790070198588],[13.882554684841292,46.43717821239688],[13.882573444320316,46.43466074522927],[13.880608114269505,46.43176944080174],[13.883892273123204,46.432053801179805],[13.884118158301733,46.43292902365702],[13.887409173242128,46.43408613295722],[13.890893011534915,46.43707132191051],[13.895791512839255,46.43833417684178],[13.89745607631928,46.43958475472926],[13.89871727210734,46.44],[13.900562168615142,46.44],[13.897606116109387,46.43933582463391]]]}},{"type":"Feature","properties":{"_zoneType":"SI_BUILT","name":"Pozidano zemljišče","authority":"MKGP","dataSource":"raba-3000"},"geometry":{"type":"Polygon","coordinates":[[[13.885484780835116,46.47951779606546],[13.886800416401943,46.47832314162298],[13.900932021544925,46.475558668701844],[13.905696160940641,46.475685600332774],[13.912293915423994,46.478213279744665],[13.910874825678524,46.47543907704106],[13.916698335966055,46.471971252805936],[13.92,46.4714891057346],[13.92,46.47001200367434],[13.918035653858626,46.46922545870247],[13.91434474479824,46.46933737094395],[13.916286754483489,46.470850378027144],[13.903419981309423,46.47290520788327],[13.902626738786084,46.47237507531841],[13.894571133524675,46.475017286267274],[13.890705375016381,46.47457706468631],[13.885977779207789,46.47525925426075],[13.885190569087408,46.474906588594344],[13.886331969421837,46.473824244873974],[13.885713942518763,46.47365946214835],[13.88223192875717,46.475858950720905],[13.884362805586766,46.476009043691946],[13.88,46.47638330516057],[13.88,46.47731480643116],[13.88135284093313,46.47756659892371],[13.888935436149184,46.47495452235668],[13.894120387123774,46.47532906030994],[13.898493639520783,46.474706056501475],[13.898195782015323,46.47548270726524],[13.893075113709319,46.47601933070406],[13.884207260377643,46.47897545054351],[13.88,46.47867306802653],[13.88,46.47911450145943],[13.885484780835116,46.47951779606546]],[[13.918228850916103,46.47004600550307],[13.916920052722343,46.47076754292573],[13.916492215969805,46.470156187060745],[13.917455690595808,46.46956508984482],[13.918228850916103,46.47004600550307]],[[13.909579538430625,46.4721060263335],[13.914608052366821,46.472147929765434],[13.910853842498987,46.475000556059065],[13.90845739184129,46.47292634190524],[13.909579538430625,46.4721060263335]],[[13.899755386674277,46.474107677322934],[13.906523666383949,46.47256384795186],[13.90798536118375,46.47396846034105],[13.90747119496603,46.475063870873875],[13.909124196758544,46.47516237913765],[13.907487175691454,46.475870909270576],[13.905659769751052,46.47525832057746],[13.900457194944012,46.47526111785034],[13.899755386674277,46.474107677322934]]]}},{"type":"Feature","properties":{"_zoneType":"SI_BUILT","name":"Pozidano zemljišče","authority":"MKGP","dataSource":"raba-3000"},"geometry":{"type":"Polygon","coordinates":[[[13.919617924742987,46.44805668027546],[13.91080285382264,46.443841475525716],[13.901933665596662,46.442052613355614],[13.901358858870996,46.440179002924104],[13.900562168615142,46.44],[13.89871727210734,46.44],[13.900250540982794,46.440504824592125],[13.90164136250583,46.44223488986753],[13.910602272195518,46.444073140982354],[13.919073889207942,46.44813891968548],[13.92,46.448391697576945],[13.92,46.4481167556064],[13.919617924742987,46.44805668027546]]]}},{"type":"Feature","properties":{"_zoneType":"SI_BUILT","name":"Pozidano zemljišče","authority":"MKGP","dataSource":"raba-3000"},"geometry":{"type":"Polygon","coordinates":[[[13.890170228007609,46.44013087769149],[13.889349854544571,46.44],[13.888998039199224,46.44],[13.890170228007609,46.44013087769149]]]}},{"type":"Feature","properties":{"_zoneType":"SI_BUILT","name":"Pozidano zemljišče","authority":"MKGP","dataSource":"raba-3000"},"geometry":{"type":"Polygon","coordinates":[[[13.932058471893706,46.43976730412208],[13.93102001727838,46.43867578280567],[13.932716339482237,46.43665528250734],[13.93121158907021,46.43684645093305],[13.930541790795644,46.43384181018791],[13.935570531927203,46.43191385124662],[13.940561898885495,46.432555067280646],[13.944864454379037,46.430830991050186],[13.947934772781963,46.431849161801445],[13.95086968126349,46.43136968072118],[13.95270537165006,46.43274761842967],[13.954985622576574,46.43213329491731],[13.95501462313444,46.43126181685857],[13.952336070002868,46.43170358644334],[13.950826904190778,46.43111460541865],[13.94790702709608,46.43135786596076],[13.945817044467688,46.43064557434216],[13.94850262045798,46.42864250996421],[13.959055072689667,46.429934256590144],[13.954820249907295,46.428606194916256],[13.947642884745163,46.42799937600279],[13.94521002153835,46.430401858512354],[13.942993013685212,46.430040995019695],[13.943822980391975,46.43080445683582],[13.939764790610713,46.431958318587554],[13.935433470679365,46.431436664136214],[13.936296452229097,46.42986583267918],[13.934722699430916,46.43141392617754],[13.932105652745603,46.431721857116614],[13.932268629090494,46.43267547561702],[13.930239285135459,46.433566634192886],[13.930638563553284,46.43871440412604],[13.93146429680735,46.44],[13.932091576100337,46.44],[13.932058471893706,46.43976730412208]]]}},{"type":"Feature","properties":{"_zoneType":"SI_BUILT","name":"Pozidano zemljišče","authority":"MKGP","dataSource":"raba-3000"},"geometry":{"type":"Polygon","coordinates":[[[13.920474899297057,46.471419755460644],[13.920945067903313,46.47008761906983],[13.9237377233779,46.46848574674449],[13.926574409574494,46.46783823570792],[13.927412990091545,46.46849285937185],[13.93521172995025,46.46712765909487],[13.936451564184589,46.46817856096402],[13.938395144791103,46.467858373715806],[13.938812094546055,46.46878027279041],[13.939247038340733,46.46778988860788],[13.943623463555868,46.46766753564511],[13.944004085378252,46.46851431100427],[13.942084861449924,46.46996070852891],[13.942487543011488,46.4706134616896],[13.938948676964374,46.47103931289702],[13.93872027750816,46.47290304820807],[13.937079843966409,46.47153385488893],[13.933426011178053,46.4717217087486],[13.935817462187398,46.47316096490453],[13.936173783723829,46.47178751641729],[13.93853464598204,46.47321238747878],[13.940960568243147,46.471439713963164],[13.945179501509239,46.47043327415786],[13.946479099916175,46.47208295837272],[13.945469699595844,46.4701691459487],[13.94696570515224,46.46870964587266],[13.949187635456639,46.46928929631994],[13.95109702909604,46.46862583769865],[13.952121834341284,46.46939743907145],[13.954138889328052,46.46874350808301],[13.957179423253029,46.469842275989734],[13.951379569535082,46.47208133592093],[13.954353906847945,46.47156513096404],[13.957670316279321,46.47313762677802],[13.952079823121956,46.47360897472697],[13.953108801730206,46.47448319617102],[13.948311466139263,46.47634337746459],[13.943033987930939,46.47587369669005],[13.940180013243348,46.47656830821148],[13.93636219893824,46.47904410931567],[13.929506640452766,46.477205234279545],[13.924500467103336,46.47849368763333],[13.92990927360758,46.4774753461069],[13.93691034064547,46.47949504008291],[13.938696564952439,46.47817865867759],[13.940943387684657,46.47810813011111],[13.940840230807604,46.47677181386487],[13.943091834942782,46.476114506309216],[13.94838993122528,46.476639385997096],[13.954933432460626,46.47444197306289],[13.95818783408461,46.475428861043326],[13.954716073318775,46.47346261083053],[13.958217185924765,46.47389089342671],[13.958233572572986,46.47303221653604],[13.954217326561395,46.471016388977134],[13.958276248526126,46.47079576877615],[13.958326272639521,46.468173898175294],[13.952452227717309,46.466468464018405],[13.956495037658025,46.465113064859416],[13.958201646066929,46.466488579993104],[13.958136399690092,46.463015902126955],[13.951368150804239,46.46409358486662],[13.951393400616702,46.46322607693219],[13.956742598980695,46.46229522071201],[13.946810240191018,46.462824793442756],[13.944183096357651,46.46141388051065],[13.944948248350663,46.4604636900091],[13.949499655805221,46.45947774471374],[13.952001267049702,46.46117265348106],[13.950919068665698,46.45983853487578],[13.95847577482319,46.46033598142438],[13.958506864777416,46.458705623514206],[13.957977047633948,46.45994081056762],[13.951401990589337,46.45946822834504],[13.950588445567425,46.45836283552074],[13.948392592745304,46.459514662610964],[13.945351038543429,46.459052783225005],[13.942602644646744,46.45983056849286],[13.942736082427436,46.458766073184634],[13.94169764443107,46.45872745878966],[13.938820599584144,46.45447527853495],[13.936313880691552,46.452653779153195],[13.935418054104288,46.44990174638884],[13.9333050815651,46.448529964865884],[13.932091576100337,46.44],[13.93146429680735,46.44],[13.931819286933372,46.440552689187534],[13.931296243217323,46.44279252859667],[13.932330849967942,46.44376909013471],[13.932549734803475,46.44752767393396],[13.930648062618324,46.447595145305435],[13.932537400990219,46.44791505639895],[13.934907945392533,46.44989373536019],[13.9359078250331,46.45311596312287],[13.938319721484739,46.454589122316],[13.936687656478602,46.45485541949741],[13.93517302765612,46.45347186238939],[13.935421979746598,46.454404218811405],[13.93394229349769,46.45518302052754],[13.925313404415325,46.448952204965686],[13.92,46.4481167556064],[13.92,46.448391697576945],[13.92574486631924,46.4499597337205],[13.925660925352124,46.45109492849994],[13.929593034766853,46.45312560558552],[13.934549135834049,46.458376234487766],[13.93297217872322,46.46135279218271],[13.927513010752735,46.463024350896106],[13.925804894002775,46.46450345032876],[13.92424431953589,46.463908762571606],[13.925692744727856,46.46487264923127],[13.931140164707644,46.462350109002124],[13.932449394103555,46.462977966822486],[13.93216235380288,46.46406512217206],[13.935407637120537,46.463722575453076],[13.936247370157828,46.46490703882611],[13.932098655562093,46.46521511444511],[13.929483978634837,46.46646072008722],[13.927729281568816,46.46510141278248],[13.925986909327408,46.466154543332124],[13.928246424893782,46.46670644932501],[13.924343788217156,46.46768188925947],[13.920006535939285,46.470014620733565],[13.92,46.47001200367434],[13.92,46.4714891057346],[13.920474899297057,46.471419755460644]],[[13.956387470211284,46.464247698673226],[13.955478125230863,46.46517770635671],[13.952837850154776,46.46515470821136],[13.953200730565092,46.464260190602204],[13.956387470211284,46.464247698673226]],[[13.952583053104883,46.464603060741496],[13.95174990727127,46.46633332598097],[13.950541785262875,46.465279920309],[13.950359251296408,46.466794355669066],[13.946027686963564,46.465471312438034],[13.946645071692231,46.46476672075601],[13.952583053104883,46.464603060741496]],[[13.947856420363221,46.46288123284183],[13.950922745407766,46.46380736106307],[13.94460688718856,46.46472011245],[13.94406451737523,46.463660432690425],[13.947856420363221,46.46288123284183]],[[13.946368991863627,46.462724698135915],[13.944864426046403,46.46321281344136],[13.943163371332645,46.46256124967067],[13.943937465069853,46.46176347988826],[13.946368991863627,46.462724698135915]],[[13.945800198360937,46.46580812242909],[13.94551145787558,46.466208124397376],[13.94366038835979,46.46631571646837],[13.943186333298073,46.46526574349377],[13.945800198360937,46.46580812242909]],[[13.943753739541712,46.46459848897504],[13.934324534385626,46.46678043902328],[13.93372060502326,46.46651808889506],[13.942582618380309,46.46396550291572],[13.943753739541712,46.46459848897504]],[[13.942910701921866,46.46670590394],[13.940492192647763,46.46754867080051],[13.939880457768172,46.46670524442397],[13.939360869947421,46.4675309147562],[13.936559676041405,46.467022517444825],[13.94216186818874,46.46537344727673],[13.942910701921866,46.46670590394]],[[13.941713867517626,46.459583578453525],[13.940463425354997,46.4595475803708],[13.939296447975082,46.45810187227603],[13.938295108889061,46.45876245166335],[13.935182541533573,46.456345440083574],[13.938197188996194,46.45529212380803],[13.941713867517626,46.459583578453525]],[[13.936536067405164,46.46448739616924],[13.93665273247968,46.46392199711665],[13.94165162744222,46.463611953906224],[13.936536067405164,46.46448739616924]],[[13.9367892179765,46.45965451956669],[13.935145772993799,46.45959295698707],[13.935449317560177,46.458633107108625],[13.9367892179765,46.45965451956669]]]}},{"type":"Feature","properties":{"_zoneType":"SI_BUILT","name":"Pozidano zemljišče","authority":"MKGP","dataSource":"raba-3000"},"geometry":{"type":"Polygon","coordinates":[[[13.95791354982688,46.46204123417834],[13.958442541965692,46.46207855634231],[13.957994144611828,46.46193070747968],[13.95791354982688,46.46204123417834]]]}},{"type":"Feature","properties":{"_zoneType":"SI_BUILT","name":"Pozidano zemljišče","authority":"MKGP","dataSource":"raba-3000"},"geometry":{"type":"Polygon","coordinates":[[[13.832336335722855,46.48885193876241],[13.832456751275688,46.48899191770554],[13.832655266200925,46.488677049781074],[13.832336335722855,46.48885193876241]]]}},{"type":"Feature","properties":{"_zoneType":"SI_BUILT","name":"Pozidano zemljišče","authority":"MKGP","dataSource":"raba-3000"},"geometry":{"type":"Polygon","coordinates":[[[13.831200654528757,46.48924330039059],[13.831126185101352,46.48939038615712],[13.83165631139774,46.4892989531309],[13.831200654528757,46.48924330039059]]]}},{"type":"Feature","properties":{"_zoneType":"SI_BUILT","name":"Pozidano zemljišče","authority":"MKGP","dataSource":"raba-3000"},"geometry":{"type":"Polygon","coordinates":[[[13.830069701778882,46.489574442766575],[13.830340880078868,46.48964909316447],[13.830158403249383,46.489420025300085],[13.830069701778882,46.489574442766575]]]}},{"type":"Feature","properties":{"_zoneType":"SI_BUILT","name":"Pozidano zemljišče","authority":"MKGP","dataSource":"raba-3000"},"geometry":{"type":"Polygon","coordinates":[[[13.825859207231263,46.49061988098204],[13.825927900578108,46.49081463580673],[13.826185057368237,46.49056173270346],[13.825859207231263,46.49061988098204]]]}},{"type":"Feature","properties":{"_zoneType":"SI_BUILT","name":"Pozidano zemljišče","authority":"MKGP","dataSource":"raba-3000"},"geometry":{"type":"Polygon","coordinates":[[[13.934851127762414,46.468059679503014],[13.93455429011381,46.46795794765227],[13.931923109169407,46.46833990227324],[13.934851127762414,46.468059679503014]]]}},{"type":"Feature","properties":{"_zoneType":"SI_BUILT","name":"Pozidano zemljišče","authority":"MKGP","dataSource":"raba-3000"},"geometry":{"type":"Polygon","coordinates":[[[13.938517197187357,46.4704653271191],[13.938578665971898,46.47068055397046],[13.938844081640115,46.47045425253878],[13.938517197187357,46.4704653271191]]]}},{"type":"Feature","properties":{"_zoneType":"SI_BUILT","name":"Pozidano zemljišče","authority":"MKGP","dataSource":"raba-3000"},"geometry":{"type":"Polygon","coordinates":[[[13.93280803265087,46.43561581897157],[13.932526688655722,46.43581307550257],[13.933072547690049,46.435784741151984],[13.93280803265087,46.43561581897157]]]}},{"type":"Feature","properties":{"_zoneType":"SI_BUILT","name":"Pozidano zemljišče","authority":"MKGP","dataSource":"raba-3000"},"geometry":{"type":"Polygon","coordinates":[[[13.884298581820254,46.47367146484853],[13.88444950810672,46.4738579835214],[13.884544290267318,46.47357472520354],[13.884298581820254,46.47367146484853]]]}},{"type":"Feature","properties":{"_zoneType":"SI_BUILT","name":"Pozidano zemljišče","authority":"MKGP","dataSource":"raba-3000"},"geometry":{"type":"Polygon","coordinates":[[[13.874779305905733,46.47618637592276],[13.874877876152706,46.476390141154106],[13.875148593942223,46.4762083655393],[13.874779305905733,46.47618637592276]]]}},{"type":"Feature","properties":{"_zoneType":"SI_BUILT","name":"Pozidano zemljišče","authority":"MKGP","dataSource":"raba-3000"},"geometry":{"type":"Polygon","coordinates":[[[13.873315555041408,46.47599403003414],[13.87147614440637,46.47727628564488],[13.874261176952553,46.475730184829104],[13.873315555041408,46.47599403003414]]]}},{"type":"Feature","properties":{"_zoneType":"SI_BUILT","name":"Pozidano zemljišče","authority":"MKGP","dataSource":"raba-3000"},"geometry":{"type":"Polygon","coordinates":[[[13.874096490816154,46.476899709087],[13.87413343159732,46.476682228189965],[13.873804733891937,46.47679673286312],[13.874096490816154,46.476899709087]]]}},{"type":"Feature","properties":{"_zoneType":"SI_BUILT","name":"Pozidano zemljišče","authority":"MKGP","dataSource":"raba-3000"},"geometry":{"type":"Polygon","coordinates":[[[13.806560065420994,46.48289643371353],[13.806208319521067,46.48296948929287],[13.80621657338587,46.48398746124391],[13.807090799899338,46.48332047287087],[13.806560065420994,46.48289643371353]]]}},{"type":"Feature","properties":{"_zoneType":"SI_BUILT","name":"Pozidano zemljišče","authority":"MKGP","dataSource":"raba-3000"},"geometry":{"type":"Polygon","coordinates":[[[13.862591546618976,46.42392354424137],[13.862498722868128,46.423745249665885],[13.86225966192134,46.42400394696727],[13.862591546618976,46.42392354424137]]]}},{"type":"Feature","properties":{"_zoneType":"SI_BUILT","name":"Pozidano zemljišče","authority":"MKGP","dataSource":"raba-3000"},"geometry":{"type":"Polygon","coordinates":[[[13.805294020351838,46.489968266291626],[13.805259855411617,46.489717617857714],[13.804123452510927,46.48959140985905],[13.805294020351838,46.489968266291626]]]}},{"type":"Feature","properties":{"_zoneType":"SI_BUILT","name":"Pozidano zemljišče","authority":"MKGP","dataSource":"raba-3000"},"geometry":{"type":"Polygon","coordinates":[[[13.956495219620448,46.45883187636461],[13.956482796149237,46.45866874035666],[13.95614166581182,46.458844722686905],[13.956495219620448,46.45883187636461]]]}},{"type":"Feature","properties":{"_zoneType":"SI_BUILT","name":"Pozidano zemljišče","authority":"MKGP","dataSource":"raba-3000"},"geometry":{"type":"Polygon","coordinates":[[[13.953266986567453,46.4477999342648],[13.949981190061798,46.44689837928521],[13.94842702194127,46.44498155602213],[13.949020033908559,46.44414445527824],[13.94805948695063,46.44454359287688],[13.950160201607401,46.447306467321155],[13.953266986567453,46.4477999342648]]]}},{"type":"Feature","properties":{"_zoneType":"SI_BUILT","name":"Pozidano zemljišče","authority":"MKGP","dataSource":"raba-3000"},"geometry":{"type":"Polygon","coordinates":[[[13.950634067482307,46.42320021426034],[13.950399654586363,46.423075506353186],[13.95045474387681,46.42337968967937],[13.950634067482307,46.42320021426034]]]}},{"type":"Feature","properties":{"_zoneType":"SI_BUILT","name":"Pozidano zemljišče","authority":"MKGP","dataSource":"raba-3000"},"geometry":{"type":"Polygon","coordinates":[[[13.948973044059699,46.470195117658236],[13.94902038565896,46.47004140144365],[13.948667622885372,46.470146969067834],[13.948973044059699,46.470195117658236]]]}},{"type":"Feature","properties":{"_zoneType":"SI_BUILT","name":"Pozidano zemljišče","authority":"MKGP","dataSource":"raba-3000"},"geometry":{"type":"Polygon","coordinates":[[[13.946922699094793,46.45842802545927],[13.947040101342669,46.45859501321298],[13.947248077351693,46.45832516484604],[13.946922699094793,46.45842802545927]]]}},{"type":"Feature","properties":{"_zoneType":"SI_BUILT","name":"Pozidano zemljišče","authority":"MKGP","dataSource":"raba-3000"},"geometry":{"type":"Polygon","coordinates":[[[13.944558816796464,46.479141484835374],[13.942113270278863,46.478734431956106],[13.944052961662914,46.479453725395075],[13.944558816796464,46.479141484835374]]]}},{"type":"Feature","properties":{"_zoneType":"SI_BUILT","name":"Pozidano zemljišče","authority":"MKGP","dataSource":"raba-3000"},"geometry":{"type":"Polygon","coordinates":[[[13.94370658409546,46.428224618771274],[13.943237733083231,46.42771183125709],[13.942085435432332,46.42786996649235],[13.94266615965189,46.4289189857712],[13.94370658409546,46.428224618771274]]]}},{"type":"Feature","properties":{"_zoneType":"SI_BUILT","name":"Pozidano zemljišče","authority":"MKGP","dataSource":"raba-3000"},"geometry":{"type":"Polygon","coordinates":[[[13.92946060723674,46.409304093203154],[13.929652556337395,46.4124562599379],[13.931232120105376,46.415963114274106],[13.930992753614513,46.417068917299225],[13.932576525062947,46.41710293596424],[13.936425309312678,46.42295701428191],[13.937578191820473,46.42354132625934],[13.934743446507287,46.42442472156166],[13.934087160422555,46.42598428864631],[13.932053875265286,46.427103975110775],[13.931791572951013,46.425011556698436],[13.932636090851979,46.42383250397378],[13.930756473809806,46.42134059457495],[13.93054280856467,46.4181636364478],[13.929301491416323,46.41833436549499],[13.929709942779006,46.42118587358302],[13.931637211499242,46.42403429871706],[13.93126387985448,46.42800203675408],[13.928626529571337,46.431816735934056],[13.932161016260523,46.43060765751573],[13.933037034406343,46.42954953840606],[13.931758381685759,46.42926318140361],[13.93156181966854,46.428167990915576],[13.936225648010971,46.42442980363266],[13.938430243690421,46.42404285574348],[13.940698883041621,46.427019427296266],[13.942110989625826,46.42697508577273],[13.93669901474842,46.42260025180327],[13.93322871631738,46.41730009858016],[13.931475583834882,46.415747354377245],[13.929985082215143,46.41240702635969],[13.9298031540756,46.40926162117795],[13.923374594255728,46.40185339991164],[13.923131539592742,46.401003913725965],[13.924108958766823,46.40040374888714],[13.923855466531927,46.400000000000006],[13.923056613044546,46.400000000000006],[13.923024073073885,46.40188848890101],[13.92946060723674,46.409304093203154]]]}},{"type":"Feature","properties":{"_zoneType":"SI_BUILT","name":"Pozidano zemljišče","authority":"MKGP","dataSource":"raba-3000"},"geometry":{"type":"Polygon","coordinates":[[[13.937397651904801,46.42595648275786],[13.937681458852866,46.42599729509694],[13.937480136171148,46.425761074734],[13.937397651904801,46.42595648275786]]]}},{"type":"Feature","properties":{"_zoneType":"SI_BUILT","name":"Pozidano zemljišče","authority":"MKGP","dataSource":"raba-3000"},"geometry":{"type":"Polygon","coordinates":[[[13.934086283138006,46.49425299147473],[13.934403372539744,46.494325361009146],[13.934213206692444,46.4941072430106],[13.934086283138006,46.49425299147473]]]}},{"type":"Feature","properties":{"_zoneType":"SI_BUILT","name":"Pozidano zemljišče","authority":"MKGP","dataSource":"raba-3000"},"geometry":{"type":"Polygon","coordinates":[[[13.933874839001913,46.477345125647396],[13.933216372905003,46.47700015067251],[13.933625148698626,46.47742984625078],[13.933874839001913,46.477345125647396]]]}},{"type":"Feature","properties":{"_zoneType":"SI_BUILT","name":"Pozidano zemljišče","authority":"MKGP","dataSource":"raba-3000"},"geometry":{"type":"Polygon","coordinates":[[[13.932976956649538,46.47276612051384],[13.93324609376371,46.47286522798725],[13.93311170692804,46.472570728279145],[13.932976956649538,46.47276612051384]]]}},{"type":"Feature","properties":{"_zoneType":"SI_BUILT","name":"Pozidano zemljišče","authority":"MKGP","dataSource":"raba-3000"},"geometry":{"type":"Polygon","coordinates":[[[13.93290569258531,46.41923934818651],[13.932826383823276,46.419068186705864],[13.9325430347971,46.41930893142637],[13.93290569258531,46.41923934818651]]]}},{"type":"Feature","properties":{"_zoneType":"SI_BUILT","name":"Pozidano zemljišče","authority":"MKGP","dataSource":"raba-3000"},"geometry":{"type":"Polygon","coordinates":[[[13.929032961029586,46.446387187613986],[13.928635691336936,46.44580500646208],[13.928712078743361,46.446437547864186],[13.929032961029586,46.446387187613986]]]}},{"type":"Feature","properties":{"_zoneType":"SI_BUILT","name":"Pozidano zemljišče","authority":"MKGP","dataSource":"raba-3000"},"geometry":{"type":"Polygon","coordinates":[[[13.92647685161227,46.43020134478547],[13.92556347475722,46.429760015460246],[13.92614421820188,46.43020761734249],[13.92647685161227,46.43020134478547]]]}},{"type":"Feature","properties":{"_zoneType":"SI_BUILT","name":"Pozidano zemljišče","authority":"MKGP","dataSource":"raba-3000"},"geometry":{"type":"Polygon","coordinates":[[[13.927896990860688,46.43080351575549],[13.927798737740767,46.43016862720761],[13.92690229157723,46.43044476492088],[13.927486368950664,46.43102207928038],[13.927896990860688,46.43080351575549]]]}},{"type":"Feature","properties":{"_zoneType":"SI_BUILT","name":"Pozidano zemljišče","authority":"MKGP","dataSource":"raba-3000"},"geometry":{"type":"Polygon","coordinates":[[[13.926473983460154,46.470111364704486],[13.926724118492233,46.470198237431],[13.92656870393456,46.469976614734584],[13.926473983460154,46.470111364704486]]]}},{"type":"Feature","properties":{"_zoneType":"SI_BUILT","name":"Pozidano zemljišče","authority":"MKGP","dataSource":"raba-3000"},"geometry":{"type":"Polygon","coordinates":[[[13.927753081983886,46.41162749996828],[13.927532280007366,46.41129124384071],[13.92747917970742,46.411742790681174],[13.927753081983886,46.41162749996828]]]}},{"type":"Feature","properties":{"_zoneType":"SI_BUILT","name":"Pozidano zemljišče","authority":"MKGP","dataSource":"raba-3000"},"geometry":{"type":"Polygon","coordinates":[[[13.92561717535477,46.40746133762244],[13.925929582083997,46.4075792586352],[13.925770924075618,46.40731538782501],[13.92561717535477,46.40746133762244]]]}},{"type":"Feature","properties":{"_zoneType":"SI_BUILT","name":"Pozidano zemljišče","authority":"MKGP","dataSource":"raba-3000"},"geometry":{"type":"Polygon","coordinates":[[[13.923545307482463,46.45033647781938],[13.92366442756852,46.450515622899545],[13.923795025886873,46.45028181979466],[13.923545307482463,46.45033647781938]]]}},{"type":"Feature","properties":{"_zoneType":"SI_BUILT","name":"Pozidano zemljišče","authority":"MKGP","dataSource":"raba-3000"},"geometry":{"type":"Polygon","coordinates":[[[13.922137915764951,46.464856326546375],[13.92201837325341,46.464704309608265],[13.921864378959425,46.464957225501614],[13.922137915764951,46.464856326546375]]]}},{"type":"Feature","properties":{"_zoneType":"SI_BUILT","name":"Pozidano zemljišče","authority":"MKGP","dataSource":"raba-3000"},"geometry":{"type":"Polygon","coordinates":[[[13.917551290438446,46.50003567953555],[13.917375695166628,46.49706580739272],[13.916913162675545,46.499651634975166],[13.917551290438446,46.50003567953555]]]}},{"type":"Feature","properties":{"_zoneType":"SI_BUILT","name":"Pozidano zemljišče","authority":"MKGP","dataSource":"raba-3000"},"geometry":{"type":"Polygon","coordinates":[[[13.916418555771282,46.51304568556624],[13.915336663992928,46.51315255441103],[13.91567982790913,46.51407586788063],[13.916418555771282,46.51304568556624]]]}},{"type":"Feature","properties":{"_zoneType":"SI_BUILT","name":"Pozidano zemljišče","authority":"MKGP","dataSource":"raba-3000"},"geometry":{"type":"Polygon","coordinates":[[[13.912761718760319,46.47093810572354],[13.912255188630805,46.47051277375939],[13.912477684157041,46.471039530986424],[13.912761718760319,46.47093810572354]]]}},{"type":"Feature","properties":{"_zoneType":"SI_BUILT","name":"Pozidano zemljišče","authority":"MKGP","dataSource":"raba-3000"},"geometry":{"type":"Polygon","coordinates":[[[13.912107043091591,46.47915416973487],[13.912483888470527,46.479152411415384],[13.912068193211026,46.47888195214972],[13.912107043091591,46.47915416973487]]]}},{"type":"Feature","properties":{"_zoneType":"SI_BUILT","name":"Pozidano zemljišče","authority":"MKGP","dataSource":"raba-3000"},"geometry":{"type":"Polygon","coordinates":[[[13.908612354094691,46.505503930993726],[13.907403389592814,46.50556483875664],[13.906532751543159,46.506622910952494],[13.908612354094691,46.505503930993726]]]}},{"type":"Feature","properties":{"_zoneType":"SI_BUILT","name":"Pozidano zemljišče","authority":"MKGP","dataSource":"raba-3000"},"geometry":{"type":"Polygon","coordinates":[[[13.906530346349921,46.4742147516036],[13.906788823381824,46.47437160879072],[13.90670368216638,46.474065008319386],[13.906530346349921,46.4742147516036]]]}},{"type":"Feature","properties":{"_zoneType":"SI_BUILT","name":"Pozidano zemljišče","authority":"MKGP","dataSource":"raba-3000"},"geometry":{"type":"Polygon","coordinates":[[[13.90566442174655,46.504052851178514],[13.904331933977556,46.50443679583037],[13.904386858140706,46.50528725558927],[13.90566442174655,46.504052851178514]]]}},{"type":"Feature","properties":{"_zoneType":"SI_BUILT","name":"Pozidano zemljišče","authority":"MKGP","dataSource":"raba-3000"},"geometry":{"type":"Polygon","coordinates":[[[13.904402998162835,46.45335898688482],[13.904007092615874,46.45311436936434],[13.904168887505495,46.45349880845111],[13.904402998162835,46.45335898688482]]]}},{"type":"Feature","properties":{"_zoneType":"SI_BUILT","name":"Pozidano zemljišče","authority":"MKGP","dataSource":"raba-3000"},"geometry":{"type":"Polygon","coordinates":[[[13.903450075477613,46.470854281588636],[13.90040583760858,46.472003461382045],[13.899541006765494,46.471232055740906],[13.898850650106995,46.472704207262815],[13.893881358969097,46.473513438185265],[13.898599683012554,46.47305108641641],[13.903450075477613,46.470854281588636]]]}},{"type":"Feature","properties":{"_zoneType":"SI_BUILT","name":"Pozidano zemljišče","authority":"MKGP","dataSource":"raba-3000"},"geometry":{"type":"Polygon","coordinates":[[[13.89871694073159,46.507245456977756],[13.899821700671938,46.50836082547504],[13.896223480577808,46.50947360979984],[13.900165238360765,46.508530241840724],[13.900912359660309,46.50621722073945],[13.89900206554801,46.50704196556047],[13.898690919486633,46.50620835032565],[13.89871694073159,46.507245456977756]]]}},{"type":"Feature","properties":{"_zoneType":"SI_BUILT","name":"Pozidano zemljišče","authority":"MKGP","dataSource":"raba-3000"},"geometry":{"type":"Polygon","coordinates":[[[13.896368441421428,46.50244046114517],[13.895602292149073,46.502254663222566],[13.896210127688166,46.50257372711692],[13.896368441421428,46.50244046114517]]]}},{"type":"Feature","properties":{"_zoneType":"SI_BUILT","name":"Pozidano zemljišče","authority":"MKGP","dataSource":"raba-3000"},"geometry":{"type":"Polygon","coordinates":[[[13.896701583951245,46.41639178997171],[13.896196581875529,46.41632436079763],[13.896597911561441,46.416586510077536],[13.896701583951245,46.41639178997171]]]}},{"type":"Feature","properties":{"_zoneType":"SI_BUILT","name":"Pozidano zemljišče","authority":"MKGP","dataSource":"raba-3000"},"geometry":{"type":"Polygon","coordinates":[[[13.893591057135563,46.50174992654616],[13.89267912245458,46.500773310414594],[13.891268565536105,46.50027532346312],[13.893591057135563,46.50174992654616]]]}},{"type":"Feature","properties":{"_zoneType":"SI_BUILT","name":"Pozidano zemljišče","authority":"MKGP","dataSource":"raba-3000"},"geometry":{"type":"Polygon","coordinates":[[[13.888118524584153,46.43875053531429],[13.88830747570763,46.43892083015197],[13.888383540790578,46.43860686626993],[13.888118524584153,46.43875053531429]]]}},{"type":"Feature","properties":{"_zoneType":"SI_BUILT","name":"Pozidano zemljišče","authority":"MKGP","dataSource":"raba-3000"},"geometry":{"type":"Polygon","coordinates":[[[13.882735122960652,46.49722884382337],[13.882424218186816,46.49719741871267],[13.882252699773534,46.497770037252565],[13.882735122960652,46.49722884382337]]]}},{"type":"Feature","properties":{"_zoneType":"SI_BUILT","name":"Pozidano zemljišče","authority":"MKGP","dataSource":"raba-3000"},"geometry":{"type":"Polygon","coordinates":[[[13.878626238486117,46.50597430410731],[13.877699266209524,46.505808878590365],[13.878358002276677,46.506621486739036],[13.878626238486117,46.50597430410731]]]}},{"type":"Feature","properties":{"_zoneType":"SI_BUILT","name":"Pozidano zemljišče","authority":"MKGP","dataSource":"raba-3000"},"geometry":{"type":"Polygon","coordinates":[[[13.878290287786344,46.47510227318821],[13.87822206290276,46.47491676955532],[13.87793795882654,46.475159857376106],[13.878290287786344,46.47510227318821]]]}},{"type":"Feature","properties":{"_zoneType":"SI_BUILT","name":"Pozidano zemljišče","authority":"MKGP","dataSource":"raba-3000"},"geometry":{"type":"Polygon","coordinates":[[[13.876535081221547,46.50520302275035],[13.876800612617064,46.50533599628148],[13.876725069233494,46.50503037078704],[13.876535081221547,46.50520302275035]]]}},{"type":"Feature","properties":{"_zoneType":"SI_BUILT","name":"Pozidano zemljišče","authority":"MKGP","dataSource":"raba-3000"},"geometry":{"type":"Polygon","coordinates":[[[13.871658003549753,46.47493679352908],[13.871906992569972,46.475024361143625],[13.871709382801525,46.474824505812244],[13.871658003549753,46.47493679352908]]]}},{"type":"Feature","properties":{"_zoneType":"SI_BUILT","name":"Pozidano zemljišče","authority":"MKGP","dataSource":"raba-3000"},"geometry":{"type":"Polygon","coordinates":[[[13.867656112392464,46.50027186482975],[13.86748888040657,46.49980936336708],[13.867411799895828,46.50034794771642],[13.867656112392464,46.50027186482975]]]}},{"type":"Feature","properties":{"_zoneType":"SI_BUILT","name":"Pozidano zemljišče","authority":"MKGP","dataSource":"raba-3000"},"geometry":{"type":"Polygon","coordinates":[[[13.860296073463704,46.47304311617133],[13.860523788309811,46.47319343520271],[13.860466868163982,46.47290968653336],[13.860296073463704,46.47304311617133]]]}},{"type":"Feature","properties":{"_zoneType":"SI_BUILT","name":"Pozidano zemljišče","authority":"MKGP","dataSource":"raba-3000"},"geometry":{"type":"Polygon","coordinates":[[[13.857291958106714,46.510612243923056],[13.85116713994972,46.5107924667489],[13.85179513137254,46.51160046508568],[13.857291958106714,46.510612243923056]]]}},{"type":"Feature","properties":{"_zoneType":"SI_BUILT","name":"Pozidano zemljišče","authority":"MKGP","dataSource":"raba-3000"},"geometry":{"type":"Polygon","coordinates":[[[13.855283308817182,46.47167274178733],[13.855498942807507,46.471791177131365],[13.85545783721017,46.47153064499407],[13.855283308817182,46.47167274178733]]]}},{"type":"Feature","properties":{"_zoneType":"SI_BUILT","name":"Pozidano zemljišče","authority":"MKGP","dataSource":"raba-3000"},"geometry":{"type":"Polygon","coordinates":[[[13.85152433834023,46.490745490622665],[13.852199259270325,46.49008783351441],[13.851310709159975,46.48913646470709],[13.852654054647601,46.488182351654814],[13.847291615386007,46.48946336823654],[13.850051794157283,46.48893401014573],[13.85152433834023,46.490745490622665]]]}},{"type":"Feature","properties":{"_zoneType":"SI_BUILT","name":"Pozidano zemljišče","authority":"MKGP","dataSource":"raba-3000"},"geometry":{"type":"Polygon","coordinates":[[[13.84860203969575,46.51112336372064],[13.84840362026995,46.51085953736777],[13.848399548057978,46.51121395062705],[13.84860203969575,46.51112336372064]]]}},{"type":"Feature","properties":{"_zoneType":"SI_BUILT","name":"Pozidano zemljišče","authority":"MKGP","dataSource":"raba-3000"},"geometry":{"type":"Polygon","coordinates":[[[13.848336600065288,46.4911269383457],[13.84854284928552,46.49123400270371],[13.848598815288204,46.49090610676563],[13.848336600065288,46.4911269383457]]]}},{"type":"Feature","properties":{"_zoneType":"SI_BUILT","name":"Pozidano zemljišče","authority":"MKGP","dataSource":"raba-3000"},"geometry":{"type":"Polygon","coordinates":[[[13.84,46.512269201175826],[13.84,46.51196478579363],[13.837989927482694,46.51216449568153],[13.84,46.512269201175826]]]}},{"type":"Feature","properties":{"_zoneType":"SI_BUILT","name":"Pozidano zemljišče","authority":"MKGP","dataSource":"raba-3000"},"geometry":{"type":"Polygon","coordinates":[[[13.843106919597911,46.51243104188029],[13.845886541962761,46.51137993095612],[13.84,46.51196478579363],[13.84,46.512269201175826],[13.843106919597911,46.51243104188029]]]}},{"type":"Feature","properties":{"_zoneType":"SI_BUILT","name":"Pozidano zemljišče","authority":"MKGP","dataSource":"raba-3000"},"geometry":{"type":"Polygon","coordinates":[[[13.845410865095626,46.48894859937972],[13.84520603730522,46.48883668549866],[13.845223876569502,46.48918704264295],[13.845410865095626,46.48894859937972]]]}},{"type":"Feature","properties":{"_zoneType":"SI_BUILT","name":"Pozidano zemljišče","authority":"MKGP","dataSource":"raba-3000"},"geometry":{"type":"Polygon","coordinates":[[[13.846245618166023,46.41489877148579],[13.845836468962839,46.41453856813236],[13.845896814439236,46.41511887589333],[13.846245618166023,46.41489877148579]]]}},{"type":"Feature","properties":{"_zoneType":"SI_BUILT","name":"Pozidano zemljišče","authority":"MKGP","dataSource":"raba-3000"},"geometry":{"type":"Polygon","coordinates":[[[13.839969558006954,46.404059007142656],[13.839077741775979,46.403273377542014],[13.839686382289171,46.404138660447344],[13.839969558006954,46.404059007142656]]]}},{"type":"Feature","properties":{"_zoneType":"SI_BUILT","name":"Pozidano zemljišče","authority":"MKGP","dataSource":"raba-3000"},"geometry":{"type":"Polygon","coordinates":[[[13.837934918268607,46.49584106412831],[13.837640328352007,46.4953752137442],[13.837677581317655,46.495886591859104],[13.837934918268607,46.49584106412831]]]}},{"type":"Feature","properties":{"_zoneType":"SI_BUILT","name":"Pozidano zemljišče","authority":"MKGP","dataSource":"raba-3000"},"geometry":{"type":"Polygon","coordinates":[[[13.836944396779737,46.51159158923006],[13.837155922057278,46.511740727390006],[13.837148270617272,46.51145523674362],[13.836944396779737,46.51159158923006]]]}},{"type":"Feature","properties":{"_zoneType":"SI_BUILT","name":"Pozidano zemljišče","authority":"MKGP","dataSource":"raba-3000"},"geometry":{"type":"Polygon","coordinates":[[[13.836018705790666,46.511060148498316],[13.836831647352154,46.51058603285534],[13.835231609826499,46.50944746057416],[13.836018705790666,46.511060148498316]]]}},{"type":"Feature","properties":{"_zoneType":"SI_BUILT","name":"Pozidano zemljišče","authority":"MKGP","dataSource":"raba-3000"},"geometry":{"type":"Polygon","coordinates":[[[13.835790386966911,46.49668280329658],[13.836048149172328,46.496802677850944],[13.835990200233033,46.4964642253897],[13.835790386966911,46.49668280329658]]]}},{"type":"Feature","properties":{"_zoneType":"SI_BUILT","name":"Pozidano zemljišče","authority":"MKGP","dataSource":"raba-3000"},"geometry":{"type":"Polygon","coordinates":[[[13.83475180474004,46.51512915947277],[13.832871671637244,46.51679246112255],[13.832422146504316,46.517689946720765],[13.834515846410238,46.51596102999695],[13.83475180474004,46.51512915947277]]]}},{"type":"Feature","properties":{"_zoneType":"SI_BUILT","name":"Pozidano zemljišče","authority":"MKGP","dataSource":"raba-3000"},"geometry":{"type":"Polygon","coordinates":[[[13.833318247095153,46.518608639603755],[13.833396514759194,46.51872124733835],[13.833669917365553,46.51852488942462],[13.833318247095153,46.518608639603755]]]}},{"type":"Feature","properties":{"_zoneType":"SI_BUILT","name":"Pozidano zemljišče","authority":"MKGP","dataSource":"raba-3000"},"geometry":{"type":"Polygon","coordinates":[[[13.834106019188082,46.46741882946797],[13.832469104784408,46.46715539007388],[13.831912636812174,46.46796187949156],[13.832561187701723,46.468144824313015],[13.834106019188082,46.46741882946797]]]}},{"type":"Feature","properties":{"_zoneType":"SI_BUILT","name":"Pozidano zemljišče","authority":"MKGP","dataSource":"raba-3000"},"geometry":{"type":"Polygon","coordinates":[[[13.831886379127095,46.46960856723686],[13.831494767579766,46.46903407985618],[13.829980550347562,46.46995131880914],[13.831566698012209,46.47013235160494],[13.831886379127095,46.46960856723686]]]}},{"type":"Feature","properties":{"_zoneType":"SI_BUILT","name":"Pozidano zemljišče","authority":"MKGP","dataSource":"raba-3000"},"geometry":{"type":"Polygon","coordinates":[[[13.830886959265083,46.49293953294663],[13.831144025477887,46.493052600515746],[13.831047034598969,46.49278152556244],[13.830886959265083,46.49293953294663]]]}},{"type":"Feature","properties":{"_zoneType":"SI_BUILT","name":"Pozidano zemljišče","authority":"MKGP","dataSource":"raba-3000"},"geometry":{"type":"Polygon","coordinates":[[[13.828373988098603,46.49493555835573],[13.828093088848648,46.49481794909933],[13.827443790954925,46.49506785599692],[13.828209980401716,46.49542693269629],[13.828373988098603,46.49493555835573]]]}},{"type":"Feature","properties":{"_zoneType":"SI_BUILT","name":"Pozidano zemljišče","authority":"MKGP","dataSource":"raba-3000"},"geometry":{"type":"Polygon","coordinates":[[[13.824772523716943,46.503110105698056],[13.825962213114027,46.503252869669254],[13.825461395206625,46.50446104994962],[13.82623665847606,46.50665512482391],[13.825829499629767,46.50433132090288],[13.828062266562858,46.50340339133716],[13.824809420295958,46.502610581540374],[13.823881429805555,46.503972421309115],[13.820696131443839,46.50356653365967],[13.824056950638294,46.504274833730946],[13.824772523716943,46.503110105698056]]]}},{"type":"Feature","properties":{"_zoneType":"SI_BUILT","name":"Pozidano zemljišče","authority":"MKGP","dataSource":"raba-3000"},"geometry":{"type":"Polygon","coordinates":[[[13.824304292307456,46.46678834374242],[13.824098930592944,46.46665097843227],[13.824069770041694,46.466947229921885],[13.824304292307456,46.46678834374242]]]}},{"type":"Feature","properties":{"_zoneType":"SI_BUILT","name":"Pozidano zemljišče","authority":"MKGP","dataSource":"raba-3000"},"geometry":{"type":"Polygon","coordinates":[[[13.820770625390702,46.502699254305654],[13.821055422795277,46.50281842705417],[13.820937438118847,46.50257736898334],[13.820770625390702,46.502699254305654]]]}},{"type":"Feature","properties":{"_zoneType":"SI_BUILT","name":"Pozidano zemljišče","authority":"MKGP","dataSource":"raba-3000"},"geometry":{"type":"Polygon","coordinates":[[[13.820277145838181,46.489307309356604],[13.820500035100007,46.489464502042146],[13.820530164092292,46.489125241317645],[13.820277145838181,46.489307309356604]]]}},{"type":"Feature","properties":{"_zoneType":"SI_BUILT","name":"Pozidano zemljišče","authority":"MKGP","dataSource":"raba-3000"},"geometry":{"type":"Polygon","coordinates":[[[13.819804772258875,46.49034178418485],[13.819138248490892,46.4892453677864],[13.819210523633888,46.49047136453467],[13.819804772258875,46.49034178418485]]]}},{"type":"Feature","properties":{"_zoneType":"SI_BUILT","name":"Pozidano zemljišče","authority":"MKGP","dataSource":"raba-3000"},"geometry":{"type":"Polygon","coordinates":[[[13.818022581023287,46.49288639542956],[13.817492522419577,46.4926670118964],[13.817851754508522,46.49307110812132],[13.818022581023287,46.49288639542956]]]}},{"type":"Feature","properties":{"_zoneType":"SI_BUILT","name":"Pozidano zemljišče","authority":"MKGP","dataSource":"raba-3000"},"geometry":{"type":"Polygon","coordinates":[[[13.818122621847298,46.45709784540016],[13.818420590716725,46.45718578283893],[13.818226984644493,46.45692291937745],[13.818122621847298,46.45709784540016]]]}},{"type":"Feature","properties":{"_zoneType":"SI_BUILT","name":"Pozidano zemljišče","authority":"MKGP","dataSource":"raba-3000"},"geometry":{"type":"Polygon","coordinates":[[[13.8,46.49283332105526],[13.800239767087092,46.4925327836357],[13.8,46.4926098122385],[13.8,46.49283332105526]]]}},{"type":"Feature","properties":{"_zoneType":"SI_BUILT","name":"Pozidano zemljišče","authority":"MKGP","dataSource":"raba-3000"},"geometry":{"type":"Polygon","coordinates":[[[13.801356194988387,46.49254292175183],[13.801181950105422,46.49235137155633],[13.801046136562078,46.49266391906323],[13.801356194988387,46.49254292175183]]]}},{"type":"Feature","properties":{"_zoneType":"SI_BUILT","name":"Pozidano zemljišče","authority":"MKGP","dataSource":"raba-3000"},"geometry":{"type":"Polygon","coordinates":[[[13.800176201609707,46.49157224640641],[13.800556472015518,46.49144743835282],[13.800047561825195,46.49134861976565],[13.800176201609707,46.49157224640641]]]}},{"type":"Feature","properties":{"_zoneType":"SI_BUILT","name":"Pozidano zemljišče","authority":"MKGP","dataSource":"raba-3000"},"geometry":{"type":"Polygon","coordinates":[[[13.800959914734525,46.4019081602335],[13.800590812619044,46.40171975275675],[13.800658521032725,46.40213930897],[13.800959914734525,46.4019081602335]]]}},{"type":"Feature","properties":{"_zoneType":"SI_BUILT","name":"Pozidano zemljišče","authority":"MKGP","dataSource":"raba-3000"},"geometry":{"type":"Polygon","coordinates":[[[13.958257587566322,46.475438285223966],[13.96,46.475761513984644],[13.96,46.47567620190734],[13.958257587566322,46.475438285223966]]]}},{"type":"Feature","properties":{"_zoneType":"SI_BUILT","name":"Pozidano zemljišče","authority":"MKGP","dataSource":"raba-3000"},"geometry":{"type":"Polygon","coordinates":[[[13.963850157637784,46.47930850904832],[13.962862551046998,46.47606706726042],[13.96,46.47567620190734],[13.96,46.475761513984644],[13.962552766052681,46.47623506857572],[13.963850157637784,46.47930850904832]]]}},{"type":"Feature","properties":{"_zoneType":"SI_BUILT","name":"Pozidano zemljišče","authority":"MKGP","dataSource":"raba-3000"},"geometry":{"type":"Polygon","coordinates":[[[13.958233572572986,46.47303221653604],[13.958236971251141,46.47389384517857],[13.96,46.47387716132013],[13.96,46.47341895885278],[13.958233572572986,46.47303221653604]]]}},{"type":"Feature","properties":{"_zoneType":"SI_BUILT","name":"Pozidano zemljišče","authority":"MKGP","dataSource":"raba-3000"},"geometry":{"type":"Polygon","coordinates":[[[13.961240955529686,46.473690654145315],[13.96,46.47341895885278],[13.96,46.47387716132013],[13.960985783397552,46.47386783267438],[13.961240955529686,46.473690654145315]]]}},{"type":"Feature","properties":{"_zoneType":"SI_BUILT","name":"Pozidano zemljišče","authority":"MKGP","dataSource":"raba-3000"},"geometry":{"type":"Polygon","coordinates":[[[13.958295038191054,46.469811005351815],[13.958276248526126,46.47079576877615],[13.958912436368001,46.470843942569225],[13.958295038191054,46.469811005351815]]]}},{"type":"Feature","properties":{"_zoneType":"SI_BUILT","name":"Pozidano zemljišče","authority":"MKGP","dataSource":"raba-3000"},"geometry":{"type":"Polygon","coordinates":[[[13.958326272639521,46.468173898175294],[13.958311753175913,46.4690292718204],[13.96,46.46932429245626],[13.96,46.46802813172762],[13.958326272639521,46.468173898175294]]]}},{"type":"Feature","properties":{"_zoneType":"SI_BUILT","name":"Pozidano zemljišče","authority":"MKGP","dataSource":"raba-3000"},"geometry":{"type":"Polygon","coordinates":[[[13.961433247408388,46.46827267987861],[13.966041697555774,46.4678938553429],[13.970802451058617,46.46681788642867],[13.971680040280873,46.46700392218712],[13.971431576365767,46.467908357188755],[13.976923738918856,46.46689478381798],[13.977566616784971,46.46881477446116],[13.980376364001408,46.4686523420896],[13.978824589485857,46.46761283043669],[13.981075446843183,46.46611619540884],[13.984973367542295,46.46737669141635],[13.988666051514077,46.46611182148489],[13.98968863305198,46.466634080903944],[13.98812612887754,46.469583998516995],[13.980248911556018,46.47105509409095],[13.986351751328389,46.47056456099384],[13.988612783385326,46.4696314130075],[13.990181647942496,46.46754839529696],[13.992115779834611,46.46810292531407],[13.993240857051363,46.46963991949723],[13.995110590442852,46.46815895219861],[13.994289870767547,46.47139945889367],[13.999037783417615,46.46987378654301],[13.997953249100169,46.46893274886922],[13.998003390665044,46.470063587749884],[13.995464953697688,46.47067109830015],[13.996043192484315,46.469824673828796],[13.995138233425845,46.467249624855285],[13.992801425331457,46.46827028625913],[13.992588057745577,46.46653628507507],[13.991845882441988,46.467699125794425],[13.988747810220309,46.46587769575151],[13.985310201459857,46.467116194857354],[13.981494504284194,46.4655633966895],[13.977958854628547,46.46766071457243],[13.977593525017337,46.46544518679973],[13.975664654005199,46.46703472955916],[13.97276904303803,46.467146149969665],[13.973929345484082,46.46621773491641],[13.97233158340835,46.465642644007325],[13.967458639708973,46.46737855196898],[13.96,46.46802813172762],[13.96,46.46932429245626],[13.960316126907548,46.46937953554035],[13.961433247408388,46.46827267987861]]]}},{"type":"Feature","properties":{"_zoneType":"SI_BUILT","name":"Pozidano zemljišče","authority":"MKGP","dataSource":"raba-3000"},"geometry":{"type":"Polygon","coordinates":[[[13.96,46.46438608039207],[13.96,46.46239745468013],[13.958417530846539,46.46338991502681],[13.958377817105285,46.46574462869139],[13.959876570061569,46.46548469509859],[13.96,46.46438608039207]]]}},{"type":"Feature","properties":{"_zoneType":"SI_BUILT","name":"Pozidano zemljišče","authority":"MKGP","dataSource":"raba-3000"},"geometry":{"type":"Polygon","coordinates":[[[13.95967388060412,46.4594334773086],[13.958506864777416,46.458705623514206],[13.95847577482319,46.46033598142438],[13.96,46.460753674337575],[13.96,46.459324733265355],[13.95967388060412,46.4594334773086]]]}},{"type":"Feature","properties":{"_zoneType":"SI_BUILT","name":"Pozidano zemljišče","authority":"MKGP","dataSource":"raba-3000"},"geometry":{"type":"Polygon","coordinates":[[[13.9584467288014,46.46185902727235],[13.96,46.46220751884817],[13.96,46.46134182812523],[13.9584467288014,46.46185902727235]]]}},{"type":"Feature","properties":{"_zoneType":"SI_BUILT","name":"Pozidano zemljišče","authority":"MKGP","dataSource":"raba-3000"},"geometry":{"type":"Polygon","coordinates":[[[13.960130060442411,46.46322844945921],[13.961669367248103,46.46441152496838],[13.961294838286053,46.46253315710609],[13.96362570214187,46.46234261307047],[13.962305485558852,46.46171014751056],[13.972039949406438,46.45903602476201],[13.972557941891171,46.4594038390584],[13.971625786135958,46.46004305862718],[13.973978700941323,46.45915410593027],[13.979243030329004,46.459487654744194],[13.974522206979238,46.45850282179547],[13.979111109790981,46.45698920855271],[13.980732661114214,46.45810880623274],[13.98016621180661,46.45700921761104],[13.981703490844465,46.45655346431579],[13.983636419049859,46.45717561063388],[13.98889639284914,46.45624329530386],[13.983966565390709,46.45932807298633],[13.98436875257454,46.46061649858444],[13.987068777229036,46.46096899175659],[13.984743015474027,46.46047203701509],[13.984535957210515,46.459443102054216],[13.991035639791612,46.455352322824844],[13.993271347129925,46.45573042952617],[13.99373674462682,46.454803511480954],[13.996674831876025,46.45439206447331],[13.993141051604645,46.45429187587863],[13.994242392916144,46.453125702123785],[14.0,46.45194123660332],[14.0,46.44668082785565],[13.999212353945856,46.44684762414935],[13.99253098505593,46.45047921285549],[13.988620285909064,46.449989011084256],[13.984866192259855,46.45104071817231],[13.980954167514307,46.4543570819901],[13.97955781371861,46.4543972153606],[13.980160562281682,46.45351132556026],[13.978383177480755,46.45455359863896],[13.977804672775507,46.4537462007388],[13.975556283418017,46.454033271905246],[13.973493913605923,46.45500720511241],[13.97361919187607,46.45614339836542],[13.971968842951423,46.45735116616082],[13.975102864989664,46.45576749886337],[13.974363287367238,46.45522750546],[13.975562470635298,46.454388576445055],[13.979110447108182,46.45485896388941],[13.983197506681655,46.45455811801585],[13.985161573123918,46.45315203122696],[13.98263757215979,46.45355547369562],[13.984848509930092,46.45135780566728],[13.989158082183334,46.450489124684296],[13.98925922528718,46.452720106771146],[13.98518604359988,46.45531137076216],[13.979846215388621,46.45583070387532],[13.971111315282227,46.45899517231665],[13.970406478765797,46.457514063122694],[13.970110716659455,46.45849847466221],[13.965297186832286,46.4597374289199],[13.962655744616566,46.4584391790448],[13.96,46.459324733265355],[13.96,46.460753674337575],[13.960968935323493,46.46101919771569],[13.96,46.46134182812523],[13.96,46.46220751884817],[13.960223055270916,46.462257563478445],[13.96,46.46239745468013],[13.96,46.46438608039207],[13.960130060442411,46.46322844945921]],[[13.995855273589061,46.45218555495476],[13.992024715628151,46.45422679789804],[13.991362431351396,46.45340468957183],[13.993488110465542,46.45221961259243],[13.995855273589061,46.45218555495476]],[[13.98909169684088,46.45438220999655],[13.99133463571004,46.45441946697027],[13.98761397154898,46.455720736553495],[13.98909169684088,46.45438220999655]],[[13.987756008496145,46.45474166814963],[13.987172766182923,46.45558165036627],[13.984481423917888,46.45597433717591],[13.987756008496145,46.45474166814963]],[[13.961991177482977,46.46139714926609],[13.961866011178799,46.46105644588509],[13.962723554729436,46.461276949612845],[13.961991177482977,46.46139714926609]]]}},{"type":"Feature","properties":{"_zoneType":"SI_BUILT","name":"Pozidano zemljišče","authority":"MKGP","dataSource":"raba-3000"},"geometry":{"type":"Polygon","coordinates":[[[14.0,46.465390299030695],[14.0,46.46521648853563],[13.998806033487005,46.46536375211632],[14.0,46.465390299030695]]]}},{"type":"Feature","properties":{"_zoneType":"SI_BUILT","name":"Pozidano zemljišče","authority":"MKGP","dataSource":"raba-3000"},"geometry":{"type":"Polygon","coordinates":[[[13.975082212720359,46.45338868378588],[13.975103760982137,46.453510071241354],[13.975413995837313,46.4533282274606],[13.975082212720359,46.45338868378588]]]}},{"type":"Feature","properties":{"_zoneType":"SI_BUILT","name":"Pozidano zemljišče","authority":"MKGP","dataSource":"raba-3000"},"geometry":{"type":"Polygon","coordinates":[[[13.969061239492467,46.46574906058487],[13.967868147676018,46.466090328724064],[13.967591177199843,46.46524009732559],[13.967802223968851,46.46650788295539],[13.969029469465772,46.466180763626156],[13.969061239492467,46.46574906058487]]]}},{"type":"Feature","properties":{"_zoneType":"SI_BUILT","name":"Pozidano zemljišče","authority":"MKGP","dataSource":"raba-3000"},"geometry":{"type":"Polygon","coordinates":[[[13.985338543777342,46.46632174888927],[13.985411149795185,46.46646094317557],[13.985632328809567,46.46626127671771],[13.985338543777342,46.46632174888927]]]}},{"type":"Feature","properties":{"_zoneType":"SI_BUILT","name":"Pozidano zemljišče","authority":"MKGP","dataSource":"raba-3000"},"geometry":{"type":"Polygon","coordinates":[[[13.969478562587883,46.46802398555404],[13.969928348897831,46.46792365177231],[13.969454812438551,46.467908359972576],[13.969478562587883,46.46802398555404]]]}},{"type":"Feature","properties":{"_zoneType":"SI_BUILT","name":"Pozidano zemljišče","authority":"MKGP","dataSource":"raba-3000"},"geometry":{"type":"Polygon","coordinates":[[[13.979541388538385,46.46937089039098],[13.979508601905321,46.46925733607951],[13.979171814167334,46.46946346914741],[13.979541388538385,46.46937089039098]]]}},{"type":"Feature","properties":{"_zoneType":"SI_BUILT","name":"Pozidano zemljišče","authority":"MKGP","dataSource":"raba-3000"},"geometry":{"type":"Polygon","coordinates":[[[13.984605961179385,46.46804045123944],[13.984901332547652,46.46800300106689],[13.98454437580078,46.46787564276631],[13.984605961179385,46.46804045123944]]]}},{"type":"Feature","properties":{"_zoneType":"SI_BUILT","name":"Pozidano zemljišče","authority":"MKGP","dataSource":"raba-3000"},"geometry":{"type":"Polygon","coordinates":[[[13.976194160378952,46.46529654658673],[13.976490505932276,46.46543157359249],[13.976403896175029,46.465122606657815],[13.976194160378952,46.46529654658673]]]}},{"type":"Feature","properties":{"_zoneType":"SI_BUILT","name":"Pozidano zemljišče","authority":"MKGP","dataSource":"raba-3000"},"geometry":{"type":"Polygon","coordinates":[[[13.983325586843161,46.42058632423515],[13.988177844171226,46.42019462455312],[13.991926489130773,46.41865423435238],[13.9919237685719,46.41750071541759],[13.992848238370778,46.4181383933542],[13.994065339072089,46.41756509773415],[13.992613727189287,46.41690412656511],[13.995079805176568,46.41617110061206],[13.993851768955006,46.415843699212196],[13.995447239984749,46.414174508464605],[13.996575497016105,46.409497829970164],[14.0,46.40578981654368],[14.0,46.40530025714105],[13.998453159960397,46.40691315375123],[13.996873111447188,46.40678454748302],[13.997442714808338,46.4084089569484],[13.993573715185097,46.41294185048355],[13.988852284906875,46.41722809521414],[13.981895170533182,46.418834233863365],[13.98081540230328,46.42102576281844],[13.981811549388352,46.42163980180683],[13.983325586843161,46.42058632423515]],[[13.994900606733754,46.41266825873971],[13.993676451408739,46.41554599300951],[13.991797668778563,46.41716160006512],[13.9908946461559,46.4153895409308],[13.994900606733754,46.41266825873971]],[[13.988557758333357,46.41759644659679],[13.990004503431773,46.416915580045554],[13.990792791702507,46.417407278667696],[13.990120216988469,46.418686902209004],[13.986841405652347,46.42006894905602],[13.982028157578736,46.42009437640093],[13.98258358048963,46.418883849493845],[13.988557758333357,46.41759644659679]]]}},{"type":"Feature","properties":{"_zoneType":"SI_BUILT","name":"Pozidano zemljišče","authority":"MKGP","dataSource":"raba-3000"},"geometry":{"type":"Polygon","coordinates":[[[13.999520781769442,46.47140701974701],[13.999818187302603,46.47148148595682],[13.999609799715344,46.471207488742856],[13.999520781769442,46.47140701974701]]]}},{"type":"Feature","properties":{"_zoneType":"SI_BUILT","name":"Pozidano zemljišče","authority":"MKGP","dataSource":"raba-3000"},"geometry":{"type":"Polygon","coordinates":[[[14.0,46.40211395449516],[14.0,46.40205245363298],[13.999893333051759,46.401932853213815],[13.999766302149194,46.40220393647145],[14.0,46.40211395449516]]]}},{"type":"Feature","properties":{"_zoneType":"SI_BUILT","name":"Pozidano zemljišče","authority":"MKGP","dataSource":"raba-3000"},"geometry":{"type":"Polygon","coordinates":[[[13.998980622922572,46.454394682340876],[13.998882481061845,46.45428336563687],[13.997963198538995,46.45440701861095],[13.998980622922572,46.454394682340876]]]}},{"type":"Feature","properties":{"_zoneType":"SI_BUILT","name":"Pozidano zemljišče","authority":"MKGP","dataSource":"raba-3000"},"geometry":{"type":"Polygon","coordinates":[[[13.997299332279916,46.404919367600925],[13.997608708914994,46.40500595399718],[13.997375983339214,46.40476325367683],[13.997299332279916,46.404919367600925]]]}},{"type":"Feature","properties":{"_zoneType":"SI_BUILT","name":"Pozidano zemljišče","authority":"MKGP","dataSource":"raba-3000"},"geometry":{"type":"Polygon","coordinates":[[[13.998729037733224,46.40445197657517],[13.998415686399733,46.40440904827866],[13.998669079055007,46.40463646509294],[13.998729037733224,46.40445197657517]]]}},{"type":"Feature","properties":{"_zoneType":"SI_BUILT","name":"Pozidano zemljišče","authority":"MKGP","dataSource":"raba-3000"},"geometry":{"type":"Polygon","coordinates":[[[13.997583872620332,46.41745400575832],[13.997469563258626,46.417141668604465],[13.997285756076355,46.41751138079881],[13.997583872620332,46.41745400575832]]]}},{"type":"Feature","properties":{"_zoneType":"SI_BUILT","name":"Pozidano zemljišče","authority":"MKGP","dataSource":"raba-3000"},"geometry":{"type":"Polygon","coordinates":[[[13.99777777001244,46.415197539949396],[13.99733194828344,46.41674635339056],[13.998086870851907,46.41576955096639],[13.99777777001244,46.415197539949396]]]}},{"type":"Feature","properties":{"_zoneType":"SI_BUILT","name":"Pozidano zemljišče","authority":"MKGP","dataSource":"raba-3000"},"geometry":{"type":"Polygon","coordinates":[[[13.99758224955181,46.42447770069369],[13.9974886986726,46.424283093448174],[13.997277574065688,46.42455784373447],[13.99758224955181,46.42447770069369]]]}},{"type":"Feature","properties":{"_zoneType":"SI_BUILT","name":"Pozidano zemljišče","authority":"MKGP","dataSource":"raba-3000"},"geometry":{"type":"Polygon","coordinates":[[[13.998006321041913,46.40032750848275],[13.99775778952153,46.40023566269759],[13.997738964146693,46.40072385279742],[13.998006321041913,46.40032750848275]]]}},{"type":"Feature","properties":{"_zoneType":"SI_BUILT","name":"Pozidano zemljišče","authority":"MKGP","dataSource":"raba-3000"},"geometry":{"type":"Polygon","coordinates":[[[13.988076803275339,46.47977163382619],[13.988552420710363,46.480000000000004],[13.988641380096464,46.480000000000004],[13.988076803275339,46.47977163382619]]]}},{"type":"Feature","properties":{"_zoneType":"SI_BUILT","name":"Pozidano zemljišče","authority":"MKGP","dataSource":"raba-3000"},"geometry":{"type":"Polygon","coordinates":[[[13.995893803572974,46.4829335391363],[13.988641380096464,46.480000000000004],[13.988552420710363,46.480000000000004],[13.993042364399598,46.48215583194696],[13.986964809889727,46.48278941435478],[13.991239144376346,46.48242842063243],[13.995893803572974,46.4829335391363]]]}},{"type":"Feature","properties":{"_zoneType":"SI_BUILT","name":"Pozidano zemljišče","authority":"MKGP","dataSource":"raba-3000"},"geometry":{"type":"Polygon","coordinates":[[[13.994782876065948,46.42931133989739],[13.992608307246002,46.42951241069778],[13.993954104536474,46.42980261639839],[13.994782876065948,46.42931133989739]]]}},{"type":"Feature","properties":{"_zoneType":"SI_BUILT","name":"Pozidano zemljišče","authority":"MKGP","dataSource":"raba-3000"},"geometry":{"type":"Polygon","coordinates":[[[13.994905353769813,46.41982177448259],[13.994728534743944,46.41966011512979],[13.994654281585694,46.419960842395255],[13.994905353769813,46.41982177448259]]]}},{"type":"Feature","properties":{"_zoneType":"SI_BUILT","name":"Pozidano zemljišče","authority":"MKGP","dataSource":"raba-3000"},"geometry":{"type":"Polygon","coordinates":[[[13.994003320144182,46.408914406786366],[13.99432828907281,46.409008421605506],[13.99413040709521,46.408741875826465],[13.994003320144182,46.408914406786366]]]}},{"type":"Feature","properties":{"_zoneType":"SI_BUILT","name":"Pozidano zemljišče","authority":"MKGP","dataSource":"raba-3000"},"geometry":{"type":"Polygon","coordinates":[[[13.991698173771248,46.469861113112636],[13.991795205063658,46.46956934274706],[13.991338899586802,46.4698008768448],[13.991698173771248,46.469861113112636]]]}},{"type":"Feature","properties":{"_zoneType":"SI_BUILT","name":"Pozidano zemljišče","authority":"MKGP","dataSource":"raba-3000"},"geometry":{"type":"Polygon","coordinates":[[[13.990635786094398,46.47150079311243],[13.990885051021525,46.471670454611335],[13.990887929281154,46.471330883578055],[13.990635786094398,46.47150079311243]]]}},{"type":"Feature","properties":{"_zoneType":"SI_BUILT","name":"Pozidano zemljišče","authority":"MKGP","dataSource":"raba-3000"},"geometry":{"type":"Polygon","coordinates":[[[13.990215312751612,46.465398058371676],[13.99027105176829,46.465130291973814],[13.989889025696138,46.4653603925281],[13.990215312751612,46.465398058371676]]]}},{"type":"Feature","properties":{"_zoneType":"SI_BUILT","name":"Pozidano zemljišče","authority":"MKGP","dataSource":"raba-3000"},"geometry":{"type":"Polygon","coordinates":[[[13.988540263420354,46.471325153415066],[13.988280417107534,46.471190924612316],[13.988316112899339,46.471539132347814],[13.988540263420354,46.471325153415066]]]}},{"type":"Feature","properties":{"_zoneType":"SI_BUILT","name":"Pozidano zemljišče","authority":"MKGP","dataSource":"raba-3000"},"geometry":{"type":"Polygon","coordinates":[[[13.987242039527564,46.46774456582232],[13.987528040410046,46.467831795418746],[13.987345550390687,46.46758747262547],[13.987242039527564,46.46774456582232]]]}},{"type":"Feature","properties":{"_zoneType":"SI_BUILT","name":"Pozidano zemljišče","authority":"MKGP","dataSource":"raba-3000"},"geometry":{"type":"Polygon","coordinates":[[[13.986815613547082,46.452109889207364],[13.98709675129913,46.45224802268332],[13.987015912368076,46.45189098123691],[13.986815613547082,46.452109889207364]]]}},{"type":"Feature","properties":{"_zoneType":"SI_BUILT","name":"Pozidano zemljišče","authority":"MKGP","dataSource":"raba-3000"},"geometry":{"type":"Polygon","coordinates":[[[13.98555429720427,46.469550383655964],[13.985799045188331,46.46970961112426],[13.985684390235493,46.469449391992],[13.98555429720427,46.469550383655964]]]}},{"type":"Feature","properties":{"_zoneType":"SI_BUILT","name":"Pozidano zemljišče","authority":"MKGP","dataSource":"raba-3000"},"geometry":{"type":"Polygon","coordinates":[[[13.98526453031982,46.47593227225977],[13.985075206324359,46.475770231396865],[13.98498754481892,46.476088838482056],[13.98526453031982,46.47593227225977]]]}},{"type":"Feature","properties":{"_zoneType":"SI_BUILT","name":"Pozidano zemljišče","authority":"MKGP","dataSource":"raba-3000"},"geometry":{"type":"Polygon","coordinates":[[[13.983944065686204,46.472465918627535],[13.983142121782754,46.47234882164244],[13.983333964959307,46.47295479230631],[13.983944065686204,46.472465918627535]]]}},{"type":"Feature","properties":{"_zoneType":"SI_BUILT","name":"Pozidano zemljišče","authority":"MKGP","dataSource":"raba-3000"},"geometry":{"type":"Polygon","coordinates":[[[13.9850940215373,46.4725171162787],[13.98493164897974,46.47224072797263],[13.98468956870593,46.4726148822962],[13.9850940215373,46.4725171162787]]]}},{"type":"Feature","properties":{"_zoneType":"SI_BUILT","name":"Pozidano zemljišče","authority":"MKGP","dataSource":"raba-3000"},"geometry":{"type":"Polygon","coordinates":[[[13.984851548616799,46.47913154013954],[13.984777550674979,46.478996987045186],[13.983751831265847,46.47893785567497],[13.984851548616799,46.47913154013954]]]}},{"type":"Feature","properties":{"_zoneType":"SI_BUILT","name":"Pozidano zemljišče","authority":"MKGP","dataSource":"raba-3000"},"geometry":{"type":"Polygon","coordinates":[[[13.981906927713693,46.46384588402787],[13.981699455586794,46.46351059603094],[13.981620675184395,46.463943825227425],[13.981906927713693,46.46384588402787]]]}},{"type":"Feature","properties":{"_zoneType":"SI_BUILT","name":"Pozidano zemljišče","authority":"MKGP","dataSource":"raba-3000"},"geometry":{"type":"Polygon","coordinates":[[[13.980673770668618,46.464636964076895],[13.980825897344669,46.46476793909987],[13.980908547377117,46.4644888819623],[13.980673770668618,46.464636964076895]]]}},{"type":"Feature","properties":{"_zoneType":"SI_BUILT","name":"Pozidano zemljišče","authority":"MKGP","dataSource":"raba-3000"},"geometry":{"type":"Polygon","coordinates":[[[13.978657272605304,46.45228158730365],[13.978579302238092,46.45173949135601],[13.976773448975957,46.45167349294543],[13.978657272605304,46.45228158730365]]]}},{"type":"Feature","properties":{"_zoneType":"SI_BUILT","name":"Pozidano zemljišče","authority":"MKGP","dataSource":"raba-3000"},"geometry":{"type":"Polygon","coordinates":[[[13.959049989927177,46.43020121609456],[13.96,46.43028210714744],[13.96,46.43004995057095],[13.959049989927177,46.43020121609456]]]}},{"type":"Feature","properties":{"_zoneType":"SI_BUILT","name":"Pozidano zemljišče","authority":"MKGP","dataSource":"raba-3000"},"geometry":{"type":"Polygon","coordinates":[[[13.967761338763681,46.42881415001936],[13.96,46.43004995057095],[13.96,46.43028210714744],[13.962170414056226,46.43046691263869],[13.968046072148903,46.428975110678884],[13.971518002506643,46.42664503221392],[13.974268781580513,46.42295586169323],[13.977546065421802,46.42063879489219],[13.9747693713673,46.420989835221306],[13.971213769029832,46.42651609336605],[13.967761338763681,46.42881415001936]]]}},{"type":"Feature","properties":{"_zoneType":"SI_BUILT","name":"Pozidano zemljišče","authority":"MKGP","dataSource":"raba-3000"},"geometry":{"type":"Polygon","coordinates":[[[13.9754662668863,46.473219332136665],[13.974208706540944,46.47381891223035],[13.973312588886255,46.473918993592434],[13.973836679784297,46.47425800173002],[13.9754662668863,46.473219332136665]]]}},{"type":"Feature","properties":{"_zoneType":"SI_BUILT","name":"Pozidano zemljišče","authority":"MKGP","dataSource":"raba-3000"},"geometry":{"type":"Polygon","coordinates":[[[13.975060349416353,46.4723970208119],[13.975031870837086,46.472584951917995],[13.975416865201483,46.47242345838419],[13.975060349416353,46.4723970208119]]]}},{"type":"Feature","properties":{"_zoneType":"SI_BUILT","name":"Pozidano zemljišče","authority":"MKGP","dataSource":"raba-3000"},"geometry":{"type":"Polygon","coordinates":[[[13.975294481335888,46.4602426960712],[13.97528142993103,46.46005293290558],[13.974954751122102,46.4602668054239],[13.975294481335888,46.4602426960712]]]}},{"type":"Feature","properties":{"_zoneType":"SI_BUILT","name":"Pozidano zemljišče","authority":"MKGP","dataSource":"raba-3000"},"geometry":{"type":"Polygon","coordinates":[[[13.973127359990489,46.4628002518979],[13.972981538691238,46.46265343628227],[13.972423652452374,46.46298970645464],[13.973127359990489,46.4628002518979]]]}},{"type":"Feature","properties":{"_zoneType":"SI_BUILT","name":"Pozidano zemljišče","authority":"MKGP","dataSource":"raba-3000"},"geometry":{"type":"Polygon","coordinates":[[[13.971967331874467,46.46434215137499],[13.972180898799051,46.464521106958216],[13.972226116057232,46.46420169782228],[13.971967331874467,46.46434215137499]]]}},{"type":"Feature","properties":{"_zoneType":"SI_BUILT","name":"Pozidano zemljišče","authority":"MKGP","dataSource":"raba-3000"},"geometry":{"type":"Polygon","coordinates":[[[13.971349961228288,46.46247378107887],[13.96867758481181,46.46274567266597],[13.969767405072368,46.46119139185422],[13.967482643938169,46.461610147419],[13.968413259733866,46.46191963138239],[13.96842559281962,46.463715653873614],[13.971349961228288,46.46247378107887]]]}},{"type":"Feature","properties":{"_zoneType":"SI_BUILT","name":"Pozidano zemljišče","authority":"MKGP","dataSource":"raba-3000"},"geometry":{"type":"Polygon","coordinates":[[[13.971092523169546,46.47257367436486],[13.970850429281569,46.472408977874494],[13.97050081033089,46.47282718588391],[13.971092523169546,46.47257367436486]]]}},{"type":"Feature","properties":{"_zoneType":"SI_BUILT","name":"Pozidano zemljišče","authority":"MKGP","dataSource":"raba-3000"},"geometry":{"type":"Polygon","coordinates":[[[13.96948648187178,46.46472357609733],[13.969700361618576,46.464903719202354],[13.969761018610114,46.46457779479435],[13.96948648187178,46.46472357609733]]]}},{"type":"Feature","properties":{"_zoneType":"SI_BUILT","name":"Pozidano zemljišče","authority":"MKGP","dataSource":"raba-3000"},"geometry":{"type":"Polygon","coordinates":[[[13.969071705465538,46.469711599198355],[13.968751961629321,46.46957616552975],[13.968923113621887,46.46987420407165],[13.969071705465538,46.469711599198355]]]}},{"type":"Feature","properties":{"_zoneType":"SI_BUILT","name":"Pozidano zemljišče","authority":"MKGP","dataSource":"raba-3000"},"geometry":{"type":"Polygon","coordinates":[[[13.967516302981954,46.48908035954995],[13.967447853400902,46.48888304354663],[13.967198260237005,46.4891328185893],[13.967516302981954,46.48908035954995]]]}},{"type":"Feature","properties":{"_zoneType":"SI_BUILT","name":"Pozidano zemljišče","authority":"MKGP","dataSource":"raba-3000"},"geometry":{"type":"Polygon","coordinates":[[[13.967131681773198,46.46990400234994],[13.966430796921086,46.46960007183496],[13.965945626136408,46.469847886117236],[13.967131681773198,46.46990400234994]]]}},{"type":"Feature","properties":{"_zoneType":"SI_BUILT","name":"Pozidano zemljišče","authority":"MKGP","dataSource":"raba-3000"},"geometry":{"type":"Polygon","coordinates":[[[13.966382604301632,46.48156588079278],[13.966080877624679,46.48092302260109],[13.964962336301209,46.480915429835036],[13.96611965135011,46.48161254932605],[13.966382604301632,46.48156588079278]]]}},{"type":"Feature","properties":{"_zoneType":"SI_BUILT","name":"Pozidano zemljišče","authority":"MKGP","dataSource":"raba-3000"},"geometry":{"type":"Polygon","coordinates":[[[13.966242651374465,46.43101734342256],[13.965970933870624,46.43089154693846],[13.964842053031772,46.43134725770817],[13.966242651374465,46.43101734342256]]]}},{"type":"Feature","properties":{"_zoneType":"SI_BUILT","name":"Pozidano zemljišče","authority":"MKGP","dataSource":"raba-3000"},"geometry":{"type":"Polygon","coordinates":[[[13.964102564318104,46.469460363055624],[13.963809640133096,46.46940434388407],[13.964025751921573,46.469822029173535],[13.964102564318104,46.469460363055624]]]}}]}