{"type":"FeatureCollection","features":[{"type":"Feature","properties":{"_zoneType":"SI_BUILT","name":"Pozidano zemljišče","authority":"MKGP","dataSource":"raba-3000"},"geometry":{"type":"Polygon","coordinates":[[[15.996786705900275,46.80596455287698],[15.995238954249889,46.80650782956098],[15.998171139582695,46.80688521593709],[16.0,46.8088108847328],[16.0,46.80822163534774],[15.9972081930613,46.80465805510905],[15.99569043364019,46.804697828123565],[15.993253136898431,46.80204884969542],[15.994442390502217,46.80106308546491],[15.993824418631865,46.80044859589614],[15.994032160976204,46.800000000000004],[15.993722476161555,46.800000000000004],[15.992851784703548,46.80190028554718],[15.996786705900275,46.80596455287698]]]}},{"type":"Feature","properties":{"_zoneType":"SI_BUILT","name":"Pozidano zemljišče","authority":"MKGP","dataSource":"raba-3000"},"geometry":{"type":"Polygon","coordinates":[[[15.999064766375714,46.81222321656084],[15.997759078123272,46.812973390617486],[15.999195348725724,46.812626906328326],[16.0,46.813112883457975],[16.0,46.81203335912988],[15.999289958671044,46.81067165595736],[16.0,46.81103966733305],[16.0,46.80944899022275],[15.998986212324,46.81035168934232],[15.999064766375714,46.81222321656084]]]}},{"type":"Feature","properties":{"_zoneType":"SI_BUILT","name":"Pozidano zemljišče","authority":"MKGP","dataSource":"raba-3000"},"geometry":{"type":"Polygon","coordinates":[[[16.0,46.82045732202661],[16.0,46.82035094546442],[15.999851030591469,46.8205318988518],[16.0,46.82045732202661]]]}},{"type":"Feature","properties":{"_zoneType":"SI_BUILT","name":"Pozidano zemljišče","authority":"MKGP","dataSource":"raba-3000"},"geometry":{"type":"Polygon","coordinates":[[[15.995737394177603,46.823141532037425],[15.996073639251016,46.82130590823651],[15.994869031986324,46.82466049754415],[15.99246196325219,46.82536948130973],[15.99476822412011,46.825320954053986],[15.993384903817194,46.82718039202643],[15.997710412264603,46.82674063716221],[15.994862288065828,46.82647883045357],[15.995286571656719,46.82495890520899],[16.0,46.82329247196011],[16.0,46.822775559352],[15.997686516677664,46.824000524943344],[15.995737394177603,46.823141532037425]],[[15.995719247736028,46.82355960684675],[15.996614545962608,46.82407258342314],[15.995303299929029,46.82424680108425],[15.995719247736028,46.82355960684675]]]}},{"type":"Feature","properties":{"_zoneType":"SI_BUILT","name":"Pozidano zemljišče","authority":"MKGP","dataSource":"raba-3000"},"geometry":{"type":"Polygon","coordinates":[[[16.0,46.82768094416474],[16.0,46.827568308648765],[15.998659623065041,46.82873730010623],[16.0,46.82768094416474]]]}},{"type":"Feature","properties":{"_zoneType":"SI_BUILT","name":"Pozidano zemljišče","authority":"MKGP","dataSource":"raba-3000"},"geometry":{"type":"Polygon","coordinates":[[[15.996021378931273,46.80354940502631],[15.995475483831651,46.80315891758487],[15.995740179262235,46.803613543957795],[15.996021378931273,46.80354940502631]]]}},{"type":"Feature","properties":{"_zoneType":"SI_BUILT","name":"Pozidano zemljišče","authority":"MKGP","dataSource":"raba-3000"},"geometry":{"type":"Polygon","coordinates":[[[15.99549821992525,46.83353311597016],[15.998028917885373,46.82984335947051],[15.99642375574172,46.830965002604486],[15.993947691324125,46.83079232675976],[15.996088441010972,46.83135297556933],[15.99549821992525,46.83353311597016]]]}},{"type":"Feature","properties":{"_zoneType":"SI_BUILT","name":"Pozidano zemljišče","authority":"MKGP","dataSource":"raba-3000"},"geometry":{"type":"Polygon","coordinates":[[[15.996822833922463,46.83501776051964],[15.995996875750883,46.83536104589351],[15.996794047873085,46.835141303044594],[15.996822833922463,46.83501776051964]]]}}]}