{"type":"FeatureCollection","features":[{"type":"Feature","id":"temporaere_betriebseinschraenkungen.0291662f-4584-46af-95bb-b4918b958233","geometry":{"type":"MultiPolygon","coordinates":[[[[11.8075,51.31138889],[11.88305556,51.3025],[11.87805556,51.29166667],[11.8025,51.30361111],[11.8075,51.31138889]]]]},"geometry_name":"geom","properties":{"external_reference":"0291662f-4584-46af-95bb-b4918b958233","legal_ref":"§ 21h, Abs. 3 (11.) LuftVO","start_time":"2026-09-03T14:00:00Z","end_time":"2026-09-03T19:00:00Z","name":"NOTAM D2874/26","type_code":"U_NFZ","generated_name_de":"NOTAM D2874/26","generated_name_en":"NOTAM D2874/26","lower_limit_altitude":0,"lower_limit_unit":"M","lower_limit_alt_ref":"AGL","upper_limit_altitude":305,"upper_limit_unit":"M","upper_limit_alt_ref":"AGL"}},{"type":"Feature","id":"temporaere_betriebseinschraenkungen.06776029-f404-4309-8207-ba73dcb0a410","geometry":{"type":"MultiPolygon","coordinates":[[[[8.6554897,50.0075263],[8.65527552,50.00739972],[8.65529386,50.00728525],[8.65514009,50.00727139],[8.65510571,50.00725048],[8.65511777,50.00712341],[8.655039,50.00711252],[8.65484229,50.00695728],[8.65485824,50.0069273],[8.65496135,50.00687108],[8.65510795,50.00700625],[8.65525198,50.00702427],[8.6553612,50.0069676],[8.65538336,50.00687391],[8.65523817,50.00674844],[8.65537698,50.00667593],[8.65559683,50.00684079],[8.65558355,50.0069176],[8.65571318,50.00692846],[8.65574775,50.00696739],[8.65573401,50.00706142],[8.65589183,50.00708423],[8.65607196,50.00724494],[8.65587629,50.00732714],[8.65578673,50.0072359],[8.65565266,50.0072197],[8.65553468,50.00726418],[8.65551449,50.00733257],[8.65567231,50.00744209],[8.6554897,50.0075263]]]]},"geometry_name":"geom","properties":{"external_reference":"06776029-f404-4309-8207-ba73dcb0a410","legal_ref":"Test zone on prod","start_time":"2025-07-11T12:49:00Z","end_time":"2035-07-11T13:49:00Z","name":"DFS Systemhaus - As test zone in prod","type_code":"U_NFZ","generated_name_de":"DFS Systemhaus - As test zone in prod","generated_name_en":"DFS Systemhaus - As test zone in prod","lower_limit_altitude":0,"lower_limit_unit":"M","lower_limit_alt_ref":"AGL","upper_limit_altitude":99999,"upper_limit_unit":"M","upper_limit_alt_ref":"AGL"}},{"type":"Feature","id":"temporaere_betriebseinschraenkungen.0902a0fc-81b1-45fa-823e-7bf98d3bb02f","geometry":{"type":"MultiPolygon","coordinates":[[[[12.835,49.11055556],[13.17333333,49.05222222],[13.76055556,48.80944444],[13.76527778,48.62055556],[13.34472222,48.61527778],[12.99861111,48.78944444],[12.99611111,48.8525],[12.8425,48.94638889],[12.835,49.11055556]]]]},"geometry_name":"geom","properties":{"external_reference":"0902a0fc-81b1-45fa-823e-7bf98d3bb02f","legal_ref":"§ 17, Abs. 1 LuftVO","start_time":"2026-09-14T06:00:00Z","end_time":"2026-09-25T14:00:00Z","name":"ED-R Grafenau","type_code":"U_NFZ","generated_name_de":"ED-R Grafenau","generated_name_en":"ED-R Grafenau","lower_limit_altitude":0,"lower_limit_unit":"M","lower_limit_alt_ref":"AGL","upper_limit_altitude":7998.68792,"upper_limit_unit":"FT","upper_limit_alt_ref":"MSL"}},{"type":"Feature","id":"temporaere_betriebseinschraenkungen.0cb9c0ca-d5e1-4c9c-8410-0993ea716cb6","geometry":{"type":"MultiPolygon","coordinates":[[[[11.36299681,53.03361111],[11.36295308,53.03444798],[11.36282205,53.03528154],[11.36260424,53.03610852],[11.3623005,53.03692563],[11.36191205,53.03772967],[11.36144041,53.03851745],[11.36088745,53.03928587],[11.36025534,53.04003189],[11.35954658,53.04075257],[11.35876396,53.04144507],[11.35791059,53.04210665],[11.35698981,53.04273471],[11.35600528,53.04332675],[11.35496087,53.04388046],[11.3538607,53.04439363],[11.35270912,53.04486425],[11.35151067,53.04529046],[11.35027008,53.04567058],[11.34899225,53.04600311],[11.34768222,53.04628672],[11.34634517,53.04652032],[11.34498635,53.04670296],[11.34361115,53.04683394],[11.34222499,53.04691274],[11.34083333,53.04693904],[11.33944168,53.04691274],[11.33805551,53.04683394],[11.33668031,53.04670296],[11.3353215,53.04652032],[11.33398444,53.04628672],[11.33267441,53.04600311],[11.33139658,53.04567058],[11.330156,53.04529046],[11.32895755,53.04486425],[11.32780597,53.04439363],[11.3267058,53.04388046],[11.32566139,53.04332675],[11.32467685,53.04273471],[11.32375608,53.04210665],[11.3229027,53.04144507],[11.32212009,53.04075257],[11.32141133,53.04003189],[11.32077922,53.03928587],[11.32022625,53.03851745],[11.31975461,53.03772967],[11.31936616,53.03692563],[11.31906243,53.03610852],[11.31884462,53.03528154],[11.31871359,53.03444798],[11.31866986,53.03361111],[11.31871359,53.03277424],[11.31884462,53.03194068],[11.31906243,53.03111371],[11.31936616,53.03029659],[11.31975461,53.02949255],[11.32022625,53.02870477],[11.32077922,53.02793636],[11.32141133,53.02719033],[11.32212009,53.02646965],[11.3229027,53.02577715],[11.32375608,53.02511557],[11.32467685,53.02448752],[11.32566139,53.02389547],[11.3267058,53.02334177],[11.32780597,53.02282859],[11.32895755,53.02235797],[11.330156,53.02193176],[11.33139658,53.02155164],[11.33267441,53.02121912],[11.33398444,53.0209355],[11.3353215,53.0207019],[11.33668031,53.02051926],[11.33805551,53.02038828],[11.33944168,53.02030948],[11.34083333,53.02028318],[11.34222499,53.02030948],[11.34361115,53.02038828],[11.34498635,53.02051926],[11.34634517,53.0207019],[11.34768222,53.0209355],[11.34899225,53.02121912],[11.35027008,53.02155164],[11.35151067,53.02193176],[11.35270912,53.02235797],[11.3538607,53.02282859],[11.35496087,53.02334177],[11.35600528,53.02389547],[11.35698981,53.02448752],[11.35791059,53.02511557],[11.35876396,53.02577715],[11.35954658,53.02646965],[11.36025534,53.02719033],[11.36088745,53.02793636],[11.36144041,53.02870477],[11.36191205,53.02949255],[11.3623005,53.03029659],[11.36260424,53.03111371],[11.36282205,53.03194068],[11.36295308,53.03277424],[11.36299681,53.03361111]]]]},"geometry_name":"geom","properties":{"external_reference":"0cb9c0ca-d5e1-4c9c-8410-0993ea716cb6","legal_ref":"§ 17, Abs. 1 LuftVO","start_time":"2026-03-24T13:10:00Z","end_time":"2026-12-31T22:59:00Z","name":"ED-R 19 Gorleben","type_code":"U_NFZ","generated_name_de":"ED-R 19 Gorleben","generated_name_en":"ED-R 19 Gorleben","lower_limit_altitude":0,"lower_limit_unit":"M","lower_limit_alt_ref":"AGL","upper_limit_altitude":2099.7376,"upper_limit_unit":"FT","upper_limit_alt_ref":"MSL"}},{"type":"Feature","id":"temporaere_betriebseinschraenkungen.15014dd4-428f-4229-bedb-3ba7133afe64","geometry":{"type":"MultiPolygon","coordinates":[[[[9.13595782,48.95534],[9.13594431,48.95562234],[9.13590382,48.95590357],[9.13583653,48.95618258],[9.13574268,48.95645826],[9.13562266,48.95672953],[9.13547694,48.95699531],[9.13530609,48.95725456],[9.13511079,48.95750625],[9.13489181,48.9577494],[9.13465,48.95798304],[9.13438634,48.95820624],[9.13410185,48.95841814],[9.13379766,48.95861788],[9.13347497,48.95880469],[9.13313505,48.95897783],[9.13277925,48.95913661],[9.13240896,48.9592804],[9.13202566,48.95940865],[9.13163085,48.95952083],[9.13122609,48.95961652],[9.13081298,48.95969533],[9.13039315,48.95975695],[9.12996826,48.95980114],[9.12953998,48.95982773],[9.12911,48.9598366],[9.12868002,48.95982773],[9.12825174,48.95980114],[9.12782685,48.95975695],[9.12740702,48.95969533],[9.12699391,48.95961652],[9.12658915,48.95952083],[9.12619434,48.95940865],[9.12581104,48.9592804],[9.12544075,48.95913661],[9.12508495,48.95897783],[9.12474503,48.95880469],[9.12442234,48.95861788],[9.12411815,48.95841814],[9.12383366,48.95820624],[9.12357,48.95798304],[9.12332819,48.9577494],[9.12310921,48.95750625],[9.12291391,48.95725456],[9.12274306,48.95699531],[9.12259734,48.95672953],[9.12247732,48.95645826],[9.12238347,48.95618258],[9.12231618,48.95590357],[9.12227569,48.95562234],[9.12226218,48.95534],[9.12227569,48.95505766],[9.12231618,48.95477643],[9.12238347,48.95449742],[9.12247732,48.95422174],[9.12259734,48.95395047],[9.12274306,48.95368469],[9.12291391,48.95342544],[9.12310921,48.95317375],[9.12332819,48.9529306],[9.12357,48.95269696],[9.12383366,48.95247376],[9.12411815,48.95226186],[9.12442234,48.95206212],[9.12474503,48.95187531],[9.12508495,48.95170217],[9.12544075,48.95154339],[9.12581104,48.9513996],[9.12619434,48.95127135],[9.12658915,48.95115917],[9.12699391,48.95106348],[9.12740702,48.95098467],[9.12782685,48.95092305],[9.12825174,48.95087886],[9.12868002,48.95085227],[9.12911,48.9508434],[9.12953998,48.95085227],[9.12996826,48.95087886],[9.13039315,48.95092305],[9.13081298,48.95098467],[9.13122609,48.95106348],[9.13163085,48.95115917],[9.13202566,48.95127135],[9.13240896,48.9513996],[9.13277925,48.95154339],[9.13313505,48.95170217],[9.13347497,48.95187531],[9.13379766,48.95206212],[9.13410185,48.95226186],[9.13438634,48.95247376],[9.13465,48.95269696],[9.13489181,48.9529306],[9.13511079,48.95317375],[9.13530609,48.95342544],[9.13547694,48.95368469],[9.13562266,48.95395047],[9.13574268,48.95422174],[9.13583653,48.95449742],[9.13590382,48.95477643],[9.13594431,48.95505766],[9.13595782,48.95534]]]]},"geometry_name":"geom","properties":{"external_reference":"15014dd4-428f-4229-bedb-3ba7133afe64","legal_ref":"§ 21h, Abs. 3 (11.) LuftVO","start_time":"2026-09-04T08:00:00Z","end_time":"2026-09-08T21:00:00Z","name":"Pferdemarkt Bietigheim 2026","type_code":"U_NFZ","generated_name_de":"Pferdemarkt Bietigheim 2026","generated_name_en":"Pferdemarkt Bietigheim 2026","lower_limit_altitude":0,"lower_limit_unit":"M","lower_limit_alt_ref":"AGL","upper_limit_altitude":305,"upper_limit_unit":"M","upper_limit_alt_ref":"AGL"}},{"type":"Feature","id":"temporaere_betriebseinschraenkungen.1d664b82-17b1-43a5-bdaf-06423a86a847","geometry":{"type":"MultiPolygon","coordinates":[[[[8.16452179,53.64111111],[8.16441091,53.64320272],[8.16407872,53.64528606],[8.16352653,53.64735294],[8.16275652,53.64939518],[8.16177173,53.65140472],[8.16057604,53.65337364],[8.15917417,53.65529417],[8.15757165,53.65715872],[8.15577481,53.65895994],[8.15379075,53.66069072],[8.15162728,53.66234423],[8.14929295,53.66391394],[8.14679698,53.66539366],[8.1441492,53.66677754],[8.14136008,53.66806014],[8.13844061,53.66923637],[8.13540233,53.67030161],[8.13225721,53.67125165],[8.12901768,53.67208273],[8.12569652,53.67279159],[8.12230683,53.67337542],[8.118862,53.67383191],[8.11537561,53.67415927],[8.11186144,53.67435621],[8.10833333,53.67442194],[8.10480523,53.67435621],[8.10129105,53.67415927],[8.09780467,53.67383191],[8.09435983,53.67337542],[8.09097015,53.67279159],[8.08764898,53.67208273],[8.08440945,53.67125165],[8.08126434,53.67030161],[8.07822605,53.66923637],[8.07530659,53.66806014],[8.07251747,53.66677754],[8.06986969,53.66539366],[8.06737371,53.66391394],[8.06503939,53.66234423],[8.06287592,53.66069072],[8.06089185,53.65895994],[8.05909502,53.65715872],[8.0574925,53.65529417],[8.05609063,53.65337364],[8.05489494,53.65140472],[8.05391014,53.64939518],[8.05314013,53.64735294],[8.05258794,53.64528606],[8.05225576,53.64320272],[8.05214488,53.64111111],[8.05225576,53.63901951],[8.05258794,53.63693616],[8.05314013,53.63486928],[8.05391014,53.63282705],[8.05489494,53.6308175],[8.05609063,53.62884858],[8.0574925,53.62692805],[8.05909502,53.6250635],[8.06089185,53.62326228],[8.06287592,53.6215315],[8.06503939,53.61987799],[8.06737371,53.61830828],[8.06986969,53.61682856],[8.07251747,53.61544468],[8.07530659,53.61416209],[8.07822605,53.61298585],[8.08126434,53.61192061],[8.08440945,53.61097057],[8.08764898,53.61013949],[8.09097015,53.60943063],[8.09435983,53.60884681],[8.09780467,53.60839031],[8.10129105,53.60806295],[8.10480523,53.60786602],[8.10833333,53.60780028],[8.11186144,53.60786602],[8.11537561,53.60806295],[8.118862,53.60839031],[8.12230683,53.60884681],[8.12569652,53.60943063],[8.12901768,53.61013949],[8.13225721,53.61097057],[8.13540233,53.61192061],[8.13844061,53.61298585],[8.14136008,53.61416209],[8.1441492,53.61544468],[8.14679698,53.61682856],[8.14929295,53.61830828],[8.15162728,53.61987799],[8.15379075,53.6215315],[8.15577481,53.62326228],[8.15757165,53.6250635],[8.15917417,53.62692805],[8.16057604,53.62884858],[8.16177173,53.6308175],[8.16275652,53.63282705],[8.16352653,53.63486928],[8.16407872,53.63693616],[8.16441091,53.63901951],[8.16452179,53.64111111]]]]},"geometry_name":"geom","properties":{"external_reference":"1d664b82-17b1-43a5-bdaf-06423a86a847","legal_ref":"§ 17, Abs. 1 LuftVO","start_time":"2026-04-10T15:40:00Z","end_time":"2027-03-18T00:00:00Z","name":"ED-R Wilhelmshaven","type_code":"U_NFZ","generated_name_de":"ED-R Wilhelmshaven","generated_name_en":"ED-R Wilhelmshaven","lower_limit_altitude":0,"lower_limit_unit":"M","lower_limit_alt_ref":"AGL","upper_limit_altitude":762,"upper_limit_unit":"M","upper_limit_alt_ref":"AGL"}},{"type":"Feature","id":"temporaere_betriebseinschraenkungen.1f789a0f-7d39-43a6-98c7-d827be370ea6","geometry":{"type":"MultiPolygon","coordinates":[[[[8.58166819,49.32917],[8.58164298,49.3296929],[8.58156743,49.33021374],[8.58144186,49.33073046],[8.58126674,49.33124102],[8.58104278,49.3317434],[8.58077086,49.33223563],[8.58045206,49.33271577],[8.58008762,49.3331819],[8.57967899,49.33363221],[8.57922778,49.3340649],[8.57873577,49.33447828],[8.5782049,49.33487071],[8.57763728,49.33524064],[8.57703513,49.33558661],[8.57640083,49.33590726],[8.5757369,49.33620132],[8.57504594,49.33646762],[8.57433069,49.33670513],[8.57359397,49.33691291],[8.57283868,49.33709012],[8.57206781,49.33723608],[8.57128439,49.3373502],[8.57049153,49.33743204],[8.56969235,49.33748127],[8.56889,49.33749771],[8.56808765,49.33748127],[8.56728847,49.33743204],[8.56649561,49.3373502],[8.56571219,49.33723608],[8.56494132,49.33709012],[8.56418603,49.33691291],[8.56344931,49.33670513],[8.56273406,49.33646762],[8.5620431,49.33620132],[8.56137917,49.33590726],[8.56074487,49.33558661],[8.56014272,49.33524064],[8.5595751,49.33487071],[8.55904423,49.33447828],[8.55855222,49.3340649],[8.55810101,49.33363221],[8.55769238,49.3331819],[8.55732794,49.33271577],[8.55700914,49.33223563],[8.55673722,49.3317434],[8.55651326,49.33124102],[8.55633814,49.33073046],[8.55621257,49.33021374],[8.55613702,49.3296929],[8.55611181,49.32917],[8.55613702,49.3286471],[8.55621257,49.32812626],[8.55633814,49.32760954],[8.55651326,49.32709898],[8.55673722,49.3265966],[8.55700914,49.32610437],[8.55732794,49.32562423],[8.55769238,49.3251581],[8.55810101,49.32470779],[8.55855222,49.3242751],[8.55904423,49.32386172],[8.5595751,49.32346929],[8.56014272,49.32309936],[8.56074487,49.32275339],[8.56137917,49.32243274],[8.5620431,49.32213868],[8.56273406,49.32187238],[8.56344931,49.32163487],[8.56418603,49.32142709],[8.56494132,49.32124988],[8.56571219,49.32110392],[8.56649561,49.3209898],[8.56728847,49.32090796],[8.56808765,49.32085873],[8.56889,49.32084229],[8.56969235,49.32085873],[8.57049153,49.32090796],[8.57128439,49.3209898],[8.57206781,49.32110392],[8.57283868,49.32124988],[8.57359397,49.32142709],[8.57433069,49.32163487],[8.57504594,49.32187238],[8.5757369,49.32213868],[8.57640083,49.32243274],[8.57703513,49.32275339],[8.57763728,49.32309936],[8.5782049,49.32346929],[8.57873577,49.32386172],[8.57922778,49.3242751],[8.57967899,49.32470779],[8.58008762,49.3251581],[8.58045206,49.32562423],[8.58077086,49.32610437],[8.58104278,49.3265966],[8.58126674,49.32709898],[8.58144186,49.32760954],[8.58156743,49.32812626],[8.58164298,49.3286471],[8.58166819,49.32917]]]]},"geometry_name":"geom","properties":{"external_reference":"1f789a0f-7d39-43a6-98c7-d827be370ea6","legal_ref":"§ 21h, Abs. 3 (11.) LuftVO","start_time":"2026-09-03T10:00:00Z","end_time":"2026-09-06T04:00:00Z","name":"Glücksgefühle Festival Hockenheimring 2026","type_code":"U_NFZ","generated_name_de":"Glücksgefühle Festival Hockenheimring 2026","generated_name_en":"Glücksgefühle Festival Hockenheimring 2026","lower_limit_altitude":0,"lower_limit_unit":"M","lower_limit_alt_ref":"AGL","upper_limit_altitude":305,"upper_limit_unit":"M","upper_limit_alt_ref":"AGL"}},{"type":"Feature","id":"temporaere_betriebseinschraenkungen.26c1b0eb-d09b-4f3e-80e8-12788ed4738a","geometry":{"type":"MultiPolygon","coordinates":[[[[13.70052997,54.1413889],[13.70048508,54.14222577],[13.70035056,54.14305933],[13.70012697,54.1438863],[13.69981517,54.14470342],[13.6994164,54.14550746],[13.69893224,54.14629524],[13.69836458,54.14706366],[13.69771568,54.14780968],[13.69698809,54.14853036],[13.69618469,54.14922286],[13.69530865,54.14988444],[13.69436342,54.15051249],[13.69335273,54.15110454],[13.69228058,54.15165824],[13.69115119,54.15217142],[13.68996902,54.15264204],[13.68873874,54.15306825],[13.6874652,54.15344837],[13.68615343,54.15378089],[13.68480861,54.15406451],[13.68343604,54.15429811],[13.68204113,54.15448075],[13.6806294,54.15461173],[13.67920642,54.15469053],[13.6777778,54.15471683],[13.67634918,54.15469053],[13.6749262,54.15461173],[13.67351447,54.15448075],[13.67211956,54.15429811],[13.67074699,54.15406451],[13.66940217,54.15378089],[13.6680904,54.15344837],[13.66681686,54.15306825],[13.66558658,54.15264204],[13.66440441,54.15217142],[13.66327502,54.15165824],[13.66220287,54.15110454],[13.66119218,54.15051249],[13.66024695,54.14988444],[13.65937091,54.14922286],[13.65856751,54.14853036],[13.65783992,54.14780968],[13.65719102,54.14706366],[13.65662336,54.14629524],[13.6561392,54.14550746],[13.65574043,54.14470342],[13.65542863,54.1438863],[13.65520504,54.14305933],[13.65507052,54.14222577],[13.65502563,54.1413889],[13.65507052,54.14055203],[13.65520504,54.13971847],[13.65542863,54.1388915],[13.65574043,54.13807438],[13.6561392,54.13727034],[13.65662336,54.13648256],[13.65719102,54.13571414],[13.65783992,54.13496812],[13.65856751,54.13424744],[13.65937091,54.13355494],[13.66024695,54.13289336],[13.66119218,54.13226531],[13.66220287,54.13167326],[13.66327502,54.13111956],[13.66440441,54.13060638],[13.66558658,54.13013576],[13.66681686,54.12970955],[13.6680904,54.12932943],[13.66940217,54.12899691],[13.67074699,54.12871329],[13.67211956,54.12847969],[13.67351447,54.12829705],[13.6749262,54.12816607],[13.67634918,54.12808727],[13.6777778,54.12806097],[13.67920642,54.12808727],[13.6806294,54.12816607],[13.68204113,54.12829705],[13.68343604,54.12847969],[13.68480861,54.12871329],[13.68615343,54.12899691],[13.6874652,54.12932943],[13.68873874,54.12970955],[13.68996902,54.13013576],[13.69115119,54.13060638],[13.69228058,54.13111956],[13.69335273,54.13167326],[13.69436342,54.13226531],[13.69530865,54.13289336],[13.69618469,54.13355494],[13.69698809,54.13424744],[13.69771568,54.13496812],[13.69836458,54.13571414],[13.69893224,54.13648256],[13.6994164,54.13727034],[13.69981517,54.13807438],[13.70012697,54.1388915],[13.70035056,54.13971847],[13.70048508,54.14055203],[13.70052997,54.1413889]]]]},"geometry_name":"geom","properties":{"external_reference":"26c1b0eb-d09b-4f3e-80e8-12788ed4738a","legal_ref":"§ 17, Abs. 1 LuftVO","start_time":"2026-03-24T13:15:00Z","end_time":"2026-12-31T22:59:00Z","name":"ED-R 20 Greifswald/Lubmin","type_code":"U_NFZ","generated_name_de":"ED-R 20 Greifswald/Lubmin","generated_name_en":"ED-R 20 Greifswald/Lubmin","lower_limit_altitude":0,"lower_limit_unit":"M","lower_limit_alt_ref":"AGL","upper_limit_altitude":2099.7376,"upper_limit_unit":"FT","upper_limit_alt_ref":"MSL"}},{"type":"Feature","id":"temporaere_betriebseinschraenkungen.2cabd78c-5982-48bd-9163-de31afa0a00b","geometry":{"type":"MultiPolygon","coordinates":[[[[7.07751864,52.07666667],[7.07747585,52.07750353],[7.07734764,52.0783371],[7.07713453,52.07916407],[7.07683735,52.07998119],[7.07645728,52.08078522],[7.07599582,52.081573],[7.07545478,52.08234142],[7.07483631,52.08308744],[7.07414284,52.08380813],[7.07337711,52.08450063],[7.07254215,52.08516221],[7.07164124,52.08579026],[7.07067794,52.08638231],[7.06965607,52.08693601],[7.06857963,52.08744919],[7.0674529,52.08791981],[7.06628031,52.08834602],[7.06506649,52.08872614],[7.06381623,52.08905866],[7.06253446,52.08934228],[7.06122625,52.08957587],[7.05989675,52.08975852],[7.05855122,52.0898895],[7.05719496,52.08996829],[7.05583333,52.08999459],[7.0544717,52.08996829],[7.05311544,52.0898895],[7.05176991,52.08975852],[7.05044042,52.08957587],[7.04913221,52.08934228],[7.04785044,52.08905866],[7.04660018,52.08872614],[7.04538636,52.08834602],[7.04421377,52.08791981],[7.04308703,52.08744919],[7.0420106,52.08693601],[7.04098872,52.08638231],[7.04002543,52.08579026],[7.03912452,52.08516221],[7.03828955,52.08450063],[7.03752383,52.08380813],[7.03683036,52.08308744],[7.03621188,52.08234142],[7.03567085,52.081573],[7.03520938,52.08078522],[7.03482931,52.07998119],[7.03453214,52.07916407],[7.03431903,52.0783371],[7.03419082,52.07750353],[7.03414803,52.07666667],[7.03419082,52.0758298],[7.03431903,52.07499623],[7.03453214,52.07416926],[7.03482931,52.07335215],[7.03520938,52.07254811],[7.03567085,52.07176033],[7.03621188,52.07099191],[7.03683036,52.07024589],[7.03752383,52.06952521],[7.03828955,52.06883271],[7.03912452,52.06817113],[7.04002543,52.06754307],[7.04098872,52.06695103],[7.0420106,52.06639732],[7.04308703,52.06588415],[7.04421377,52.06541352],[7.04538636,52.06498731],[7.04660018,52.0646072],[7.04785044,52.06427467],[7.04913221,52.06399105],[7.05044042,52.06375746],[7.05176991,52.06357481],[7.05311544,52.06344383],[7.0544717,52.06336504],[7.05583333,52.06333874],[7.05719496,52.06336504],[7.05855122,52.06344383],[7.05989675,52.06357481],[7.06122625,52.06375746],[7.06253446,52.06399105],[7.06381623,52.06427467],[7.06506649,52.0646072],[7.06628031,52.06498731],[7.0674529,52.06541352],[7.06857963,52.06588415],[7.06965607,52.06639732],[7.07067794,52.06695103],[7.07164124,52.06754307],[7.07254215,52.06817113],[7.07337711,52.06883271],[7.07414284,52.06952521],[7.07483631,52.07024589],[7.07545478,52.07099191],[7.07599582,52.07176033],[7.07645728,52.07254811],[7.07683735,52.07335215],[7.07713453,52.07416926],[7.07734764,52.07499623],[7.07747585,52.0758298],[7.07751864,52.07666667]]]]},"geometry_name":"geom","properties":{"external_reference":"2cabd78c-5982-48bd-9163-de31afa0a00b","legal_ref":"§ 17, Abs. 1 LuftVO","start_time":"2026-03-24T12:50:00Z","end_time":"2026-12-31T22:59:00Z","name":"ED-R 18 Ahaus","type_code":"U_NFZ","generated_name_de":"ED-R 18 Ahaus","generated_name_en":"ED-R 18 Ahaus","lower_limit_altitude":0,"lower_limit_unit":"M","lower_limit_alt_ref":"AGL","upper_limit_altitude":2299.86884,"upper_limit_unit":"FT","upper_limit_alt_ref":"MSL"}},{"type":"Feature","id":"temporaere_betriebseinschraenkungen.34c7c8bf-98f2-439a-bbaa-718b47a1f526","geometry":{"type":"MultiPolygon","coordinates":[[[[9.74333333,52.70916667],[9.74555556,52.53],[9.41083333,52.57027778],[9.43527778,52.58277778],[9.44444444,52.64833333],[9.74333333,52.70916667]]]]},"geometry_name":"geom","properties":{"external_reference":"34c7c8bf-98f2-439a-bbaa-718b47a1f526","legal_ref":"§ 21h, Abs. 3 (11.) LuftVO","start_time":"2026-09-10T00:00:00Z","end_time":"2026-09-25T23:59:00Z","name":"NOTAM D2904/26","type_code":"U_NFZ","generated_name_de":"NOTAM D2904/26","generated_name_en":"NOTAM D2904/26","lower_limit_altitude":0,"lower_limit_unit":"M","lower_limit_alt_ref":"AGL","upper_limit_altitude":122,"upper_limit_unit":"M","upper_limit_alt_ref":"AGL"}},{"type":"Feature","id":"temporaere_betriebseinschraenkungen.512123e2-ba31-4b03-8ba4-91dfa7eb0503","geometry":{"type":"MultiPolygon","coordinates":[[[[11.60414256,49.9515],[11.60411702,49.9520229],[11.6040405,49.95254374],[11.60391331,49.95306046],[11.60373595,49.95357102],[11.60350911,49.9540734],[11.60323369,49.95456563],[11.60291078,49.95504577],[11.60254165,49.9555119],[11.60212776,49.95596221],[11.60167075,49.9563949],[11.60117241,49.95680828],[11.60063472,49.95720071],[11.60005979,49.95757064],[11.5994499,49.95791661],[11.59880745,49.95823726],[11.59813497,49.95853132],[11.59743513,49.95879762],[11.59671067,49.95903513],[11.59596447,49.95924291],[11.59519947,49.95942012],[11.59441868,49.95956608],[11.59362519,49.9596802],[11.59282213,49.95976204],[11.59201267,49.95981127],[11.5912,49.95982771],[11.59038733,49.95981127],[11.58957787,49.95976204],[11.58877481,49.9596802],[11.58798132,49.95956608],[11.58720053,49.95942012],[11.58643553,49.95924291],[11.58568933,49.95903513],[11.58496487,49.95879762],[11.58426503,49.95853132],[11.58359255,49.95823726],[11.5829501,49.95791661],[11.58234021,49.95757064],[11.58176528,49.95720071],[11.58122759,49.95680828],[11.58072925,49.9563949],[11.58027224,49.95596221],[11.57985835,49.9555119],[11.57948922,49.95504577],[11.57916631,49.95456563],[11.57889089,49.9540734],[11.57866405,49.95357102],[11.57848669,49.95306046],[11.5783595,49.95254374],[11.57828298,49.9520229],[11.57825744,49.9515],[11.57828298,49.9509771],[11.5783595,49.95045626],[11.57848669,49.94993954],[11.57866405,49.94942898],[11.57889089,49.9489266],[11.57916631,49.94843437],[11.57948922,49.94795423],[11.57985835,49.9474881],[11.58027224,49.94703779],[11.58072925,49.9466051],[11.58122759,49.94619172],[11.58176528,49.94579929],[11.58234021,49.94542936],[11.5829501,49.94508339],[11.58359255,49.94476274],[11.58426503,49.94446868],[11.58496487,49.94420238],[11.58568933,49.94396487],[11.58643553,49.94375709],[11.58720053,49.94357988],[11.58798132,49.94343392],[11.58877481,49.9433198],[11.58957787,49.94323796],[11.59038733,49.94318873],[11.5912,49.94317229],[11.59201267,49.94318873],[11.59282213,49.94323796],[11.59362519,49.9433198],[11.59441868,49.94343392],[11.59519947,49.94357988],[11.59596447,49.94375709],[11.59671067,49.94396487],[11.59743513,49.94420238],[11.59813497,49.94446868],[11.59880745,49.94476274],[11.5994499,49.94508339],[11.60005979,49.94542936],[11.60063472,49.94579929],[11.60117241,49.94619172],[11.60167075,49.9466051],[11.60212776,49.94703779],[11.60254165,49.9474881],[11.60291078,49.94795423],[11.60323369,49.94843437],[11.60350911,49.9489266],[11.60373595,49.94942898],[11.60391331,49.94993954],[11.6040405,49.95045626],[11.60411702,49.9509771],[11.60414256,49.9515]]]]},"geometry_name":"geom","properties":{"external_reference":"512123e2-ba31-4b03-8ba4-91dfa7eb0503","legal_ref":"§ 21h, Abs. 3 (11.) LuftVO","start_time":"2026-09-09T12:00:00Z","end_time":"2026-09-09T22:00:00Z","name":"Polizeieinsatz \"Tote Hosen\"-Konzert","type_code":"U_NFZ","generated_name_de":"Polizeieinsatz \"Tote Hosen\"-Konzert","generated_name_en":"Polizeieinsatz \"Tote Hosen\"-Konzert","lower_limit_altitude":0,"lower_limit_unit":"M","lower_limit_alt_ref":"AGL","upper_limit_altitude":120,"upper_limit_unit":"M","upper_limit_alt_ref":"AGL"}},{"type":"Feature","id":"temporaere_betriebseinschraenkungen.6af096e2-99e8-4e97-bd97-135eb2fcacbe","geometry":{"type":"MultiPolygon","coordinates":[[[[9.22790803,53.8875],[9.22779651,53.8895916],[9.22746236,53.89167495],[9.22690692,53.89374183],[9.22613238,53.89578407],[9.22514179,53.89779361],[9.22393906,53.89976253],[9.22252894,53.90168306],[9.22091699,53.90354761],[9.21910958,53.90534883],[9.21711384,53.90707961],[9.21493764,53.90873312],[9.21258958,53.91030283],[9.21007891,53.91178255],[9.20741555,53.91316643],[9.20461001,53.91444902],[9.20167337,53.91562526],[9.1986172,53.9166905],[9.19545358,53.91764054],[9.19219498,53.91847162],[9.18885427,53.91918048],[9.18544464,53.91976431],[9.18197953,53.9202208],[9.17847263,53.92054816],[9.17493777,53.9207451],[9.1713889,53.92081083],[9.16784003,53.9207451],[9.16430517,53.92054816],[9.16079827,53.9202208],[9.15733316,53.91976431],[9.15392353,53.91918048],[9.15058282,53.91847162],[9.14732422,53.91764054],[9.1441606,53.9166905],[9.14110443,53.91562526],[9.13816779,53.91444902],[9.13536225,53.91316643],[9.13269889,53.91178255],[9.13018822,53.91030283],[9.12784016,53.90873312],[9.12566396,53.90707961],[9.12366822,53.90534883],[9.12186081,53.90354761],[9.12024886,53.90168306],[9.11883874,53.89976253],[9.11763601,53.89779361],[9.11664542,53.89578407],[9.11587088,53.89374183],[9.11531544,53.89167495],[9.11498129,53.8895916],[9.11486977,53.8875],[9.11498129,53.8854084],[9.11531544,53.88332505],[9.11587088,53.88125817],[9.11664542,53.87921593],[9.11763601,53.87720639],[9.11883874,53.87523747],[9.12024886,53.87331694],[9.12186081,53.87145239],[9.12366822,53.86965117],[9.12566396,53.86792039],[9.12784016,53.86626688],[9.13018822,53.86469717],[9.13269889,53.86321745],[9.13536225,53.86183357],[9.13816779,53.86055098],[9.14110443,53.85937474],[9.1441606,53.8583095],[9.14732422,53.85735946],[9.15058282,53.85652838],[9.15392353,53.85581952],[9.15733316,53.85523569],[9.16079827,53.8547792],[9.16430517,53.85445184],[9.16784003,53.8542549],[9.1713889,53.85418917],[9.17493777,53.8542549],[9.17847263,53.85445184],[9.18197953,53.8547792],[9.18544464,53.85523569],[9.18885427,53.85581952],[9.19219498,53.85652838],[9.19545358,53.85735946],[9.1986172,53.8583095],[9.20167337,53.85937474],[9.20461001,53.86055098],[9.20741555,53.86183357],[9.21007891,53.86321745],[9.21258958,53.86469717],[9.21493764,53.86626688],[9.21711384,53.86792039],[9.21910958,53.86965117],[9.22091699,53.87145239],[9.22252894,53.87331694],[9.22393906,53.87523747],[9.22514179,53.87720639],[9.22613238,53.87921593],[9.22690692,53.88125817],[9.22746236,53.88332505],[9.22779651,53.8854084],[9.22790803,53.8875]]]]},"geometry_name":"geom","properties":{"external_reference":"6af096e2-99e8-4e97-bd97-135eb2fcacbe","legal_ref":"§ 17, Abs. 1 LuftVO","start_time":"2026-04-10T09:30:00Z","end_time":"2027-03-18T00:00:00Z","name":"ED-R Dithmarschen","type_code":"U_NFZ","generated_name_de":"ED-R Dithmarschen","generated_name_en":"ED-R Dithmarschen","lower_limit_altitude":0,"lower_limit_unit":"M","lower_limit_alt_ref":"AGL","upper_limit_altitude":762,"upper_limit_unit":"M","upper_limit_alt_ref":"AGL"}},{"type":"Feature","id":"temporaere_betriebseinschraenkungen.6b15a0e0-65d2-4e2a-9b66-ad9a8ee48f47","geometry":{"type":"MultiPolygon","coordinates":[[[[8.89650327,53.07472222],[8.89633915,53.07785963],[8.89584745,53.08098465],[8.8950301,53.08408496],[8.89389033,53.08714832],[8.89243264,53.09016264],[8.89066278,53.09311602],[8.88858774,53.09599681],[8.8862157,53.09879364],[8.88355603,53.10149547],[8.88061922,53.10409164],[8.87741687,53.1065719],[8.87396161,53.10892646],[8.87026707,53.11114604],[8.86634784,53.11322187],[8.86221939,53.11514576],[8.85789801,53.11691011],[8.85340075,53.11850797],[8.84874537,53.11993303],[8.84395023,53.12117965],[8.83903425,53.12224294],[8.83401685,53.12311868],[8.82891782,53.12380342],[8.82375729,53.12429446],[8.81855561,53.12458986],[8.81333333,53.12468846],[8.80811105,53.12458986],[8.80290937,53.12429446],[8.79774884,53.12380342],[8.79264981,53.12311868],[8.78763241,53.12224294],[8.78271643,53.12117965],[8.77792129,53.11993303],[8.77326591,53.11850797],[8.76876865,53.11691011],[8.76444727,53.11514576],[8.76031882,53.11322187],[8.75639959,53.11114604],[8.75270505,53.10892646],[8.74924979,53.1065719],[8.74604744,53.10409164],[8.74311063,53.10149547],[8.74045096,53.09879364],[8.73807892,53.09599681],[8.73600388,53.09311602],[8.73423402,53.09016264],[8.73277633,53.08714832],[8.73163656,53.08408496],[8.73081921,53.08098465],[8.73032751,53.07785963],[8.73016339,53.07472222],[8.73032751,53.07158481],[8.73081921,53.06845979],[8.73163656,53.06535948],[8.73277633,53.06229612],[8.73423402,53.0592818],[8.73600388,53.05632842],[8.73807892,53.05344763],[8.74045096,53.0506508],[8.74311063,53.04794897],[8.74604744,53.0453528],[8.74924979,53.04287254],[8.75270505,53.04051798],[8.75639959,53.0382984],[8.76031882,53.03622257],[8.76444727,53.03429868],[8.76876865,53.03253433],[8.77326591,53.03093647],[8.77792129,53.02951141],[8.78271643,53.02826479],[8.78763241,53.0272015],[8.79264981,53.02632576],[8.79774884,53.02564102],[8.80290937,53.02514998],[8.80811105,53.02485458],[8.81333333,53.02475598],[8.81855561,53.02485458],[8.82375729,53.02514998],[8.82891782,53.02564102],[8.83401685,53.02632576],[8.83903425,53.0272015],[8.84395023,53.02826479],[8.84874537,53.02951141],[8.85340075,53.03093647],[8.85789801,53.03253433],[8.86221939,53.03429868],[8.86634784,53.03622257],[8.87026707,53.0382984],[8.87396161,53.04051798],[8.87741687,53.04287254],[8.88061922,53.0453528],[8.88355603,53.04794897],[8.8862157,53.0506508],[8.88858774,53.05344763],[8.89066278,53.05632842],[8.89243264,53.0592818],[8.89389033,53.06229612],[8.8950301,53.06535948],[8.89584745,53.06845979],[8.89633915,53.07158481],[8.89650327,53.07472222]]]]},"geometry_name":"geom","properties":{"external_reference":"6b15a0e0-65d2-4e2a-9b66-ad9a8ee48f47","legal_ref":"§ 17, Abs. 1 LuftVO","start_time":"2026-10-02T13:00:00Z","end_time":"2026-10-04T21:00:00Z","name":"ED-R Bremen","type_code":"U_NFZ","generated_name_de":"ED-R Bremen","generated_name_en":"ED-R Bremen","lower_limit_altitude":0,"lower_limit_unit":"M","lower_limit_alt_ref":"AGL","upper_limit_altitude":10000.00032,"upper_limit_unit":"FT","upper_limit_alt_ref":"MSL"}},{"type":"Feature","id":"temporaere_betriebseinschraenkungen.6d475dc3-8b57-401b-b8e8-ca1a9c8bc43f","geometry":{"type":"MultiPolygon","coordinates":[[[[8.96833333,52.62222222],[8.98388889,52.635],[9.07916667,52.60944444],[9.08305556,52.5975],[9,52.57222222],[8.96888889,52.59333333],[8.96833333,52.62222222]]]]},"geometry_name":"geom","properties":{"external_reference":"6d475dc3-8b57-401b-b8e8-ca1a9c8bc43f","legal_ref":"§ 17, Abs. 1 LuftVO","start_time":"2026-06-15T02:59:00Z","end_time":"2026-12-31T15:18:00Z","name":"NOTAM D1659/26","type_code":"U_NFZ","generated_name_de":"NOTAM D1659/26","generated_name_en":"NOTAM D1659/26","lower_limit_altitude":0,"lower_limit_unit":"M","lower_limit_alt_ref":"AGL","upper_limit_altitude":3500.65628,"upper_limit_unit":"FT","upper_limit_alt_ref":"MSL"}},{"type":"Feature","id":"temporaere_betriebseinschraenkungen.8206e1f7-8b10-4d0f-820c-a8a87949e56a","geometry":{"type":"MultiPolygon","coordinates":[[[[10.12758317,54.37645223],[10.10209454,54.38010628],[10.09674109,54.38027028],[10.08683207,54.37947976],[10.08395886,54.37907054],[10.07488477,54.37717993],[10.0714373,54.37613462],[10.06388455,54.3730178],[10.0620049,54.37209048],[10.05639497,54.36879869],[10.05427978,54.36817852],[10.05210071,54.36796275],[10.04246902,54.36862819],[10.04201462,54.36865528],[10.0319986,54.36915798],[10.02835691,54.36906884],[10.01911048,54.36814462],[10.01598555,54.36761298],[10.00762545,54.36556334],[10.0048728,54.36466861],[9.99721793,54.36148822],[9.99571582,54.36076942],[9.9862802,54.35558842],[9.98031472,54.35318118],[9.97515432,54.35198339],[9.96289212,54.35065572],[9.9458793,54.34915855],[9.93752497,54.34944778],[9.92790667,54.35128846],[9.90817683,54.35742989],[9.885039,54.36480949],[9.88489385,54.36485513],[9.87041405,54.36934403],[9.86723683,54.37006073],[9.85924419,54.37124913],[9.85755157,54.37143827],[9.85006176,54.37200486],[9.84804073,54.37207346],[9.80662568,54.37176066],[9.80452516,54.37165384],[9.79498826,54.37075169],[9.7915486,54.37016065],[9.78227133,54.36779435],[9.78006169,54.36708942],[9.77160303,54.36379466],[9.77015636,54.3631497],[9.75035142,54.35308747],[9.71860768,54.33722626],[9.7180549,54.33693494],[9.70626641,54.33038701],[9.70283166,54.32741167],[9.69794218,54.32017556],[9.69713519,54.3157793],[9.69802121,54.31261721],[9.69714163,54.30963552],[9.69512992,54.30646553],[9.69264643,54.30473678],[9.69031101,54.30393008],[9.68107315,54.30198163],[9.66462662,54.29924095],[9.65238778,54.29738532],[9.64934976,54.29670037],[9.64170768,54.29436082],[9.63923512,54.29339991],[9.63298435,54.29037773],[9.6310127,54.28921577],[9.6254458,54.28521524],[9.62397903,54.28393511],[9.61960519,54.27922628],[9.61876029,54.27813619],[9.60945654,54.26338898],[9.6093644,54.26323844],[9.60211481,54.25102095],[9.59290935,54.23580524],[9.58887377,54.23044383],[9.58500994,54.22662109],[9.57846775,54.22201361],[9.56418102,54.21497849],[9.55079224,54.20856545],[9.53842572,54.2031943],[9.52856918,54.2006796],[9.49036208,54.19261187],[9.4546197,54.18514349],[9.45349719,54.18487668],[9.44183459,54.18175898],[9.44115454,54.18156417],[9.42304267,54.17601946],[9.40899772,54.17177138],[9.3814668,54.1651669],[9.3802235,54.16482654],[9.36704468,54.16075295],[9.36635806,54.16052619],[9.34966607,54.15464862],[9.34897057,54.15438722],[9.34014363,54.15085287],[9.33821972,54.14992776],[9.33212214,54.14642903],[9.33043739,54.14526677],[9.32521202,54.140908],[9.3241097,54.13982143],[9.32001789,54.13498561],[9.31915926,54.13371991],[9.3159554,54.12757316],[9.31556875,54.12664272],[9.31401274,54.12166876],[9.31381388,54.11959112],[9.31514733,54.10831714],[9.31515507,54.10825508],[9.31562313,54.10468332],[9.31476501,54.10085096],[9.31235456,54.09515014],[9.3023076,54.07679041],[9.30211835,54.07641416],[9.29802232,54.06750106],[9.29783663,54.06704649],[9.29300906,54.05356652],[9.29291651,54.05328381],[9.29037826,54.04473377],[9.29028421,54.0443694],[9.28837024,54.03565512],[9.28377589,54.01926698],[9.28376235,54.01921776],[9.2800495,54.00545051],[9.27861572,54.00176243],[9.27640627,53.99724042],[9.27230622,53.99214519],[9.26719222,53.98722529],[9.25272384,53.97663427],[9.2323785,53.96173606],[9.23233128,53.96170128],[9.22064131,53.95304027],[9.2094957,53.94496398],[9.20947718,53.94495053],[9.18540735,53.92742058],[9.17763102,53.92260632],[9.1523529,53.90926389],[9.12227438,53.89366883],[9.12100589,53.88191548],[9.14094504,53.8811664],[9.17107161,53.89678272],[9.17117132,53.89683487],[9.19691897,53.91042177],[9.19773019,53.91088533],[9.20629068,53.91618344],[9.2070441,53.91668905],[9.23146727,53.93446964],[9.2426546,53.94257306],[9.242753,53.94264513],[9.25447001,53.95132275],[9.27479547,53.96620061],[9.28983898,53.97720821],[9.29088385,53.97808178],[9.29686928,53.98383682],[9.29758804,53.98461869],[9.30250718,53.99072711],[9.30331823,53.99198954],[9.30595651,53.99738203],[9.3061514,53.99782598],[9.3077813,54.00201138],[9.3079631,54.00256317],[9.31175337,54.01658263],[9.31639196,54.03308886],[9.31646421,54.03337711],[9.31837553,54.04205266],[9.32082314,54.05027873],[9.32552668,54.06338792],[9.32943711,54.07188495],[9.33953954,54.09032388],[9.33980236,54.09086558],[9.34252496,54.09729451],[9.34282219,54.09821471],[9.34398014,54.10337041],[9.34406045,54.10509237],[9.34348631,54.10949666],[9.34228723,54.11969374],[9.34337527,54.12316423],[9.34600241,54.12819821],[9.34909741,54.13185329],[9.3529508,54.13506612],[9.3572222,54.13751633],[9.36467518,54.14050004],[9.38067148,54.14613194],[9.39289088,54.14990862],[9.42035941,54.15649753],[9.42149941,54.15680588],[9.436132,54.16123133],[9.43619784,54.16125136],[9.45400238,54.1667015],[9.46476586,54.16957864],[9.49995195,54.17693031],[9.50000451,54.17694135],[9.53866214,54.18510373],[9.53952466,54.1853045],[9.55129518,54.18830722],[9.55409264,54.18925494],[9.56803622,54.1953101],[9.56857157,54.19555431],[9.58229811,54.20212778],[9.58245009,54.20220157],[9.59778429,54.20975071],[9.5995702,54.21080193],[9.60765199,54.21649159],[9.60895651,54.21757468],[9.61383301,54.2223965],[9.6146085,54.22327936],[9.6192042,54.22937982],[9.61959661,54.22995832],[9.62900335,54.24549012],[9.62903289,54.24553937],[9.63625926,54.25770437],[9.64516842,54.27181179],[9.64842252,54.27531285],[9.6522671,54.27807461],[9.65628333,54.280016],[9.6611501,54.28150578],[9.67196552,54.28314547],[9.67229827,54.28319841],[9.68937738,54.28604438],[9.69031221,54.28622061],[9.70127248,54.2885322],[9.70369168,54.28919783],[9.70928226,54.29112864],[9.71294986,54.29294485],[9.71858995,54.29686944],[9.72103756,54.29932721],[9.72436837,54.30457052],[9.72505064,54.30604963],[9.72656343,54.31116586],[9.72658522,54.31392161],[9.7259485,54.31619976],[9.7282439,54.31959352],[9.73748209,54.32472332],[9.76898793,54.34046201],[9.76908274,54.34050976],[9.78824553,54.35024362],[9.794893,54.35283252],[9.80135432,54.35448047],[9.80806114,54.35511488],[9.84738852,54.35541191],[9.85301366,54.35498638],[9.85850532,54.35416988],[9.8713943,54.35017444],[9.89452014,54.34279943],[9.89465271,54.34275766],[9.91553989,54.3362565],[9.91781623,54.33568943],[9.93037237,54.33328659],[9.93398292,54.33288559],[9.94568173,54.33248059],[9.94866347,54.33255936],[9.96739376,54.33420777],[9.96787307,54.33425479],[9.98174637,54.33575681],[9.98442423,54.33620782],[9.99239477,54.33805775],[9.99524252,54.33894786],[10.00342773,54.34225032],[10.0050938,54.34303638],[10.01460247,54.3482563],[10.02017223,54.35057002],[10.02555899,54.3518906],[10.03137739,54.35247218],[10.03933198,54.35207289],[10.05077962,54.35128188],[10.05485784,54.3513416],[10.06118211,54.35196782],[10.06521224,54.35273885],[10.07132117,54.35452984],[10.0750393,54.35610112],[10.08141795,54.3598431],[10.08636064,54.3618825],[10.09218585,54.36309613],[10.09791588,54.36355328],[10.12137973,54.36018923],[10.12265822,54.36004146],[10.14733561,54.35786235],[10.15607168,54.36492271],[10.15162494,54.37432916],[10.12758317,54.37645223]]]]},"geometry_name":"geom","properties":{"external_reference":"8206e1f7-8b10-4d0f-820c-a8a87949e56a","legal_ref":"§ 21h, Abs. 3 (11.) LuftVO","start_time":"2026-09-01T06:00:00Z","end_time":"2026-09-04T18:00:00Z","name":"NOTAM D3083/26","type_code":"U_NFZ","generated_name_de":"NOTAM D3083/26","generated_name_en":"NOTAM D3083/26","lower_limit_altitude":0,"lower_limit_unit":"M","lower_limit_alt_ref":"AGL","upper_limit_altitude":99999,"upper_limit_unit":"M","upper_limit_alt_ref":"AGL"}},{"type":"Feature","id":"temporaere_betriebseinschraenkungen.8b298352-869c-403f-82c3-a8e2bfd289a4","geometry":{"type":"MultiPolygon","coordinates":[[[[9.886389,52.584167],[9.806111,52.665],[9.848611,52.715278],[9.969444,52.713889],[10.231667,52.731111],[10.171111,52.656389],[9.954444,52.635],[9.95297,52.634921],[9.951522,52.634746],[9.950081,52.634555],[9.948645,52.634348],[9.947215,52.634126],[9.945793,52.633888],[9.944377,52.633635],[9.942969,52.633367],[9.94157,52.633083],[9.940179,52.632784],[9.938797,52.63247],[9.937425,52.63214],[9.936062,52.631796],[9.93471,52.631438],[9.933369,52.631064],[9.932039,52.630676],[9.930721,52.630274],[9.929415,52.629857],[9.928122,52.629426],[9.926841,52.628981],[9.925574,52.628522],[9.924321,52.62805],[9.923081,52.627564],[9.921857,52.627064],[9.920647,52.626552],[9.919453,52.626026],[9.918274,52.625487],[9.917112,52.624936],[9.915966,52.624372],[9.914837,52.623795],[9.913725,52.623207],[9.912631,52.622606],[9.911554,52.621993],[9.910496,52.621369],[9.909457,52.620734],[9.908436,52.620087],[9.907435,52.619429],[9.906454,52.618761],[9.905492,52.618082],[9.904551,52.617392],[9.90363,52.616692],[9.90273,52.615983],[9.901851,52.615264],[9.900993,52.614535],[9.900158,52.613797],[9.899344,52.61305],[9.898552,52.612295],[9.897783,52.61153],[9.897036,52.610758],[9.896313,52.609978],[9.895612,52.60919],[9.894935,52.608394],[9.894282,52.607591],[9.893652,52.606781],[9.893047,52.605965],[9.892466,52.605142],[9.891909,52.604312],[9.891376,52.603477],[9.890869,52.602636],[9.890386,52.60179],[9.889929,52.600939],[9.889496,52.600082],[9.889089,52.599222],[9.888708,52.598357],[9.888352,52.597487],[9.888021,52.596615],[9.887717,52.595738],[9.887439,52.594859],[9.887186,52.593977],[9.88696,52.593092],[9.886759,52.592204],[9.886585,52.591315],[9.886438,52.590424],[9.886316,52.589531],[9.886221,52.588638],[9.886152,52.587743],[9.88611,52.586848],[9.886094,52.585952],[9.886105,52.585057],[9.886389,52.584167]]]]},"geometry_name":"geom","properties":{"external_reference":"8b298352-869c-403f-82c3-a8e2bfd289a4","legal_ref":"§ 17, Abs. 1 LuftVO","start_time":"2026-09-30T06:00:00Z","end_time":"2056-09-30T15:00:00Z","name":"ED-R Celle","type_code":"U_NFZ","generated_name_de":"ED-R Celle","generated_name_en":"ED-R Celle","lower_limit_altitude":0,"lower_limit_unit":"M","lower_limit_alt_ref":"AGL","upper_limit_altitude":1499.34388,"upper_limit_unit":"FT","upper_limit_alt_ref":"MSL"}},{"type":"Feature","id":"temporaere_betriebseinschraenkungen.9013fb14-84e4-4a54-92f5-6f0b34611a63","geometry":{"type":"MultiPolygon","coordinates":[[[[13.26259095,53.55745],[13.26258647,53.5575347],[13.26257304,53.55761907],[13.26255072,53.55770277],[13.2625196,53.55778548],[13.2624798,53.55786686],[13.26243147,53.55794659],[13.26237482,53.55802437],[13.26231005,53.55809988],[13.26223742,53.55817282],[13.26215724,53.55824291],[13.2620698,53.55830987],[13.26197545,53.55837344],[13.26187457,53.55843336],[13.26176756,53.55848941],[13.26165483,53.55854135],[13.26153683,53.55858898],[13.26141404,53.55863212],[13.26128692,53.55867059],[13.26115599,53.55870425],[13.26102176,53.55873296],[13.26088476,53.5587566],[13.26074553,53.55877509],[13.26060463,53.55878834],[13.26046259,53.55879632],[13.26032,53.55879898],[13.26017741,53.55879632],[13.26003537,53.55878834],[13.25989447,53.55877509],[13.25975524,53.5587566],[13.25961824,53.55873296],[13.25948401,53.55870425],[13.25935308,53.55867059],[13.25922596,53.55863212],[13.25910317,53.55858898],[13.25898517,53.55854135],[13.25887244,53.55848941],[13.25876543,53.55843336],[13.25866455,53.55837344],[13.2585702,53.55830987],[13.25848276,53.55824291],[13.25840258,53.55817282],[13.25832995,53.55809988],[13.25826518,53.55802437],[13.25820853,53.55794659],[13.2581602,53.55786686],[13.2581204,53.55778548],[13.25808928,53.55770277],[13.25806696,53.55761907],[13.25805353,53.5575347],[13.25804905,53.55745],[13.25805353,53.5573653],[13.25806696,53.55728093],[13.25808928,53.55719723],[13.2581204,53.55711452],[13.2581602,53.55703314],[13.25820853,53.55695341],[13.25826518,53.55687563],[13.25832995,53.55680012],[13.25840258,53.55672718],[13.25848276,53.55665709],[13.2585702,53.55659013],[13.25866455,53.55652656],[13.25876543,53.55646664],[13.25887244,53.55641059],[13.25898517,53.55635865],[13.25910317,53.55631102],[13.25922596,53.55626788],[13.25935308,53.55622941],[13.25948401,53.55619575],[13.25961824,53.55616704],[13.25975524,53.5561434],[13.25989447,53.55612491],[13.26003537,53.55611166],[13.26017741,53.55610368],[13.26032,53.55610102],[13.26046259,53.55610368],[13.26060463,53.55611166],[13.26074553,53.55612491],[13.26088476,53.5561434],[13.26102176,53.55616704],[13.26115599,53.55619575],[13.26128692,53.55622941],[13.26141404,53.55626788],[13.26153683,53.55631102],[13.26165483,53.55635865],[13.26176756,53.55641059],[13.26187457,53.55646664],[13.26197545,53.55652656],[13.2620698,53.55659013],[13.26215724,53.55665709],[13.26223742,53.55672718],[13.26231005,53.55680012],[13.26237482,53.55687563],[13.26243147,53.55695341],[13.2624798,53.55703314],[13.2625196,53.55711452],[13.26255072,53.55719723],[13.26257304,53.55728093],[13.26258647,53.5573653],[13.26259095,53.55745]]]]},"geometry_name":"geom","properties":{"external_reference":"9013fb14-84e4-4a54-92f5-6f0b34611a63","legal_ref":"§ 21h, Abs. 3 (11.) LuftVO","start_time":"2026-09-03T15:30:00Z","end_time":"2026-09-03T20:00:00Z","name":"Polizeilicher Einsatzraum ","type_code":"U_NFZ","generated_name_de":"Polizeilicher Einsatzraum ","generated_name_en":"Polizeilicher Einsatzraum ","lower_limit_altitude":0,"lower_limit_unit":"M","lower_limit_alt_ref":"AGL","upper_limit_altitude":150,"upper_limit_unit":"M","upper_limit_alt_ref":"AGL"}},{"type":"Feature","id":"temporaere_betriebseinschraenkungen.a786cda6-fe47-4143-bdc5-a25708dff3b4","geometry":{"type":"MultiPolygon","coordinates":[[[[7.92823534,52.8411023],[7.92822653,52.84127171],[7.92820012,52.84144044],[7.92815622,52.84160785],[7.92809501,52.84177326],[7.92801673,52.84193602],[7.92792168,52.84209549],[7.92781024,52.84225104],[7.92768285,52.84240205],[7.92754001,52.84254794],[7.92738229,52.84268812],[7.92721031,52.84282205],[7.92702475,52.84294918],[7.92682633,52.84306903],[7.92661585,52.84318111],[7.92639413,52.843285],[7.92616205,52.84338026],[7.92592053,52.84346654],[7.92567051,52.84354349],[7.92541299,52.8436108],[7.92514898,52.84366821],[7.92487952,52.8437155],[7.92460568,52.84375247],[7.92432854,52.84377899],[7.92404918,52.84379494],[7.92376872,52.84380026],[7.92348826,52.84379494],[7.9232089,52.84377899],[7.92293176,52.84375247],[7.92265792,52.8437155],[7.92238846,52.84366821],[7.92212445,52.8436108],[7.92186693,52.84354349],[7.92161691,52.84346654],[7.92137539,52.84338026],[7.92114331,52.843285],[7.92092159,52.84318111],[7.92071111,52.84306903],[7.92051269,52.84294918],[7.92032713,52.84282205],[7.92015515,52.84268812],[7.91999743,52.84254794],[7.91985459,52.84240205],[7.9197272,52.84225104],[7.91961576,52.84209549],[7.91952071,52.84193602],[7.91944243,52.84177326],[7.91938122,52.84160785],[7.91933732,52.84144044],[7.91931091,52.84127171],[7.9193021,52.8411023],[7.91931091,52.84093289],[7.91933732,52.84076416],[7.91938122,52.84059675],[7.91944243,52.84043134],[7.91952071,52.84026858],[7.91961576,52.84010911],[7.9197272,52.83995356],[7.91985459,52.83980255],[7.91999743,52.83965666],[7.92015515,52.83951648],[7.92032713,52.83938255],[7.92051269,52.83925542],[7.92071111,52.83913557],[7.92092159,52.83902349],[7.92114331,52.8389196],[7.92137539,52.83882434],[7.92161691,52.83873806],[7.92186693,52.83866111],[7.92212445,52.8385938],[7.92238846,52.83853639],[7.92265792,52.8384891],[7.92293176,52.83845213],[7.9232089,52.83842561],[7.92348826,52.83840966],[7.92376872,52.83840434],[7.92404918,52.83840966],[7.92432854,52.83842561],[7.92460568,52.83845213],[7.92487952,52.8384891],[7.92514898,52.83853639],[7.92541299,52.8385938],[7.92567051,52.83866111],[7.92592053,52.83873806],[7.92616205,52.83882434],[7.92639413,52.8389196],[7.92661585,52.83902349],[7.92682633,52.83913557],[7.92702475,52.83925542],[7.92721031,52.83938255],[7.92738229,52.83951648],[7.92754001,52.83965666],[7.92768285,52.83980255],[7.92781024,52.83995356],[7.92792168,52.84010911],[7.92801673,52.84026858],[7.92809501,52.84043134],[7.92815622,52.84059675],[7.92820012,52.84076416],[7.92822653,52.84093289],[7.92823534,52.8411023]]]]},"geometry_name":"geom","properties":{"external_reference":"a786cda6-fe47-4143-bdc5-a25708dff3b4","legal_ref":"§ 21h, Abs. 3 (11.) LuftVO","start_time":"2026-09-01T09:35:00Z","end_time":"2026-09-02T09:35:00Z","name":"NI_THW_CLP_KF_CLP_80/19/10_Molbergen","type_code":"U_NFZ","generated_name_de":"NI_THW_CLP_KF_CLP_80/19/10_Molbergen","generated_name_en":"NI_THW_CLP_KF_CLP_80/19/10_Molbergen","lower_limit_altitude":0,"lower_limit_unit":"M","lower_limit_alt_ref":"AGL","upper_limit_altitude":150,"upper_limit_unit":"M","upper_limit_alt_ref":"AGL"}},{"type":"Feature","id":"temporaere_betriebseinschraenkungen.b17a8ca0-2e6c-457a-a317-b5222ebe980a","geometry":{"type":"MultiPolygon","coordinates":[[[[8.0583333,53.6261111],[8.1583333,53.6561111],[8.1761111,53.6352778],[8.0761111,53.6052778],[8.0583333,53.6261111]]]]},"geometry_name":"geom","properties":{"external_reference":"b17a8ca0-2e6c-457a-a317-b5222ebe980a","legal_ref":"§ 17, Abs. 1 LuftVO","start_time":"2026-04-10T15:40:00Z","end_time":"2027-03-18T00:00:00Z","name":"ED-R Wilhelmshaven","type_code":"U_NFZ","generated_name_de":"ED-R Wilhelmshaven","generated_name_en":"ED-R Wilhelmshaven","lower_limit_altitude":0,"lower_limit_unit":"M","lower_limit_alt_ref":"AGL","upper_limit_altitude":762,"upper_limit_unit":"M","upper_limit_alt_ref":"AGL"}},{"type":"Feature","id":"temporaere_betriebseinschraenkungen.b6d71677-c376-4971-baad-845828d1d135","geometry":{"type":"MultiPolygon","coordinates":[[[[13.64567484,54.48472222],[13.64556169,54.48681383],[13.64522269,54.48889718],[13.64465917,54.49096405],[13.64387335,54.49300629],[13.64286835,54.49501583],[13.64164812,54.49698476],[13.64021748,54.49890528],[13.63858208,54.50076984],[13.63674837,54.50257106],[13.63472359,54.50430183],[13.63251573,54.50595534],[13.63013349,54.50752505],[13.6275863,54.50900477],[13.62488419,54.51038866],[13.62203783,54.51167125],[13.61905845,54.51284748],[13.61595782,54.51391272],[13.61274816,54.51486276],[13.60944215,54.51569385],[13.60605283,54.5164027],[13.60259359,54.51698653],[13.59907806,54.51744302],[13.59552013,54.51777038],[13.59193384,54.51796732],[13.58833333,54.51803305],[13.58473283,54.51796732],[13.58114654,54.51777038],[13.57758861,54.51744302],[13.57407308,54.51698653],[13.57061383,54.5164027],[13.56722452,54.51569385],[13.56391851,54.51486276],[13.56070885,54.51391272],[13.55760822,54.51284748],[13.55462884,54.51167125],[13.55178248,54.51038866],[13.54908037,54.50900477],[13.54653317,54.50752505],[13.54415094,54.50595534],[13.54194308,54.50430183],[13.5399183,54.50257106],[13.53808459,54.50076984],[13.53644919,54.49890528],[13.53501855,54.49698476],[13.53379832,54.49501583],[13.53279331,54.49300629],[13.5320075,54.49096405],[13.53144398,54.48889718],[13.53110498,54.48681383],[13.53099182,54.48472222],[13.53110498,54.48263062],[13.53144398,54.48054727],[13.5320075,54.4784804],[13.53279331,54.47643816],[13.53379832,54.47442861],[13.53501855,54.47245969],[13.53644919,54.47053916],[13.53808459,54.46867461],[13.5399183,54.46687339],[13.54194308,54.46514261],[13.54415094,54.4634891],[13.54653317,54.46191939],[13.54908037,54.46043967],[13.55178248,54.45905579],[13.55462884,54.4577732],[13.55760822,54.45659696],[13.56070885,54.45553172],[13.56391851,54.45458169],[13.56722452,54.4537506],[13.57061383,54.45304174],[13.57407308,54.45245792],[13.57758861,54.45200142],[13.58114654,54.45167406],[13.58473283,54.45147713],[13.58833333,54.4514114],[13.59193384,54.45147713],[13.59552013,54.45167406],[13.59907806,54.45200142],[13.60259359,54.45245792],[13.60605283,54.45304174],[13.60944215,54.4537506],[13.61274816,54.45458169],[13.61595782,54.45553172],[13.61905845,54.45659696],[13.62203783,54.4577732],[13.62488419,54.45905579],[13.6275863,54.46043967],[13.63013349,54.46191939],[13.63251573,54.4634891],[13.63472359,54.46514261],[13.63674837,54.46687339],[13.63858208,54.46867461],[13.64021748,54.47053916],[13.64164812,54.47245969],[13.64286835,54.47442861],[13.64387335,54.47643816],[13.64465917,54.4784804],[13.64522269,54.48054727],[13.64556169,54.48263062],[13.64567484,54.48472222]]]]},"geometry_name":"geom","properties":{"external_reference":"b6d71677-c376-4971-baad-845828d1d135","legal_ref":"§ 17, Abs. 1 LuftVO","start_time":"2026-04-10T09:35:00Z","end_time":"2027-03-18T00:00:00Z","name":"ED-R Mukran","type_code":"U_NFZ","generated_name_de":"ED-R Mukran","generated_name_en":"ED-R Mukran","lower_limit_altitude":0,"lower_limit_unit":"M","lower_limit_alt_ref":"AGL","upper_limit_altitude":762,"upper_limit_unit":"M","upper_limit_alt_ref":"AGL"}},{"type":"Feature","id":"temporaere_betriebseinschraenkungen.c5506dfc-3f12-413c-be8f-714f0676e09f","geometry":{"type":"MultiPolygon","coordinates":[[[[11.59983775,49.9336],[11.59981222,49.9341229],[11.59973573,49.93464374],[11.59960859,49.93516046],[11.59943129,49.93567102],[11.59920453,49.9361734],[11.59892922,49.93666563],[11.59860643,49.93714577],[11.59823744,49.9376119],[11.59782371,49.93806221],[11.59736686,49.9384949],[11.59686871,49.93890828],[11.59633122,49.93930071],[11.5957565,49.93967064],[11.59514683,49.94001661],[11.59450462,49.94033726],[11.59383239,49.94063132],[11.59313281,49.94089762],[11.59240863,49.94113513],[11.5916627,49.94134291],[11.59089799,49.94152012],[11.59011749,49.94166608],[11.58932429,49.9417802],[11.58852153,49.94186204],[11.58771237,49.94191127],[11.5869,49.94192771],[11.58608763,49.94191127],[11.58527847,49.94186204],[11.58447571,49.9417802],[11.58368251,49.94166608],[11.58290201,49.94152012],[11.5821373,49.94134291],[11.58139137,49.94113513],[11.58066719,49.94089762],[11.57996761,49.94063132],[11.57929538,49.94033726],[11.57865317,49.94001661],[11.5780435,49.93967064],[11.57746878,49.93930071],[11.57693129,49.93890828],[11.57643314,49.9384949],[11.57597629,49.93806221],[11.57556256,49.9376119],[11.57519357,49.93714577],[11.57487078,49.93666563],[11.57459547,49.9361734],[11.57436871,49.93567102],[11.57419141,49.93516046],[11.57406427,49.93464374],[11.57398778,49.9341229],[11.57396225,49.9336],[11.57398778,49.9330771],[11.57406427,49.93255626],[11.57419141,49.93203954],[11.57436871,49.93152898],[11.57459547,49.9310266],[11.57487078,49.93053437],[11.57519357,49.93005423],[11.57556256,49.9295881],[11.57597629,49.92913779],[11.57643314,49.9287051],[11.57693129,49.92829172],[11.57746878,49.92789929],[11.5780435,49.92752936],[11.57865317,49.92718339],[11.57929538,49.92686274],[11.57996761,49.92656868],[11.58066719,49.92630238],[11.58139137,49.92606487],[11.5821373,49.92585709],[11.58290201,49.92567988],[11.58368251,49.92553392],[11.58447571,49.9254198],[11.58527847,49.92533796],[11.58608763,49.92528873],[11.5869,49.92527229],[11.58771237,49.92528873],[11.58852153,49.92533796],[11.58932429,49.9254198],[11.59011749,49.92553392],[11.59089799,49.92567988],[11.5916627,49.92585709],[11.59240863,49.92606487],[11.59313281,49.92630238],[11.59383239,49.92656868],[11.59450462,49.92686274],[11.59514683,49.92718339],[11.5957565,49.92752936],[11.59633122,49.92789929],[11.59686871,49.92829172],[11.59736686,49.9287051],[11.59782371,49.92913779],[11.59823744,49.9295881],[11.59860643,49.93005423],[11.59892922,49.93053437],[11.59920453,49.9310266],[11.59943129,49.93152898],[11.59960859,49.93203954],[11.59973573,49.93255626],[11.59981222,49.9330771],[11.59983775,49.9336]]]]},"geometry_name":"geom","properties":{"external_reference":"c5506dfc-3f12-413c-be8f-714f0676e09f","legal_ref":"§ 21h, Abs. 3 (11.) LuftVO","start_time":"2026-09-05T09:00:00Z","end_time":"2026-09-05T22:00:00Z","name":"Polizeieinsatz Kreuzstein Open Air","type_code":"U_NFZ","generated_name_de":"Polizeieinsatz Kreuzstein Open Air","generated_name_en":"Polizeieinsatz Kreuzstein Open Air","lower_limit_altitude":0,"lower_limit_unit":"M","lower_limit_alt_ref":"AGL","upper_limit_altitude":120,"upper_limit_unit":"M","upper_limit_alt_ref":"AGL"}},{"type":"Feature","id":"temporaere_betriebseinschraenkungen.ccc93d54-a2d0-4fd5-a9d9-9dcb947a674b","geometry":{"type":"MultiPolygon","coordinates":[[[[9.57340439,53.63638889],[9.57329352,53.63848049],[9.57296137,53.64056384],[9.57240924,53.64263072],[9.57163932,53.64467295],[9.57065463,53.6466825],[9.56945908,53.64865142],[9.56805736,53.65057195],[9.56645503,53.6524365],[9.56465839,53.65423772],[9.56267455,53.6559685],[9.56051132,53.65762201],[9.55817726,53.65919172],[9.55568156,53.66067144],[9.55303408,53.66205532],[9.55024527,53.66333791],[9.54732613,53.66451415],[9.54428819,53.66557939],[9.54114342,53.66652943],[9.53790426,53.66736051],[9.53458347,53.66806937],[9.53119416,53.66865319],[9.52774971,53.66910969],[9.52426371,53.66943705],[9.52074993,53.66963398],[9.51722222,53.66969972],[9.51369452,53.66963398],[9.51018073,53.66943705],[9.50669473,53.66910969],[9.50325029,53.66865319],[9.49986098,53.66806937],[9.49654019,53.66736051],[9.49330102,53.66652943],[9.49015626,53.66557939],[9.48711831,53.66451415],[9.48419918,53.66333791],[9.48141036,53.66205532],[9.47876289,53.66067144],[9.47626719,53.65919172],[9.47393312,53.65762201],[9.4717699,53.6559685],[9.46978605,53.65423772],[9.46798942,53.6524365],[9.46638708,53.65057195],[9.46498537,53.64865142],[9.46378981,53.6466825],[9.46280513,53.64467295],[9.4620352,53.64263072],[9.46148307,53.64056384],[9.46115092,53.63848049],[9.46104006,53.63638889],[9.46115092,53.63429728],[9.46148307,53.63221394],[9.4620352,53.63014706],[9.46280513,53.62810482],[9.46378981,53.62609528],[9.46498537,53.62412636],[9.46638708,53.62220583],[9.46798942,53.62034128],[9.46978605,53.61854006],[9.4717699,53.61680928],[9.47393312,53.61515577],[9.47626719,53.61358606],[9.47876289,53.61210634],[9.48141036,53.61072246],[9.48419918,53.60943986],[9.48711831,53.60826363],[9.49015626,53.60719839],[9.49330102,53.60624835],[9.49654019,53.60541727],[9.49986098,53.60470841],[9.50325029,53.60412458],[9.50669473,53.60366809],[9.51018073,53.60334073],[9.51369452,53.60314379],[9.51722222,53.60307806],[9.52074993,53.60314379],[9.52426371,53.60334073],[9.52774971,53.60366809],[9.53119416,53.60412458],[9.53458347,53.60470841],[9.53790426,53.60541727],[9.54114342,53.60624835],[9.54428819,53.60719839],[9.54732613,53.60826363],[9.55024527,53.60943986],[9.55303408,53.61072246],[9.55568156,53.61210634],[9.55817726,53.61358606],[9.56051132,53.61515577],[9.56267455,53.61680928],[9.56465839,53.61854006],[9.56645503,53.62034128],[9.56805736,53.62220583],[9.56945908,53.62412636],[9.57065463,53.62609528],[9.57163932,53.62810482],[9.57240924,53.63014706],[9.57296137,53.63221394],[9.57329352,53.63429728],[9.57340439,53.63638889]]]]},"geometry_name":"geom","properties":{"external_reference":"ccc93d54-a2d0-4fd5-a9d9-9dcb947a674b","legal_ref":"§ 17, Abs. 1 LuftVO","start_time":"2026-04-10T09:25:00Z","end_time":"2027-03-18T00:00:00Z","name":"ED-R Stade","type_code":"U_NFZ","generated_name_de":"ED-R Stade","generated_name_en":"ED-R Stade","lower_limit_altitude":0,"lower_limit_unit":"M","lower_limit_alt_ref":"AGL","upper_limit_altitude":762,"upper_limit_unit":"M","upper_limit_alt_ref":"AGL"}},{"type":"Feature","id":"temporaere_betriebseinschraenkungen.d3b1c2b3-df41-4faa-a68e-e99e42789d9b","geometry":{"type":"MultiPolygon","coordinates":[[[[14.15560305,52.20916667],[14.15553334,52.21052587],[14.1553245,52.21187971],[14.15497734,52.21322284],[14.15449324,52.21454997],[14.15387411,52.21585585],[14.15312238,52.21713533],[14.15224104,52.21838336],[14.15123355,52.21959502],[14.15010389,52.22076552],[14.14885652,52.22189024],[14.14749637,52.22296476],[14.14602879,52.22398481],[14.14445959,52.22494639],[14.14279495,52.22584569],[14.14104145,52.22667917],[14.139206,52.22744353],[14.13729586,52.22813576],[14.13531855,52.22875313],[14.13328188,52.2292932],[14.13119389,52.22975385],[14.12906282,52.23013324],[14.12689707,52.23042989],[14.12470521,52.23064262],[14.12249587,52.23077059],[14.12027778,52.23081331],[14.11805969,52.23077059],[14.11585035,52.23064262],[14.11365848,52.23042989],[14.11149274,52.23013324],[14.10936167,52.22975385],[14.10727368,52.2292932],[14.10523701,52.22875313],[14.1032597,52.22813576],[14.10134955,52.22744353],[14.0995141,52.22667917],[14.0977606,52.22584569],[14.09609597,52.22494639],[14.09452676,52.22398481],[14.09305919,52.22296476],[14.09169903,52.22189024],[14.09045166,52.22076552],[14.08932201,52.21959502],[14.08831452,52.21838336],[14.08743317,52.21713533],[14.08668145,52.21585585],[14.08606231,52.21454997],[14.08557821,52.21322284],[14.08523106,52.21187971],[14.08502221,52.21052587],[14.08495251,52.20916667],[14.08502221,52.20780746],[14.08523106,52.20645362],[14.08557821,52.20511049],[14.08606231,52.20378337],[14.08668145,52.20247749],[14.08743317,52.20119801],[14.08831452,52.19994998],[14.08932201,52.19873832],[14.09045166,52.19756782],[14.09169903,52.19644309],[14.09305919,52.19536858],[14.09452676,52.19434852],[14.09609597,52.19338694],[14.0977606,52.19248764],[14.0995141,52.19165417],[14.10134955,52.1908898],[14.1032597,52.19019757],[14.10523701,52.1895802],[14.10727368,52.18904013],[14.10936167,52.18857949],[14.11149274,52.18820009],[14.11365848,52.18790345],[14.11585035,52.18769072],[14.11805969,52.18756274],[14.12027778,52.18752003],[14.12249587,52.18756274],[14.12470521,52.18769072],[14.12689707,52.18790345],[14.12906282,52.18820009],[14.13119389,52.18857949],[14.13328188,52.18904013],[14.13531855,52.1895802],[14.13729586,52.19019757],[14.139206,52.1908898],[14.14104145,52.19165417],[14.14279495,52.19248764],[14.14445959,52.19338694],[14.14602879,52.19434852],[14.14749637,52.19536858],[14.14885652,52.19644309],[14.15010389,52.19756782],[14.15123355,52.19873832],[14.15224104,52.19994998],[14.15312238,52.20119801],[14.15387411,52.20247749],[14.15449324,52.20378337],[14.15497734,52.20511049],[14.1553245,52.20645362],[14.15553334,52.20780746],[14.15560305,52.20916667]]]]},"geometry_name":"geom","properties":{"external_reference":"d3b1c2b3-df41-4faa-a68e-e99e42789d9b","legal_ref":"§ 17, Abs. 1 LuftVO","start_time":"2026-01-22T00:00:00Z","end_time":"2028-01-01T00:00:00Z","name":"ED-R Lindenberg","type_code":"U_NFZ","generated_name_de":"ED-R Lindenberg","generated_name_en":"ED-R Lindenberg","lower_limit_altitude":0,"lower_limit_unit":"M","lower_limit_alt_ref":"AGL","upper_limit_altitude":22860,"upper_limit_unit":"FT","upper_limit_alt_ref":"MSL"}},{"type":"Feature","id":"temporaere_betriebseinschraenkungen.d7b3be5d-0e6c-47f2-9426-be106ce8f795","geometry":{"type":"MultiPolygon","coordinates":[[[[11.88805556,49.30083333],[11.89361111,49.33166667],[11.86055556,49.41472222],[11.95444444,49.41694444],[11.96722222,49.4325],[11.90583333,49.445],[11.89777778,49.46694444],[11.89555556,49.49527778],[11.89944444,49.51166667],[11.89055556,49.54555556],[11.90277778,49.59416667],[11.91055556,49.60861111],[11.905,49.61722222],[11.91666667,49.61666667],[11.93944444,49.63944444],[11.95805556,49.60972222],[11.95055556,49.595],[11.93916667,49.54777778],[11.94722222,49.51166667],[11.94416667,49.49444444],[11.94444444,49.46861111],[12.01388889,49.45527778],[12.0175,49.44138889],[12.01138889,49.42666667],[11.98611111,49.38805556],[11.91305556,49.38666667],[11.93527778,49.33111111],[11.92944444,49.28916667],[11.88805556,49.30083333]]]]},"geometry_name":"geom","properties":{"external_reference":"d7b3be5d-0e6c-47f2-9426-be106ce8f795","legal_ref":"§ 17, Abs. 1 LuftVO","start_time":"2026-08-26T09:00:00Z","end_time":"2026-09-04T21:00:00Z","name":"ED-R Amberg","type_code":"U_NFZ","generated_name_de":"ED-R Amberg","generated_name_en":"ED-R Amberg","lower_limit_altitude":0,"lower_limit_unit":"M","lower_limit_alt_ref":"AGL","upper_limit_altitude":5000.00016,"upper_limit_unit":"FT","upper_limit_alt_ref":"MSL"}},{"type":"Feature","id":"temporaere_betriebseinschraenkungen.d963b2b3-ec1d-4183-bd71-86d300bc1576","geometry":{"type":"MultiPolygon","coordinates":[[[[8.81666667,52.65],[8.87333333,52.67611111],[8.98388889,52.635],[8.96833333,52.62222222],[8.81666667,52.65]]]]},"geometry_name":"geom","properties":{"external_reference":"d963b2b3-ec1d-4183-bd71-86d300bc1576","legal_ref":"§ 17, Abs. 1 LuftVO","start_time":"2026-06-15T03:00:00Z","end_time":"2026-12-31T15:19:00Z","name":"NOTAM D1660/26","type_code":"U_NFZ","generated_name_de":"NOTAM D1660/26","generated_name_en":"NOTAM D1660/26","lower_limit_altitude":0,"lower_limit_unit":"M","lower_limit_alt_ref":"AGL","upper_limit_altitude":1499.34388,"upper_limit_unit":"FT","upper_limit_alt_ref":"MSL"}},{"type":"Feature","id":"temporaere_betriebseinschraenkungen.db61df8e-61e2-4a25-982e-81eb8a50f5c8","geometry":{"type":"MultiPolygon","coordinates":[[[[11.5182729,51.8383337],[11.4517038,51.834526],[11.3698527,51.8399935],[11.2672413,51.8562066],[11.2859076,51.8876102],[11.3966519,51.871456],[11.4408385,51.8829668],[11.5100055,51.8676968],[11.5182729,51.8383337]]]]},"geometry_name":"geom","properties":{"external_reference":"db61df8e-61e2-4a25-982e-81eb8a50f5c8","legal_ref":"§ 21h, Abs. 4 LuftVO","start_time":"2025-11-27T12:00:00Z","end_time":"2049-12-31T23:00:00Z","name":"DLR - Nationales Erprobungszentrum","type_code":"U_NFZ","generated_name_de":"DLR - Nationales Erprobungszentrum","generated_name_en":"DLR - Nationales Erprobungszentrum","lower_limit_altitude":0,"lower_limit_unit":"FT","lower_limit_alt_ref":"MSL","upper_limit_altitude":3000,"upper_limit_unit":"FT","upper_limit_alt_ref":"MSL"}},{"type":"Feature","id":"temporaere_betriebseinschraenkungen.e0ff8c44-a5c5-4112-96c7-b329c8068d8d","geometry":{"type":"MultiPolygon","coordinates":[[[[11.6395889,48.13305556],[11.63944117,48.13619296],[11.63899855,48.13931799],[11.63826281,48.1424183],[11.63723683,48.14548165],[11.63592466,48.14849597],[11.6343315,48.15144936],[11.63246362,48.15433015],[11.63032839,48.15712698],[11.62793425,48.15982881],[11.62529064,48.16242497],[11.62240799,48.16490524],[11.61929768,48.1672598],[11.61597199,48.16947938],[11.61244404,48.1715552],[11.60872775,48.17347909],[11.60483779,48.17524345],[11.60078952,48.17684131],[11.5965989,48.17826636],[11.59228248,48.17951299],[11.5878573,48.18057627],[11.58334081,48.18145201],[11.57875084,48.18213676],[11.57410551,48.1826278],[11.56942314,48.1829232],[11.56472222,48.1830218],[11.5600213,48.1829232],[11.55533894,48.1826278],[11.55069361,48.18213676],[11.54610364,48.18145201],[11.54158715,48.18057627],[11.53716196,48.17951299],[11.53284554,48.17826636],[11.52865493,48.17684131],[11.52460665,48.17524345],[11.52071669,48.17347909],[11.51700041,48.1715552],[11.51347245,48.16947938],[11.51014676,48.1672598],[11.50703646,48.16490524],[11.50415381,48.16242497],[11.5015102,48.15982881],[11.49911605,48.15712698],[11.49698083,48.15433015],[11.49511295,48.15144936],[11.49351978,48.14849597],[11.49220762,48.14548165],[11.49118164,48.1424183],[11.49044589,48.13931799],[11.49000328,48.13619296],[11.48985554,48.13305556],[11.49000328,48.12991815],[11.49044589,48.12679313],[11.49118164,48.12369282],[11.49220762,48.12062946],[11.49351978,48.11761514],[11.49511295,48.11466176],[11.49698083,48.11178097],[11.49911605,48.10898414],[11.5015102,48.10628231],[11.50415381,48.10368614],[11.50703646,48.10120588],[11.51014676,48.09885131],[11.51347245,48.09663173],[11.51700041,48.09455591],[11.52071669,48.09263202],[11.52460665,48.09086766],[11.52865493,48.08926981],[11.53284554,48.08784475],[11.53716196,48.08659812],[11.54158715,48.08553484],[11.54610364,48.0846591],[11.55069361,48.08397436],[11.55533894,48.08348331],[11.5600213,48.08318791],[11.56472222,48.08308932],[11.56942314,48.08318791],[11.57410551,48.08348331],[11.57875084,48.08397436],[11.58334081,48.0846591],[11.5878573,48.08553484],[11.59228248,48.08659812],[11.5965989,48.08784475],[11.60078952,48.08926981],[11.60483779,48.09086766],[11.60872775,48.09263202],[11.61244404,48.09455591],[11.61597199,48.09663173],[11.61929768,48.09885131],[11.62240799,48.10120588],[11.62529064,48.10368614],[11.62793425,48.10628231],[11.63032839,48.10898414],[11.63246362,48.11178097],[11.6343315,48.11466176],[11.63592466,48.11761514],[11.63723683,48.12062946],[11.63826281,48.12369282],[11.63899855,48.12679313],[11.63944117,48.12991815],[11.6395889,48.13305556]]]]},"geometry_name":"geom","properties":{"external_reference":"e0ff8c44-a5c5-4112-96c7-b329c8068d8d","legal_ref":"§ 17, Abs. 1 LuftVO","start_time":"2026-09-19T06:00:00Z","end_time":"2026-10-04T23:30:00Z","name":"ED-R München","type_code":"U_NFZ","generated_name_de":"ED-R München","generated_name_en":"ED-R München","lower_limit_altitude":0,"lower_limit_unit":"M","lower_limit_alt_ref":"AGL","upper_limit_altitude":3048,"upper_limit_unit":"M","upper_limit_alt_ref":"AGL"}},{"type":"Feature","id":"temporaere_betriebseinschraenkungen.e3bbbdb3-7f73-4a48-b3c8-a7f7631c32c6","geometry":{"type":"MultiPolygon","coordinates":[[[[8.18227183,53.62027778],[8.18216101,53.62236938],[8.18182898,53.62445273],[8.18127707,53.6265196],[8.18050744,53.62856184],[8.17952313,53.63057139],[8.17832803,53.63254031],[8.17692685,53.63446084],[8.17532512,53.63632539],[8.17352917,53.63812661],[8.17154609,53.63985739],[8.16938369,53.6415109],[8.16705051,53.64308061],[8.16455577,53.64456033],[8.1619093,53.64594421],[8.15912155,53.6472268],[8.15620353,53.64840304],[8.15316674,53.64946828],[8.15002318,53.65041831],[8.14678525,53.6512494],[8.14346573,53.65195826],[8.14007771,53.65254208],[8.13663458,53.65299858],[8.13314992,53.65332594],[8.12963747,53.65352287],[8.12611111,53.6535886],[8.12258475,53.65352287],[8.11907231,53.65332594],[8.11558764,53.65299858],[8.11214451,53.65254208],[8.1087565,53.65195826],[8.10543697,53.6512494],[8.10219904,53.65041831],[8.09905548,53.64946828],[8.09601869,53.64840304],[8.09310067,53.6472268],[8.09031292,53.64594421],[8.08766645,53.64456033],[8.08517171,53.64308061],[8.08283854,53.6415109],[8.08067614,53.63985739],[8.07869305,53.63812661],[8.0768971,53.63632539],[8.07529538,53.63446084],[8.0738942,53.63254031],[8.0726991,53.63057139],[8.07171479,53.62856184],[8.07094515,53.6265196],[8.07039324,53.62445273],[8.07006121,53.62236938],[8.06995039,53.62027778],[8.07006121,53.61818617],[8.07039324,53.61610282],[8.07094515,53.61403595],[8.07171479,53.61199371],[8.0726991,53.60998417],[8.0738942,53.60801524],[8.07529538,53.60609472],[8.0768971,53.60423016],[8.07869305,53.60242894],[8.08067614,53.60069817],[8.08283854,53.59904466],[8.08517171,53.59747495],[8.08766645,53.59599523],[8.09031292,53.59461134],[8.09310067,53.59332875],[8.09601869,53.59215252],[8.09905548,53.59108728],[8.10219904,53.59013724],[8.10543697,53.58930615],[8.1087565,53.5885973],[8.11214451,53.58801347],[8.11558764,53.58755698],[8.11907231,53.58722962],[8.12258475,53.58703268],[8.12611111,53.58696695],[8.12963747,53.58703268],[8.13314992,53.58722962],[8.13663458,53.58755698],[8.14007771,53.58801347],[8.14346573,53.5885973],[8.14678525,53.58930615],[8.15002318,53.59013724],[8.15316674,53.59108728],[8.15620353,53.59215252],[8.15912155,53.59332875],[8.1619093,53.59461134],[8.16455577,53.59599523],[8.16705051,53.59747495],[8.16938369,53.59904466],[8.17154609,53.60069817],[8.17352917,53.60242894],[8.17532512,53.60423016],[8.17692685,53.60609472],[8.17832803,53.60801524],[8.17952313,53.60998417],[8.18050744,53.61199371],[8.18127707,53.61403595],[8.18182898,53.61610282],[8.18216101,53.61818617],[8.18227183,53.62027778]]]]},"geometry_name":"geom","properties":{"external_reference":"e3bbbdb3-7f73-4a48-b3c8-a7f7631c32c6","legal_ref":"§ 17, Abs. 1 LuftVO","start_time":"2026-04-10T15:40:00Z","end_time":"2027-03-18T00:00:00Z","name":"ED-R Wilhelmshaven","type_code":"U_NFZ","generated_name_de":"ED-R Wilhelmshaven","generated_name_en":"ED-R Wilhelmshaven","lower_limit_altitude":0,"lower_limit_unit":"M","lower_limit_alt_ref":"AGL","upper_limit_altitude":762,"upper_limit_unit":"M","upper_limit_alt_ref":"AGL"}},{"type":"Feature","id":"temporaere_betriebseinschraenkungen.ef512a16-f23f-4750-989e-a561655a5434","geometry":{"type":"MultiPolygon","coordinates":[[[[12.1391319,47.85994],[12.13910741,47.8604629],[12.13903403,47.86098374],[12.13891205,47.86150046],[12.13874196,47.86201102],[12.13852442,47.8625134],[12.13826029,47.86300563],[12.13795062,47.86348577],[12.13759663,47.8639519],[12.13719972,47.86440221],[12.13676144,47.8648349],[12.13628354,47.86524828],[12.13576789,47.86564071],[12.13521653,47.86601064],[12.13463164,47.86635661],[12.13401553,47.86667726],[12.13337063,47.86697132],[12.13269948,47.86723762],[12.13200473,47.86747513],[12.13128913,47.86768291],[12.13055549,47.86786012],[12.12980671,47.86800608],[12.12904576,47.8681202],[12.12827562,47.86820204],[12.12749935,47.86825127],[12.12672,47.86826771],[12.12594065,47.86825127],[12.12516438,47.86820204],[12.12439424,47.8681202],[12.12363329,47.86800608],[12.12288451,47.86786012],[12.12215087,47.86768291],[12.12143527,47.86747513],[12.12074052,47.86723762],[12.12006937,47.86697132],[12.11942447,47.86667726],[12.11880836,47.86635661],[12.11822347,47.86601064],[12.11767211,47.86564071],[12.11715646,47.86524828],[12.11667856,47.8648349],[12.11624028,47.86440221],[12.11584337,47.8639519],[12.11548938,47.86348577],[12.11517971,47.86300563],[12.11491558,47.8625134],[12.11469804,47.86201102],[12.11452795,47.86150046],[12.11440597,47.86098374],[12.11433259,47.8604629],[12.1143081,47.85994],[12.11433259,47.8594171],[12.11440597,47.85889626],[12.11452795,47.85837954],[12.11469804,47.85786898],[12.11491558,47.8573666],[12.11517971,47.85687437],[12.11548938,47.85639423],[12.11584337,47.8559281],[12.11624028,47.85547779],[12.11667856,47.8550451],[12.11715646,47.85463172],[12.11767211,47.85423929],[12.11822347,47.85386936],[12.11880836,47.85352339],[12.11942447,47.85320274],[12.12006937,47.85290868],[12.12074052,47.85264238],[12.12143527,47.85240487],[12.12215087,47.85219709],[12.12288451,47.85201988],[12.12363329,47.85187392],[12.12439424,47.8517598],[12.12516438,47.85167796],[12.12594065,47.85162873],[12.12672,47.85161229],[12.12749935,47.85162873],[12.12827562,47.85167796],[12.12904576,47.8517598],[12.12980671,47.85187392],[12.13055549,47.85201988],[12.13128913,47.85219709],[12.13200473,47.85240487],[12.13269948,47.85264238],[12.13337063,47.85290868],[12.13401553,47.85320274],[12.13463164,47.85352339],[12.13521653,47.85386936],[12.13576789,47.85423929],[12.13628354,47.85463172],[12.13676144,47.8550451],[12.13719972,47.85547779],[12.13759663,47.8559281],[12.13795062,47.85639423],[12.13826029,47.85687437],[12.13852442,47.8573666],[12.13874196,47.85786898],[12.13891205,47.85837954],[12.13903403,47.85889626],[12.13910741,47.8594171],[12.1391319,47.85994]]]]},"geometry_name":"geom","properties":{"external_reference":"ef512a16-f23f-4750-989e-a561655a5434","legal_ref":"§ 21h, Abs. 3 (11.) LuftVO","start_time":"2026-08-29T04:00:00Z","end_time":"2026-09-14T04:00:00Z","name":"Polizeieinsatz Rosenheim","type_code":"U_NFZ","generated_name_de":"Polizeieinsatz Rosenheim","generated_name_en":"Polizeieinsatz Rosenheim","lower_limit_altitude":0,"lower_limit_unit":"M","lower_limit_alt_ref":"AGL","upper_limit_altitude":120,"upper_limit_unit":"M","upper_limit_alt_ref":"AGL"}},{"type":"Feature","id":"temporaere_betriebseinschraenkungen.fe1f01da-ffc2-4337-a4f5-3fc04b814cd3","geometry":{"type":"MultiPolygon","coordinates":[[[[13.09893871,54.3677778],[13.09891614,54.36819623],[13.09884851,54.36861302],[13.0987361,54.3690265],[13.09857934,54.36943506],[13.09837886,54.36983708],[13.09813544,54.37023097],[13.09785005,54.37061518],[13.09752382,54.37098819],[13.09715802,54.37134853],[13.09675411,54.37169478],[13.09631368,54.37202557],[13.09583846,54.3723396],[13.09533033,54.37263562],[13.09479131,54.37291247],[13.0942235,54.37316906],[13.09362917,54.37340437],[13.09301064,54.37361748],[13.09237036,54.37380753],[13.09171087,54.3739738],[13.09103476,54.37411561],[13.09034469,54.3742324],[13.0896434,54.37432373],[13.08893365,54.37438922],[13.08821824,54.37442861],[13.0875,54.37444176],[13.08678176,54.37442861],[13.08606635,54.37438922],[13.0853566,54.37432373],[13.08465531,54.3742324],[13.08396524,54.37411561],[13.08328913,54.3739738],[13.08262964,54.37380753],[13.08198936,54.37361748],[13.08137083,54.37340437],[13.0807765,54.37316906],[13.08020869,54.37291247],[13.07966967,54.37263562],[13.07916154,54.3723396],[13.07868632,54.37202557],[13.07824589,54.37169478],[13.07784198,54.37134853],[13.07747618,54.37098819],[13.07714995,54.37061518],[13.07686456,54.37023097],[13.07662114,54.36983708],[13.07642066,54.36943506],[13.0762639,54.3690265],[13.07615149,54.36861302],[13.07608386,54.36819623],[13.07606129,54.3677778],[13.07608386,54.36735937],[13.07615149,54.36694258],[13.0762639,54.3665291],[13.07642066,54.36612054],[13.07662114,54.36571852],[13.07686456,54.36532463],[13.07714995,54.36494042],[13.07747618,54.36456741],[13.07784198,54.36420707],[13.07824589,54.36386082],[13.07868632,54.36353003],[13.07916154,54.363216],[13.07966967,54.36291998],[13.08020869,54.36264313],[13.0807765,54.36238654],[13.08137083,54.36215123],[13.08198936,54.36193812],[13.08262964,54.36174807],[13.08328913,54.3615818],[13.08396524,54.36143999],[13.08465531,54.3613232],[13.0853566,54.36123187],[13.08606635,54.36116638],[13.08678176,54.36112699],[13.0875,54.36111384],[13.08821824,54.36112699],[13.08893365,54.36116638],[13.0896434,54.36123187],[13.09034469,54.3613232],[13.09103476,54.36143999],[13.09171087,54.3615818],[13.09237036,54.36174807],[13.09301064,54.36193812],[13.09362917,54.36215123],[13.0942235,54.36238654],[13.09479131,54.36264313],[13.09533033,54.36291998],[13.09583846,54.363216],[13.09631368,54.36353003],[13.09675411,54.36386082],[13.09715802,54.36420707],[13.09752382,54.36456741],[13.09785005,54.36494042],[13.09813544,54.36532463],[13.09837886,54.36571852],[13.09857934,54.36612054],[13.0987361,54.3665291],[13.09884851,54.36694258],[13.09891614,54.36735937],[13.09893871,54.3677778]]]]},"geometry_name":"geom","properties":{"external_reference":"fe1f01da-ffc2-4337-a4f5-3fc04b814cd3","legal_ref":"§ 17, Abs. 1 LuftVO","start_time":"2026-05-01T06:00:00Z","end_time":"2026-12-31T16:00:00Z","name":"ED-R Parow","type_code":"U_NFZ","generated_name_de":"ED-R Parow","generated_name_en":"ED-R Parow","lower_limit_altitude":0,"lower_limit_unit":"M","lower_limit_alt_ref":"AGL","upper_limit_altitude":2500.00008,"upper_limit_unit":"FT","upper_limit_alt_ref":"MSL"}}],"totalFeatures":30,"numberMatched":30,"numberReturned":30,"timeStamp":"2026-09-01T10:30:10.719Z","crs":{"type":"name","properties":{"name":"urn:ogc:def:crs:EPSG::4326"}}}