{"type":"FeatureCollection", "features": [
{"type":"Feature","geometry":{"type":"Polygon","coordinates":[[[7.33068,46.22073],[7.33084,46.21998],[7.34142,46.22108],[7.34543,46.22177],[7.34919,46.22204],[7.35974,46.2235],[7.35952,46.22423],[7.34896,46.22278],[7.34502,46.22196],[7.34126,46.22182],[7.33068,46.22073]]]},"properties":{"_zoneType":"SICHERHEIT_CH"}},
{"type":"Feature","geometry":{"type":"Polygon","coordinates":[[[8.60758,47.40688],[8.60724,47.406],[8.60623,47.40574],[8.60617,47.40457],[8.60275,47.40432],[8.60209,47.40395],[8.59895,47.40606],[8.59749,47.4064],[8.59583,47.40633],[8.59363,47.40242],[8.59603,47.4018],[8.59451,47.39946],[8.59703,47.39873],[8.59613,47.39737],[8.59624,47.39664],[8.59437,47.39736],[8.59344,47.39627],[8.59199,47.39705],[8.59112,47.39728],[8.58694,47.40081],[8.58393,47.40323],[8.57647,47.40939],[8.5727,47.41269],[8.57091,47.41463],[8.56922,47.41676],[8.56731,47.41979],[8.56439,47.42653],[8.56398,47.42641],[8.55885,47.4369],[8.5524,47.44385],[8.55152,47.44345],[8.55083,47.44403],[8.56062,47.42947],[8.57066,47.40655],[8.60966,47.31738],[8.66726,47.3356],[8.63895,47.36445],[8.67826,47.33894],[8.6947,47.35061],[8.60758,47.40688]]]},"properties":{"_zoneType":"SICHERHEIT_CH"}},
{"type":"Feature","geometry":{"type":"Polygon","coordinates":[[[8.92724,46.03038],[8.92706,46.03112],[8.92052,46.0327],[8.91991,46.0309],[8.91967,46.03096],[8.91542,46.0181],[8.90979,46.00952],[8.9046,45.99976],[8.90237,45.99305],[8.90112,45.98923],[8.89974,45.98711],[8.9046,45.98709],[8.90509,45.98837],[8.90876,45.99402],[8.91143,45.99813],[8.9159,46.00807],[8.91898,46.01731],[8.92679,46.02925],[8.92724,46.03038]]]},"properties":{"_zoneType":"SICHERHEIT_CH"}},
{"type":"Feature","geometry":{"type":"Polygon","coordinates":[[[8.25637,47.46215],[8.25347,47.46219],[8.25293,47.46199],[8.25192,47.46217],[8.25251,47.4627],[8.25416,47.46329],[8.25083,47.46467],[8.24909,47.46526],[8.24548,47.46625],[8.24173,47.46696],[8.23788,47.4674],[8.23594,47.46751],[8.23204,47.46752],[8.22817,47.46724],[8.22436,47.46667],[8.2225,47.46628],[8.21888,47.46531],[8.21543,47.46407],[8.21221,47.46258],[8.21069,47.46175],[8.20787,47.45993],[8.20535,47.45791],[8.20422,47.45684],[8.20222,47.45457],[8.20136,47.45338],[8.19994,47.45093],[8.19891,47.44838],[8.1983,47.44577],[8.19811,47.44313],[8.19835,47.44049],[8.199,47.43788],[8.20007,47.43534],[8.20154,47.4329],[8.20242,47.43172],[8.20446,47.42946],[8.20684,47.42738],[8.2088,47.42598],[8.21071,47.42565],[8.21322,47.42509],[8.2146,47.4252],[8.21466,47.4256],[8.21541,47.42582],[8.21646,47.42551],[8.21622,47.42365],[8.21687,47.42194],[8.21925,47.42111],[8.22104,47.4206],[8.22475,47.41979],[8.22856,47.41925],[8.23244,47.419],[8.23633,47.41904],[8.24019,47.41936],[8.24398,47.41996],[8.24766,47.42084],[8.24943,47.42138],[8.25284,47.42266],[8.25603,47.42418],[8.25896,47.42592],[8.26031,47.42687],[8.26278,47.42891],[8.26389,47.43],[8.26583,47.43229],[8.26667,47.43348],[8.26804,47.43596],[8.26901,47.43852],[8.26956,47.44113],[8.2697,47.44301],[8.26953,47.44565],[8.26929,47.44696],[8.26849,47.44955],[8.26728,47.45206],[8.26567,47.45447],[8.26472,47.45563],[8.26256,47.45782],[8.26135,47.45886],[8.25869,47.46079],[8.25637,47.46215]],[[8.21831,47.43982],[8.21831,47.44077],[8.21777,47.44292],[8.21949,47.444],[8.22054,47.44353],[8.22939,47.44551],[8.23822,47.44643],[8.24989,47.44659],[8.2506,47.44375],[8.23952,47.44128],[8.23073,47.44017],[8.22575,47.4401],[8.22459,47.43996],[8.22381,47.43965],[8.22284,47.4387],[8.21971,47.43814],[8.21975,47.43895],[8.22024,47.44014],[8.21831,47.43982]],[[8.21968,47.4281],[8.21996,47.4266],[8.21685,47.42612],[8.2144,47.42737],[8.2128,47.42834],[8.21013,47.43032],[8.20843,47.4319],[8.2074,47.43304],[8.20617,47.43467],[8.20554,47.43568],[8.20461,47.43753],[8.20406,47.43904],[8.21271,47.44061],[8.21565,47.44041],[8.21737,47.44048],[8.21968,47.4281]],[[8.21722,47.45724],[8.21666,47.45743],[8.21726,47.45863],[8.2186,47.45949],[8.21894,47.46002],[8.21883,47.46074],[8.21827,47.46116],[8.21804,47.4619],[8.21713,47.4625],[8.21908,47.4631],[8.22202,47.46414],[8.22407,47.46445],[8.22456,47.46367],[8.22401,47.46315],[8.2243,47.46244],[8.22371,47.46203],[8.22332,47.46112],[8.22254,47.46072],[8.22223,47.46001],[8.22447,47.45902],[8.22441,47.45854],[8.22552,47.45776],[8.22661,47.4576],[8.22788,47.45676],[8.23236,47.45546],[8.23431,47.45513],[8.23519,47.45482],[8.23353,47.4538],[8.23276,47.45354],[8.22819,47.45329],[8.22568,47.45338],[8.22422,47.45354],[8.22309,47.45411],[8.22008,47.45435],[8.21782,47.45474],[8.21716,47.45499],[8.21733,47.45551],[8.21794,47.45605],[8.2175,47.45644],[8.21841,47.45685],[8.21803,47.45717],[8.21722,47.45724]],[[8.23908,47.42564],[8.2394,47.42616],[8.23997,47.42624],[8.24148,47.42772],[8.24184,47.42742],[8.24201,47.42618],[8.24124,47.42535],[8.24025,47.42495],[8.23908,47.42564]]]},"properties":{"_zoneType":"SICHERHEIT_CH"}},
{"type":"Feature","geometry":{"type":"Polygon","coordinates":[[[8.2088,47.42598],[8.21077,47.42475],[8.2129,47.42361],[8.21574,47.42235],[8.21687,47.42194],[8.21622,47.42365],[8.21646,47.42551],[8.21541,47.42582],[8.21466,47.4256],[8.2146,47.4252],[8.21322,47.42509],[8.21071,47.42565],[8.2088,47.42598]]]},"properties":{"_zoneType":"SICHERHEIT_CH"}},
{"type":"Feature","geometry":{"type":"Polygon","coordinates":[[[6.61504,46.52102],[6.61361,46.52109],[6.61319,46.51682],[6.61462,46.51676],[6.61504,46.52102]]]},"properties":{"_zoneType":"SICHERHEIT_CH"}},
{"type":"Feature","geometry":{"type":"MultiPolygon","coordinates":[[[[7.55918,47.55225],[7.55864,47.55204],[7.55616,47.55112],[7.55283,47.55024],[7.5506,47.54977],[7.55091,47.55081],[7.54094,47.54676],[7.53056,47.54321],[7.51989,47.54007],[7.51496,47.53881],[7.50995,47.53772],[7.50496,47.53871],[7.49931,47.54015],[7.4995,47.53927],[7.49804,47.53616],[7.49966,47.53504],[7.50144,47.53218],[7.50053,47.53014],[7.50102,47.52906],[7.5023,47.52841],[7.5051,47.52903],[7.50768,47.52812],[7.50821,47.52817],[7.51076,47.529],[7.51267,47.53048],[7.51274,47.5308],[7.5143,47.53137],[7.5158,47.53295],[7.51773,47.53406],[7.51936,47.53472],[7.52115,47.53387],[7.5244,47.53187],[7.52563,47.53221],[7.52678,47.53288],[7.52798,47.53177],[7.52976,47.53068],[7.53096,47.52905],[7.5311,47.52859],[7.53324,47.52976],[7.53571,47.5313],[7.53803,47.53294],[7.54019,47.53467],[7.54237,47.53668],[7.54392,47.53828],[7.54553,47.54019],[7.54697,47.54216],[7.54837,47.54446],[7.55123,47.53798],[7.55527,47.52882],[7.55589,47.52863],[7.56168,47.53048],[7.56286,47.52877],[7.56336,47.52934],[7.5658,47.52905],[7.56965,47.5287],[7.57638,47.52848],[7.57864,47.5292],[7.5802,47.52917],[7.57611,47.53507],[7.58237,47.53706],[7.57555,47.54398],[7.57112,47.54474],[7.56469,47.54569],[7.56302,47.54531],[7.55755,47.54441],[7.55589,47.54434],[7.55864,47.55204],[7.55918,47.55225]]],[[[7.55918,47.55225],[7.56125,47.55173],[7.56239,47.55374],[7.55918,47.55225]]]]},"properties":{"_zoneType":"SICHERHEIT_CH"}},
{"type":"Feature","geometry":{"type":"Polygon","coordinates":[[[7.08666,46.75699],[7.06798,46.75805],[7.06769,46.7534],[7.08627,46.75234],[7.08666,46.75699]]]},"properties":{"_zoneType":"SICHERHEIT_CH"}},
{"type":"Feature","geometry":{"type":"Polygon","coordinates":[[[6.83144,47.08982],[6.82994,47.09505],[6.81215,47.0917],[6.82794,47.09797],[6.82337,47.1023],[6.8117,47.09517],[6.79677,47.08918],[6.78528,47.08314],[6.77411,47.0764],[6.75837,47.07018],[6.76228,47.06647],[6.76219,47.06641],[6.7681,47.06293],[6.77583,47.07058],[6.7814,47.07597],[6.78954,47.07925],[6.80148,47.0847],[6.8081,47.08874],[6.81446,47.08912],[6.82093,47.08934],[6.83144,47.08982]]]},"properties":{"_zoneType":"SICHERHEIT_CH"}},
{"type":"Feature","geometry":{"type":"Polygon","coordinates":[[[7.28439,46.21311],[7.2761,46.21194],[7.27248,46.21131],[7.26898,46.21044],[7.26501,46.20916],[7.27107,46.20254],[7.27357,46.20371],[7.27618,46.20472],[7.27895,46.20562],[7.2867,46.20788],[7.31535,46.21314],[7.34155,46.21887],[7.36822,46.22537],[7.37806,46.22674],[7.38045,46.22713],[7.38282,46.22762],[7.39643,46.23121],[7.39053,46.23938],[7.38028,46.23488],[7.37867,46.23424],[7.37545,46.23317],[7.36601,46.23042],[7.33866,46.22541],[7.31234,46.21993],[7.28439,46.21311]]]},"properties":{"_zoneType":"SICHERHEIT_CH"}},
{"type":"Feature","geometry":{"type":"Polygon","coordinates":[[[8.5149,47.52767],[8.50581,47.54825],[8.49292,47.54894],[8.49133,47.54973],[8.49048,47.55087],[8.48782,47.55157],[8.48616,47.55228],[8.48459,47.55228],[8.47863,47.55526],[8.47807,47.55496],[8.47467,47.55595],[8.47268,47.55632],[8.47239,47.55673],[8.47316,47.55755],[8.47118,47.55985],[8.46925,47.55958],[8.46767,47.55916],[8.4672,47.55825],[8.46575,47.55816],[8.46513,47.55725],[8.46515,47.55675],[8.46337,47.55664],[8.4611,47.55682],[8.46031,47.55574],[8.45766,47.5572],[8.45663,47.55812],[8.45581,47.55816],[8.45439,47.55742],[8.45574,47.55715],[8.45662,47.55647],[8.45571,47.55563],[8.45535,47.55487],[8.45567,47.55382],[8.45617,47.55348],[8.45649,47.55229],[8.45586,47.55201],[8.45574,47.55071],[8.45523,47.5501],[8.45448,47.55006],[8.45553,47.54907],[8.45429,47.54808],[8.45241,47.5489],[8.45172,47.54794],[8.45298,47.54734],[8.45163,47.54596],[8.45088,47.5449],[8.4498,47.54437],[8.44895,47.54432],[8.44724,47.54478],[8.44718,47.54438],[8.44923,47.54345],[8.44991,47.54342],[8.44922,47.54257],[8.44791,47.54193],[8.44537,47.54126],[8.44591,47.54055],[8.44555,47.54003],[8.44612,47.53869],[8.44484,47.53814],[8.44333,47.53898],[8.44184,47.53913],[8.44146,47.53898],[8.44052,47.53803],[8.43999,47.53644],[8.44532,47.53486],[8.44349,47.53428],[8.443,47.53361],[8.44418,47.5323],[8.44477,47.53197],[8.44521,47.53117],[8.44612,47.53071],[8.44638,47.52994],[8.44706,47.52899],[8.44975,47.52721],[8.4771,47.51241],[8.5133,47.49279],[8.52098,47.48729],[8.53769,47.4624],[8.51826,47.46281],[8.4932,47.46654],[8.48954,47.46677],[8.48651,47.46677],[8.4632,47.46539],[8.45894,47.46513],[8.4578,47.46506],[8.44915,47.46453],[8.4192,47.46017],[8.41858,47.45787],[8.41757,47.45785],[8.4162,47.45838],[8.41462,47.45478],[8.41733,47.45463],[8.41813,47.45233],[8.41939,47.45211],[8.41581,47.4499],[8.41971,47.45042],[8.41968,47.44975],[8.44038,47.44874],[8.44115,47.44705],[8.45361,47.44872],[8.46475,47.45145],[8.46766,47.45216],[8.48853,47.45711],[8.49302,47.45775],[8.51762,47.45815],[8.54325,47.45512],[8.54694,47.4498],[8.54584,47.44767],[8.54773,47.44613],[8.54824,47.44622],[8.55083,47.44403],[8.55152,47.44345],[8.5524,47.44385],[8.55885,47.4369],[8.56398,47.42641],[8.56439,47.42653],[8.56731,47.41979],[8.56922,47.41676],[8.57091,47.41463],[8.5727,47.41269],[8.57647,47.40939],[8.58393,47.40323],[8.58694,47.40081],[8.59112,47.39728],[8.59199,47.39705],[8.59344,47.39627],[8.59437,47.39736],[8.59624,47.39664],[8.59613,47.39737],[8.59703,47.39873],[8.59451,47.39946],[8.59603,47.4018],[8.59363,47.40242],[8.59583,47.40633],[8.59749,47.4064],[8.59895,47.40606],[8.60209,47.40395],[8.60275,47.40432],[8.60617,47.40457],[8.60623,47.40574],[8.60724,47.406],[8.60758,47.40688],[8.60591,47.40767],[8.5932,47.41402],[8.58783,47.4167],[8.58397,47.41868],[8.57999,47.42139],[8.57541,47.42612],[8.57287,47.42912],[8.57337,47.42932],[8.56511,47.43893],[8.55755,47.454],[8.57101,47.45357],[8.57525,47.45361],[8.58141,47.45344],[8.58564,47.45333],[8.58836,47.45299],[8.59095,47.4524],[8.59501,47.45107],[8.59738,47.45008],[8.59929,47.44897],[8.61923,47.43536],[8.62764,47.42962],[8.6299,47.43072],[8.63113,47.43062],[8.63136,47.4301],[8.63148,47.42877],[8.63187,47.42838],[8.63284,47.42851],[8.63415,47.42907],[8.63468,47.42893],[8.63458,47.42734],[8.63624,47.42759],[8.63694,47.42673],[8.63962,47.42667],[8.64255,47.426],[8.64298,47.42544],[8.64457,47.42504],[8.64689,47.42469],[8.64859,47.42352],[8.65128,47.42213],[8.65252,47.42121],[8.65382,47.42102],[8.65408,47.42144],[8.65527,47.42189],[8.65633,47.42173],[8.65612,47.42096],[8.65807,47.42041],[8.66095,47.42197],[8.65592,47.42446],[8.65495,47.4268],[8.65624,47.42731],[8.65959,47.42976],[8.65835,47.43146],[8.65909,47.43193],[8.65172,47.43584],[8.62548,47.4467],[8.61061,47.4528],[8.61108,47.4571],[8.59606,47.45702],[8.59447,47.45727],[8.59027,47.4576],[8.5877,47.45769],[8.56944,47.45963],[8.56705,47.46199],[8.56902,47.46346],[8.55566,47.47423],[8.53992,47.4849],[8.53262,47.49043],[8.52904,47.49565],[8.5149,47.52767]],[[8.5527,47.46111],[8.54948,47.46596],[8.55703,47.46072],[8.5527,47.46111]]]},"properties":{"_zoneType":"SICHERHEIT_CH"}},
{"type":"Feature","geometry":{"type":"Polygon","coordinates":[[[8.61923,47.43536],[8.59929,47.44897],[8.59738,47.45008],[8.59501,47.45107],[8.59095,47.4524],[8.58836,47.45299],[8.58564,47.45333],[8.58141,47.45344],[8.58612,47.44982],[8.57489,47.44986],[8.57101,47.45357],[8.55755,47.454],[8.57261,47.43247],[8.58783,47.4167],[8.5932,47.41402],[8.59929,47.41718],[8.60315,47.41953],[8.60775,47.42292],[8.61047,47.42518],[8.61362,47.42791],[8.61764,47.43248],[8.61923,47.43536]]]},"properties":{"_zoneType":"SICHERHEIT_CH"}},
{"type":"Feature","geometry":{"type":"Polygon","coordinates":[[[8.4771,47.51241],[8.47283,47.50912],[8.46878,47.50521],[8.46549,47.50137],[8.46614,47.50064],[8.4656,47.50043],[8.46681,47.49711],[8.46604,47.49669],[8.46629,47.49606],[8.46581,47.49542],[8.46669,47.4943],[8.46913,47.49422],[8.46903,47.49391],[8.47323,47.49177],[8.4763,47.49377],[8.47774,47.49351],[8.47613,47.49253],[8.47564,47.49157],[8.47548,47.48819],[8.47495,47.48674],[8.47461,47.48633],[8.4715,47.48101],[8.47007,47.47938],[8.46994,47.4776],[8.47068,47.47631],[8.47142,47.47417],[8.47145,47.47217],[8.4707,47.47167],[8.46732,47.47059],[8.46729,47.47027],[8.4664,47.46991],[8.46641,47.46883],[8.46478,47.46806],[8.46396,47.46692],[8.46421,47.4665],[8.4632,47.46539],[8.48651,47.46677],[8.48954,47.46677],[8.4932,47.46654],[8.51826,47.46281],[8.53769,47.4624],[8.52098,47.48729],[8.5133,47.49279],[8.4771,47.51241]]]},"properties":{"_zoneType":"SICHERHEIT_CH"}},
{"type":"Feature","geometry":{"type":"Polygon","coordinates":[[[8.46475,47.45145],[8.46881,47.4451],[8.47632,47.43384],[8.48075,47.4286],[8.48704,47.42295],[8.49183,47.41955],[8.49807,47.41578],[8.50867,47.41086],[8.5214,47.40706],[8.53211,47.40513],[8.53975,47.40438],[8.54704,47.40412],[8.55901,47.40474],[8.56763,47.40589],[8.57066,47.40655],[8.56062,47.42947],[8.55083,47.44403],[8.54824,47.44622],[8.54773,47.44613],[8.54584,47.44767],[8.54694,47.4498],[8.54325,47.45512],[8.51762,47.45815],[8.49302,47.45775],[8.48853,47.45711],[8.46766,47.45216],[8.46475,47.45145]]]},"properties":{"_zoneType":"SICHERHEIT_CH"}},
{"type":"Feature","geometry":{"type":"Polygon","coordinates":[[[8.62548,47.4467],[8.6277,47.45219],[8.62984,47.45781],[8.63138,47.46329],[8.63181,47.46801],[8.63183,47.47358],[8.63102,47.47894],[8.62923,47.48394],[8.62696,47.48938],[8.62427,47.49332],[8.62184,47.49652],[8.61892,47.49979],[8.61577,47.5027],[8.6123,47.50565],[8.60838,47.50842],[8.605,47.51049],[8.59999,47.51327],[8.59541,47.51542],[8.59034,47.51753],[8.58542,47.51924],[8.58001,47.52099],[8.57201,47.5238],[8.56574,47.52578],[8.55987,47.52713],[8.55489,47.52805],[8.54805,47.52901],[8.54157,47.5295],[8.53337,47.52965],[8.52802,47.52939],[8.52256,47.52892],[8.51527,47.52782],[8.5149,47.52767],[8.52904,47.49565],[8.53262,47.49043],[8.53992,47.4849],[8.55566,47.47423],[8.56902,47.46346],[8.56705,47.46199],[8.56944,47.45963],[8.5877,47.45769],[8.59027,47.4576],[8.59447,47.45727],[8.59606,47.45702],[8.61108,47.4571],[8.61061,47.4528],[8.62548,47.4467]]]},"properties":{"_zoneType":"SICHERHEIT_CH"}},
{"type":"Feature","geometry":{"type":"Polygon","coordinates":[[[8.45894,47.46513],[8.45874,47.46603],[8.45822,47.46684],[8.45736,47.46663],[8.4578,47.46506],[8.45894,47.46513]]]},"properties":{"_zoneType":"SICHERHEIT_CH"}},
{"type":"Feature","geometry":{"type":"Polygon","coordinates":[[[8.57101,47.45357],[8.57489,47.44986],[8.58612,47.44982],[8.58141,47.45344],[8.57525,47.45361],[8.57101,47.45357]]]},"properties":{"_zoneType":"SICHERHEIT_CH"}},
{"type":"Feature","geometry":{"type":"Polygon","coordinates":[[[8.55755,47.454],[8.56511,47.43893],[8.57337,47.42932],[8.57287,47.42912],[8.57541,47.42612],[8.57999,47.42139],[8.58397,47.41868],[8.58783,47.4167],[8.57261,47.43247],[8.55755,47.454]]]},"properties":{"_zoneType":"SICHERHEIT_CH"}},
{"type":"Feature","geometry":{"type":"Polygon","coordinates":[[[8.5527,47.46111],[8.55703,47.46072],[8.54948,47.46596],[8.5527,47.46111]]]},"properties":{"_zoneType":"SICHERHEIT_CH"}},
{"type":"Feature","geometry":{"type":"Polygon","coordinates":[[[6.04469,46.20463],[6.04648,46.20333],[6.04592,46.20289],[6.0571,46.19508],[6.05765,46.19545],[6.05939,46.19411],[6.08079,46.21366],[6.09762,46.22543],[6.11003,46.23297],[6.11083,46.23353],[6.13199,46.2476],[6.15463,46.26272],[6.17123,46.27147],[6.16987,46.2725],[6.15936,46.27993],[6.1579,46.28091],[6.14533,46.26931],[6.12311,46.25388],[6.12234,46.25336],[6.12345,46.25271],[6.12446,46.25255],[6.12385,46.25183],[6.12448,46.25125],[6.12246,46.24985],[6.12033,46.24849],[6.12081,46.24804],[6.10883,46.23988],[6.10687,46.24121],[6.10143,46.23764],[6.10023,46.23838],[6.09707,46.23613],[6.09317,46.2325],[6.09049,46.23047],[6.07335,46.21895],[6.04469,46.20463]]]},"properties":{"_zoneType":"SICHERHEIT_CH"}},
{"type":"Feature","geometry":{"type":"Polygon","coordinates":[[[7.55123,47.53798],[7.54837,47.54446],[7.54697,47.54216],[7.54553,47.54019],[7.54392,47.53828],[7.54237,47.53668],[7.54683,47.53725],[7.55123,47.53798]]]},"properties":{"_zoneType":"SICHERHEIT_CH"}},
{"type":"Feature","geometry":{"type":"Polygon","coordinates":[[[7.49931,47.54015],[7.50496,47.53871],[7.50995,47.53772],[7.51496,47.53881],[7.51989,47.54007],[7.53056,47.54321],[7.54094,47.54676],[7.55091,47.55081],[7.5506,47.54977],[7.55283,47.55024],[7.55616,47.55112],[7.55864,47.55204],[7.55918,47.55225],[7.56239,47.55374],[7.56306,47.55493],[7.56459,47.55704],[7.56457,47.55722],[7.56159,47.55919],[7.55988,47.56054],[7.55873,47.56196],[7.55793,47.56263],[7.55466,47.56437],[7.5497,47.56242],[7.54686,47.5615],[7.54336,47.55931],[7.54037,47.55728],[7.53949,47.558],[7.53653,47.55546],[7.53071,47.5542],[7.52732,47.55278],[7.5248,47.55148],[7.52543,47.55092],[7.52191,47.54893],[7.52227,47.54871],[7.51886,47.54634],[7.51676,47.54541],[7.51401,47.54505],[7.51098,47.54451],[7.50935,47.54584],[7.50909,47.54533],[7.50791,47.54489],[7.50604,47.54464],[7.50433,47.54356],[7.50427,47.54303],[7.50264,47.54187],[7.50111,47.54111],[7.50032,47.54027],[7.49931,47.54015]]]},"properties":{"_zoneType":"SICHERHEIT_CH"}},
{"type":"Feature","geometry":{"type":"Polygon","coordinates":[[[7.57436,47.54519],[7.57838,47.54715],[7.58222,47.54927],[7.58585,47.55155],[7.58927,47.55397],[7.59246,47.55654],[7.59541,47.55923],[7.59811,47.56204],[7.60054,47.56496],[7.6027,47.56798],[7.60458,47.57108],[7.60617,47.57426],[7.60765,47.57809],[7.60489,47.57788],[7.60534,47.57989],[7.60477,47.58041],[7.6047,47.58118],[7.60406,47.58134],[7.60459,47.58282],[7.60482,47.58494],[7.59847,47.58764],[7.59317,47.58898],[7.58905,47.5899],[7.58825,47.58852],[7.58697,47.58655],[7.58573,47.58409],[7.58474,47.58086],[7.5844,47.57858],[7.58466,47.57552],[7.57886,47.57667],[7.5764,47.57645],[7.57525,47.57614],[7.57162,47.57711],[7.56649,47.57767],[7.56544,47.57622],[7.5569,47.57247],[7.55646,47.57139],[7.55934,47.56939],[7.55827,47.56725],[7.5573,47.56503],[7.55466,47.56437],[7.55793,47.56263],[7.55873,47.56196],[7.55988,47.56054],[7.56159,47.55919],[7.56457,47.55722],[7.56459,47.55704],[7.56306,47.55493],[7.56239,47.55374],[7.56295,47.55403],[7.5644,47.55193],[7.56653,47.55315],[7.57436,47.54519]]]},"properties":{"_zoneType":"SICHERHEIT_CH"}},
{"type":"Feature","geometry":{"type":"Polygon","coordinates":[[[7.56239,47.55374],[7.56125,47.55173],[7.55918,47.55225],[7.55864,47.55204],[7.55589,47.54434],[7.55755,47.54441],[7.56302,47.54531],[7.56469,47.54569],[7.57112,47.54474],[7.57555,47.54398],[7.57436,47.54519],[7.56653,47.55315],[7.5644,47.55193],[7.56295,47.55403],[7.56239,47.55374]]]},"properties":{"_zoneType":"SICHERHEIT_CH"}},
{"type":"Feature","geometry":{"type":"Polygon","coordinates":[[[7.39417,47.17273],[7.39346,47.17245],[7.395,47.17081],[7.39712,47.16907],[7.39954,47.16752],[7.40223,47.16619],[7.40514,47.16511],[7.40823,47.16428],[7.41145,47.16372],[7.41411,47.16349],[7.41441,47.16365],[7.41555,47.16501],[7.41744,47.17],[7.41865,47.1713],[7.42058,47.17207],[7.42331,47.17265],[7.42581,47.17286],[7.42775,47.1734],[7.42958,47.17422],[7.43074,47.17507],[7.43168,47.17658],[7.43147,47.1785],[7.43092,47.18115],[7.43105,47.18285],[7.43177,47.18376],[7.42188,47.17924],[7.41442,47.17693],[7.40305,47.17488],[7.3949,47.17166],[7.39417,47.17273]]]},"properties":{"_zoneType":"SICHERHEIT_CH"}},
{"type":"Feature","geometry":{"type":"Polygon","coordinates":[[[7.44267,47.17926],[7.44285,47.18139],[7.44265,47.18364],[7.44202,47.18586],[7.44128,47.18742],[7.44001,47.18713],[7.44079,47.18587],[7.43719,47.18505],[7.43851,47.18433],[7.43991,47.18066],[7.44062,47.17981],[7.44183,47.17924],[7.44267,47.17926]]]},"properties":{"_zoneType":"SICHERHEIT_CH"}},
{"type":"Feature","geometry":{"type":"Polygon","coordinates":[[[7.43942,47.19023],[7.4378,47.19196],[7.43568,47.1937],[7.43326,47.19524],[7.43057,47.19657],[7.42766,47.19766],[7.42457,47.19849],[7.42135,47.19905],[7.41805,47.19933],[7.41473,47.19933],[7.41143,47.19905],[7.40821,47.19849],[7.40512,47.19765],[7.40221,47.19656],[7.39952,47.19524],[7.3971,47.19369],[7.39498,47.19195],[7.3932,47.19004],[7.39179,47.188],[7.39076,47.18585],[7.39014,47.18363],[7.38994,47.18138],[7.39015,47.17912],[7.39077,47.1769],[7.39116,47.1761],[7.39954,47.17808],[7.41064,47.18286],[7.41596,47.18447],[7.42817,47.18693],[7.43588,47.19002],[7.43653,47.18908],[7.43942,47.19023]]]},"properties":{"_zoneType":"SICHERHEIT_CH"}},
{"type":"Feature","geometry":{"type":"Polygon","coordinates":[[[7.45009,47.18947],[7.45512,47.19063],[7.45204,47.19524],[7.43942,47.19023],[7.43653,47.18908],[7.43588,47.19002],[7.42817,47.18693],[7.41596,47.18447],[7.41064,47.18286],[7.39954,47.17808],[7.39116,47.1761],[7.39095,47.17539],[7.39304,47.17228],[7.39346,47.17245],[7.39417,47.17273],[7.3949,47.17166],[7.40305,47.17488],[7.41442,47.17693],[7.42188,47.17924],[7.43177,47.18376],[7.43219,47.18429],[7.43345,47.18492],[7.43514,47.18536],[7.43719,47.18505],[7.44079,47.18587],[7.44001,47.18713],[7.44128,47.18742],[7.44828,47.18905],[7.44932,47.1897],[7.45009,47.18947]]]},"properties":{"_zoneType":"SICHERHEIT_CH"}},
{"type":"Feature","geometry":{"type":"Polygon","coordinates":[[[7.45009,47.18947],[7.44932,47.1897],[7.44828,47.18905],[7.45009,47.18947]]]},"properties":{"_zoneType":"SICHERHEIT_CH"}},
{"type":"Feature","geometry":{"type":"Polygon","coordinates":[[[7.43719,47.18505],[7.43514,47.18536],[7.43345,47.18492],[7.43219,47.18429],[7.43177,47.18376],[7.432,47.18386],[7.43719,47.18505]]]},"properties":{"_zoneType":"SICHERHEIT_CH"}},
{"type":"Feature","geometry":{"type":"Polygon","coordinates":[[[7.41411,47.16349],[7.41806,47.16343],[7.42136,47.16372],[7.42458,47.16428],[7.42767,47.16511],[7.43058,47.1662],[7.43326,47.16753],[7.43568,47.16907],[7.4378,47.17082],[7.43958,47.17272],[7.441,47.17477],[7.44202,47.17691],[7.44267,47.17926],[7.44183,47.17924],[7.44062,47.17981],[7.43991,47.18066],[7.43851,47.18433],[7.43719,47.18505],[7.432,47.18386],[7.43177,47.18376],[7.43105,47.18285],[7.43092,47.18115],[7.43147,47.1785],[7.43168,47.17658],[7.43074,47.17507],[7.42958,47.17422],[7.42775,47.1734],[7.42581,47.17286],[7.42331,47.17265],[7.42058,47.17207],[7.41865,47.1713],[7.41744,47.17],[7.41555,47.16501],[7.41441,47.16365],[7.41411,47.16349]]]},"properties":{"_zoneType":"SICHERHEIT_CH"}},
{"type":"Feature","geometry":{"type":"Polygon","coordinates":[[[7.53634,46.88878],[7.53682,46.88906],[7.54024,46.89196],[7.54265,46.89441],[7.54577,46.89871],[7.53816,46.91199],[7.53669,46.9143],[7.53173,46.91902],[7.53029,46.92022],[7.52788,46.92166],[7.5246,46.92351],[7.5201,46.92596],[7.49361,46.94067],[7.49133,46.94257],[7.49064,46.9419],[7.48832,46.9436],[7.48607,46.94426],[7.48522,46.9451],[7.48497,46.94461],[7.48344,46.94523],[7.48382,46.94759],[7.48341,46.94804],[7.4784,46.94671],[7.47362,46.94525],[7.46995,46.94392],[7.46528,46.94156],[7.46211,46.93966],[7.4595,46.93783],[7.45706,46.93588],[7.45572,46.93469],[7.45378,46.93276],[7.45251,46.93132],[7.44965,46.92747],[7.45107,46.92659],[7.45213,46.92616],[7.45427,46.92562],[7.45525,46.92523],[7.45637,46.9245],[7.45993,46.92177],[7.46123,46.92019],[7.46243,46.91914],[7.46461,46.91768],[7.46596,46.91611],[7.46726,46.91415],[7.46947,46.91066],[7.47048,46.90953],[7.47152,46.90898],[7.47529,46.90757],[7.47843,46.90586],[7.47981,46.90469],[7.48191,46.90378],[7.48812,46.90003],[7.4908,46.89761],[7.49246,46.89593],[7.49357,46.89438],[7.49508,46.8931],[7.497,46.891],[7.49962,46.88752],[7.51021,46.87973],[7.51148,46.87877],[7.51521,46.87932],[7.51913,46.88034],[7.52475,46.88243],[7.52686,46.88332],[7.51323,46.89776],[7.51297,46.89795],[7.51153,46.89713],[7.50357,46.89435],[7.50045,46.90035],[7.49376,46.90739],[7.49061,46.91324],[7.48478,46.91966],[7.47981,46.92296],[7.46924,46.9246],[7.46728,46.92502],[7.46531,46.92557],[7.46363,46.92619],[7.45768,46.9288],[7.46474,46.93456],[7.46977,46.93091],[7.47663,46.9349],[7.486,46.92554],[7.49604,46.92069],[7.50975,46.90924],[7.51782,46.90058],[7.53634,46.88878]]]},"properties":{"_zoneType":"SICHERHEIT_CH"}},
{"type":"Feature","geometry":{"type":"Polygon","coordinates":[[[7.52686,46.88332],[7.53432,46.8754],[7.54023,46.87051],[7.55152,46.87816],[7.54643,46.88234],[7.53634,46.88878],[7.51782,46.90058],[7.50975,46.90924],[7.49604,46.92069],[7.486,46.92554],[7.47663,46.9349],[7.46977,46.93091],[7.46474,46.93456],[7.45768,46.9288],[7.46363,46.92619],[7.46531,46.92557],[7.46728,46.92502],[7.46924,46.9246],[7.47981,46.92296],[7.48478,46.91966],[7.49061,46.91324],[7.49376,46.90739],[7.50045,46.90035],[7.50357,46.89435],[7.51153,46.89713],[7.51297,46.89795],[7.51323,46.89776],[7.52686,46.88332]]]},"properties":{"_zoneType":"SICHERHEIT_CH"}},
{"type":"Feature","geometry":{"type":"Polygon","coordinates":[[[8.90876,45.99402],[8.9094,45.99322],[8.91071,45.99315],[8.91092,45.9915],[8.91145,45.99064],[8.91263,45.99166],[8.91349,45.99204],[8.91315,45.99324],[8.91476,45.99513],[8.91525,45.99695],[8.91593,45.99834],[8.91569,45.99917],[8.91562,46.00051],[8.91573,46.00182],[8.91546,46.00353],[8.91541,46.00532],[8.91635,46.00679],[8.91725,46.00752],[8.91851,46.00924],[8.91949,46.01018],[8.92051,46.01166],[8.92201,46.01275],[8.92333,46.01441],[8.92508,46.01643],[8.92786,46.02031],[8.92781,46.02189],[8.92747,46.02297],[8.92816,46.02578],[8.92862,46.02629],[8.92806,46.02734],[8.92798,46.02801],[8.92753,46.02882],[8.92724,46.03038],[8.92679,46.02925],[8.91898,46.01731],[8.9159,46.00807],[8.91143,45.99813],[8.90876,45.99402]]]},"properties":{"_zoneType":"SICHERHEIT_CH"}},
{"type":"Feature","geometry":{"type":"Polygon","coordinates":[[[8.92052,46.0327],[8.91888,46.03121],[8.91824,46.02754],[8.91758,46.02711],[8.91736,46.02566],[8.91702,46.02453],[8.91384,46.01835],[8.90879,46.01446],[8.90604,46.01154],[8.90421,46.00993],[8.90274,46.00682],[8.90158,46.00536],[8.90073,46.00357],[8.89984,46.00251],[8.8997,46.00107],[8.89891,45.99932],[8.89861,45.99751],[8.89937,45.99685],[8.8991,45.99573],[8.8983,45.99465],[8.89778,45.9936],[8.8969,45.99266],[8.89802,45.9924],[8.8988,45.99245],[8.90002,45.99173],[8.90071,45.99166],[8.90177,45.99227],[8.90237,45.99305],[8.9046,45.99976],[8.90979,46.00952],[8.91542,46.0181],[8.91967,46.03096],[8.91991,46.0309],[8.92052,46.0327]]]},"properties":{"_zoneType":"SICHERHEIT_CH"}},
{"type":"Feature","geometry":{"type":"Polygon","coordinates":[[[7.05513,47.39702],[7.05342,47.40023],[7.04475,47.39742],[7.03322,47.39585],[7.02247,47.3933],[7.01167,47.38934],[7.00285,47.38782],[7.00456,47.38461],[7.01276,47.38728],[7.0248,47.38892],[7.03547,47.39163],[7.04578,47.39542],[7.05513,47.39702]]]},"properties":{"_zoneType":"SICHERHEIT_CH"}},
{"type":"Feature","geometry":{"type":"Polygon","coordinates":[[[8.25637,47.46215],[8.25416,47.46329],[8.25251,47.4627],[8.25192,47.46217],[8.25293,47.46199],[8.25347,47.46219],[8.25637,47.46215]]]},"properties":{"_zoneType":"SICHERHEIT_CH"}},
{"type":"Feature","geometry":{"type":"Polygon","coordinates":[[[8.23908,47.42564],[8.24025,47.42495],[8.24124,47.42535],[8.24201,47.42618],[8.24184,47.42742],[8.24148,47.42772],[8.23997,47.42624],[8.2394,47.42616],[8.23908,47.42564]]]},"properties":{"_zoneType":"SICHERHEIT_CH"}},
{"type":"Feature","geometry":{"type":"Polygon","coordinates":[[[8.21722,47.45724],[8.21803,47.45717],[8.21841,47.45685],[8.2175,47.45644],[8.21794,47.45605],[8.21733,47.45551],[8.21716,47.45499],[8.21782,47.45474],[8.22008,47.45435],[8.22309,47.45411],[8.22422,47.45354],[8.22568,47.45338],[8.22819,47.45329],[8.23276,47.45354],[8.23353,47.4538],[8.23519,47.45482],[8.23431,47.45513],[8.23236,47.45546],[8.22788,47.45676],[8.22661,47.4576],[8.22552,47.45776],[8.22441,47.45854],[8.22447,47.45902],[8.22223,47.46001],[8.22254,47.46072],[8.22332,47.46112],[8.22371,47.46203],[8.2243,47.46244],[8.22401,47.46315],[8.22456,47.46367],[8.22407,47.46445],[8.22202,47.46414],[8.21908,47.4631],[8.21713,47.4625],[8.21804,47.4619],[8.21827,47.46116],[8.21883,47.46074],[8.21894,47.46002],[8.2186,47.45949],[8.21726,47.45863],[8.21666,47.45743],[8.21722,47.45724]]]},"properties":{"_zoneType":"SICHERHEIT_CH"}},
{"type":"Feature","geometry":{"type":"Polygon","coordinates":[[[8.21831,47.43982],[8.22024,47.44014],[8.21975,47.43895],[8.21971,47.43814],[8.22284,47.4387],[8.22381,47.43965],[8.22459,47.43996],[8.22575,47.4401],[8.23073,47.44017],[8.23952,47.44128],[8.2506,47.44375],[8.24989,47.44659],[8.23822,47.44643],[8.22939,47.44551],[8.22054,47.44353],[8.21949,47.444],[8.21777,47.44292],[8.21831,47.44077],[8.21831,47.43982]]]},"properties":{"_zoneType":"SICHERHEIT_CH"}},
{"type":"Feature","geometry":{"type":"Polygon","coordinates":[[[8.21968,47.4281],[8.21737,47.44048],[8.21565,47.44041],[8.21271,47.44061],[8.20406,47.43904],[8.20461,47.43753],[8.20554,47.43568],[8.20617,47.43467],[8.2074,47.43304],[8.20843,47.4319],[8.21013,47.43032],[8.2128,47.42834],[8.2144,47.42737],[8.21685,47.42612],[8.21996,47.4266],[8.21968,47.4281]]]},"properties":{"_zoneType":"SICHERHEIT_CH"}},
{"type":"Feature","geometry":{"type":"Polygon","coordinates":[[[6.65093,46.53975],[6.6497,46.5396],[6.64892,46.53929],[6.64799,46.53859],[6.64663,46.53897],[6.64499,46.53892],[6.64402,46.53906],[6.64251,46.53982],[6.64264,46.54159],[6.64299,46.54213],[6.64247,46.5425],[6.64193,46.54215],[6.64135,46.5412],[6.64148,46.54041],[6.64124,46.53977],[6.6415,46.53888],[6.64258,46.53838],[6.64236,46.53804],[6.64306,46.53728],[6.64221,46.53661],[6.64145,46.53494],[6.64129,46.53355],[6.64066,46.5333],[6.63852,46.53341],[6.63777,46.53376],[6.63682,46.53512],[6.63686,46.53583],[6.63598,46.53671],[6.63572,46.53815],[6.63427,46.54116],[6.63446,46.54201],[6.63307,46.54216],[6.63333,46.54288],[6.63324,46.54351],[6.63261,46.54379],[6.63228,46.54475],[6.63152,46.54548],[6.63172,46.54577],[6.62954,46.54765],[6.62982,46.54846],[6.62921,46.54958],[6.62865,46.54945],[6.62837,46.54844],[6.62784,46.54818],[6.626,46.54837],[6.6255,46.54867],[6.6242,46.5482],[6.62359,46.54762],[6.62285,46.54729],[6.62276,46.54891],[6.62168,46.55014],[6.62154,46.55124],[6.62267,46.55117],[6.62309,46.55195],[6.62279,46.55235],[6.6216,46.55254],[6.62102,46.55314],[6.62085,46.55461],[6.62192,46.55578],[6.62035,46.55573],[6.61993,46.55816],[6.61907,46.55972],[6.61911,46.56117],[6.61848,46.56252],[6.61758,46.5631],[6.61751,46.56408],[6.61838,46.56492],[6.61854,46.56594],[6.61802,46.56604],[6.61746,46.56667],[6.6174,46.56957],[6.61519,46.56955],[6.61298,46.56944],[6.61079,46.56923],[6.60862,46.56893],[6.60648,46.56853],[6.60439,46.56805],[6.60234,46.56747],[6.60035,46.56681],[6.59842,46.56606],[6.59656,46.56523],[6.59479,46.56432],[6.59229,46.56281],[6.59074,46.56172],[6.58861,46.55996],[6.58733,46.55872],[6.58617,46.55742],[6.58512,46.55608],[6.58379,46.55398],[6.58307,46.55254],[6.58247,46.55107],[6.58201,46.54958],[6.58169,46.54807],[6.58151,46.54655],[6.58149,46.54426],[6.58165,46.54274],[6.58216,46.54048],[6.58266,46.53899],[6.5833,46.53753],[6.58451,46.5354],[6.58547,46.53402],[6.58656,46.5327],[6.58776,46.53142],[6.58908,46.53019],[6.59126,46.52847],[6.59284,46.5274],[6.59452,46.5264],[6.59719,46.52505],[6.59907,46.52425],[6.60102,46.52352],[6.60405,46.52261],[6.60614,46.5221],[6.60827,46.52169],[6.61043,46.52138],[6.61361,46.52109],[6.61504,46.52102],[6.61924,46.52106],[6.62144,46.52122],[6.6247,46.52163],[6.62683,46.52203],[6.62996,46.52279],[6.63297,46.52376],[6.63489,46.5245],[6.63675,46.52534],[6.63852,46.52624],[6.64102,46.52775],[6.64257,46.52884],[6.64401,46.52999],[6.64535,46.53121],[6.64714,46.53313],[6.64819,46.53448],[6.64952,46.53657],[6.65025,46.53801],[6.65093,46.53975]],[[6.61629,46.55531],[6.61896,46.55518],[6.61966,46.54894],[6.61998,46.5452],[6.62002,46.54393],[6.61974,46.54106],[6.61713,46.53326],[6.61388,46.53341],[6.61279,46.54138],[6.61307,46.54425],[6.61336,46.54551],[6.61439,46.54919],[6.61542,46.5525],[6.61486,46.55275],[6.61326,46.553],[6.61383,46.5548],[6.61593,46.55416],[6.61629,46.55531]]]},"properties":{"_zoneType":"SICHERHEIT_CH"}},
{"type":"Feature","geometry":{"type":"Polygon","coordinates":[[[6.65093,46.53975],[6.65163,46.54249],[6.65182,46.54401],[6.65183,46.54629],[6.65167,46.54782],[6.65117,46.55008],[6.65067,46.55156],[6.65003,46.55303],[6.64926,46.55446],[6.64836,46.55585],[6.64734,46.5572],[6.64558,46.55914],[6.64426,46.56037],[6.64208,46.56209],[6.63967,46.56367],[6.63795,46.56463],[6.63522,46.56592],[6.6333,46.56669],[6.63031,46.56767],[6.62824,46.56822],[6.62506,46.56887],[6.6229,46.56919],[6.61972,46.56948],[6.61829,46.56954],[6.6174,46.56957],[6.61746,46.56667],[6.61802,46.56604],[6.61854,46.56594],[6.61838,46.56492],[6.61751,46.56408],[6.61758,46.5631],[6.61848,46.56252],[6.61911,46.56117],[6.61907,46.55972],[6.61993,46.55816],[6.62035,46.55573],[6.62192,46.55578],[6.62085,46.55461],[6.62102,46.55314],[6.6216,46.55254],[6.62279,46.55235],[6.62309,46.55195],[6.62267,46.55117],[6.62154,46.55124],[6.62168,46.55014],[6.62276,46.54891],[6.62285,46.54729],[6.62359,46.54762],[6.6242,46.5482],[6.6255,46.54867],[6.626,46.54837],[6.62784,46.54818],[6.62837,46.54844],[6.62865,46.54945],[6.62921,46.54958],[6.62982,46.54846],[6.62954,46.54765],[6.63172,46.54577],[6.63152,46.54548],[6.63228,46.54475],[6.63261,46.54379],[6.63324,46.54351],[6.63333,46.54288],[6.63307,46.54216],[6.63446,46.54201],[6.63427,46.54116],[6.63572,46.53815],[6.63598,46.53671],[6.63686,46.53583],[6.63682,46.53512],[6.63777,46.53376],[6.63852,46.53341],[6.64066,46.5333],[6.64129,46.53355],[6.64145,46.53494],[6.64221,46.53661],[6.64306,46.53728],[6.64236,46.53804],[6.64258,46.53838],[6.6415,46.53888],[6.64124,46.53977],[6.64148,46.54041],[6.64135,46.5412],[6.64193,46.54215],[6.64247,46.5425],[6.64299,46.54213],[6.64264,46.54159],[6.64251,46.53982],[6.64402,46.53906],[6.64499,46.53892],[6.64663,46.53897],[6.64799,46.53859],[6.64892,46.53929],[6.6497,46.5396],[6.65093,46.53975]]]},"properties":{"_zoneType":"SICHERHEIT_CH"}},
{"type":"Feature","geometry":{"type":"Polygon","coordinates":[[[6.61829,46.56954],[6.61972,46.56948],[6.62043,46.57683],[6.619,46.57689],[6.61829,46.56954]]]},"properties":{"_zoneType":"SICHERHEIT_CH"}},
{"type":"Feature","geometry":{"type":"Polygon","coordinates":[[[6.61629,46.55531],[6.61593,46.55416],[6.61383,46.5548],[6.61326,46.553],[6.61486,46.55275],[6.61542,46.5525],[6.61439,46.54919],[6.61336,46.54551],[6.61307,46.54425],[6.61279,46.54138],[6.61388,46.53341],[6.61713,46.53326],[6.61974,46.54106],[6.62002,46.54393],[6.61998,46.5452],[6.61966,46.54894],[6.61896,46.55518],[6.61629,46.55531]]]},"properties":{"_zoneType":"SICHERHEIT_CH"}},
{"type":"Feature","geometry":{"type":"Polygon","coordinates":[[[9.90067,46.56466],[9.89764,46.56539],[9.89367,46.56609],[9.88963,46.56655],[9.88555,46.56676],[9.88145,46.56672],[9.87737,46.56644],[9.87335,46.56592],[9.86941,46.56515],[9.86557,46.56415],[9.86188,46.56293],[9.85836,46.56148],[9.85504,46.55983],[9.85193,46.55799],[9.84908,46.55597],[9.84649,46.55378],[9.84418,46.55144],[9.84218,46.54898],[9.8405,46.5464],[9.83915,46.54373],[9.83814,46.541],[9.83748,46.53821],[9.83718,46.53539],[9.83723,46.53257],[9.83764,46.52975],[9.8384,46.52698],[9.83951,46.52426],[9.84096,46.52162],[9.84274,46.51907],[9.84483,46.51664],[9.84722,46.51435],[9.85038,46.51188],[9.85178,46.513],[9.85354,46.51394],[9.85501,46.51507],[9.85601,46.51527],[9.85731,46.51517],[9.85836,46.51573],[9.85945,46.51709],[9.8604,46.51788],[9.85973,46.51885],[9.86026,46.51939],[9.86309,46.52369],[9.86312,46.52515],[9.86282,46.52764],[9.86305,46.52858],[9.8641,46.52946],[9.86587,46.52996],[9.86757,46.53104],[9.8685,46.53121],[9.869,46.53226],[9.8697,46.53324],[9.8703,46.53352],[9.87129,46.53361],[9.87128,46.53456],[9.87196,46.53533],[9.87238,46.53615],[9.87349,46.5369],[9.87471,46.53725],[9.87636,46.53847],[9.87673,46.53963],[9.8771,46.54],[9.87896,46.54056],[9.87967,46.54059],[9.88029,46.54147],[9.88139,46.54222],[9.88224,46.54397],[9.8821,46.54466],[9.88353,46.54542],[9.8843,46.54609],[9.88565,46.5469],[9.88623,46.54766],[9.88573,46.54855],[9.88449,46.54918],[9.88266,46.54974],[9.88201,46.55051],[9.88263,46.5519],[9.88282,46.55327],[9.88324,46.55376],[9.88589,46.55479],[9.88646,46.55492],[9.88805,46.55489],[9.88996,46.55516],[9.89082,46.55549],[9.89179,46.55624],[9.89334,46.5569],[9.89462,46.55765],[9.89656,46.55915],[9.89764,46.56052],[9.89836,46.56199],[9.89941,46.56302],[9.90067,46.56466]]]},"properties":{"_zoneType":"SICHERHEIT_CH"}},
{"type":"Feature","geometry":{"type":"Polygon","coordinates":[[[9.91507,46.5587],[9.91462,46.55798],[9.91295,46.55658],[9.91123,46.55588],[9.91076,46.55551],[9.90955,46.55397],[9.90772,46.55246],[9.90678,46.55134],[9.90593,46.5509],[9.9055,46.55014],[9.90392,46.54947],[9.90299,46.54865],[9.90234,46.54679],[9.9021,46.54545],[9.90123,46.54466],[9.89991,46.54397],[9.89853,46.54263],[9.8975,46.5421],[9.89648,46.54217],[9.89546,46.54196],[9.89377,46.54097],[9.89315,46.53998],[9.8931,46.53914],[9.89393,46.53831],[9.89395,46.53788],[9.89254,46.53581],[9.89218,46.53472],[9.89243,46.5337],[9.89211,46.5332],[9.89097,46.53251],[9.89019,46.53118],[9.88886,46.52995],[9.88711,46.52774],[9.88676,46.52692],[9.88592,46.52602],[9.88531,46.52481],[9.88504,46.52382],[9.88375,46.52245],[9.88233,46.52228],[9.88203,46.52178],[9.88138,46.51971],[9.8814,46.51697],[9.88117,46.51603],[9.88076,46.51542],[9.88027,46.51529],[9.87894,46.51583],[9.87816,46.5159],[9.87698,46.51571],[9.87617,46.51576],[9.87468,46.51643],[9.87283,46.51757],[9.87094,46.51873],[9.86974,46.51874],[9.8708,46.51762],[9.87081,46.51688],[9.86984,46.51637],[9.86875,46.51507],[9.86878,46.51447],[9.87027,46.51342],[9.87092,46.51362],[9.87301,46.51356],[9.87359,46.51317],[9.87376,46.51187],[9.87354,46.51131],[9.87297,46.51103],[9.87187,46.51109],[9.87157,46.51088],[9.8709,46.50942],[9.87008,46.50817],[9.86842,46.50841],[9.86684,46.5079],[9.86599,46.50802],[9.86523,46.50839],[9.86381,46.50806],[9.86114,46.50618],[9.86295,46.50548],[9.86668,46.50432],[9.87054,46.50339],[9.8745,46.50269],[9.87854,46.50223],[9.88317,46.50203],[9.88447,46.50204],[9.88671,46.50206],[9.89078,46.50234],[9.8948,46.50286],[9.89874,46.50363],[9.90257,46.50463],[9.90626,46.50585],[9.90977,46.50729],[9.9131,46.50894],[9.9162,46.51078],[9.91906,46.51281],[9.92165,46.51499],[9.92396,46.51733],[9.92596,46.51979],[9.92765,46.52236],[9.929,46.52503],[9.93001,46.52777],[9.93068,46.53055],[9.93099,46.53337],[9.93094,46.5362],[9.93053,46.53901],[9.92977,46.54178],[9.92867,46.5445],[9.92722,46.54715],[9.92545,46.54969],[9.92336,46.55212],[9.92097,46.55442],[9.9183,46.55656],[9.91507,46.5587]]]},"properties":{"_zoneType":"SICHERHEIT_CH"}},
{"type":"Feature","geometry":{"type":"Polygon","coordinates":[[[9.89315,46.53998],[9.89377,46.54097],[9.89817,46.54794],[9.90226,46.55021],[9.90121,46.55094],[9.90148,46.55117],[9.89881,46.55238],[9.89672,46.55316],[9.89602,46.5523],[9.88604,46.54244],[9.87474,46.5277],[9.87016,46.5221],[9.86781,46.5228],[9.86717,46.52007],[9.86693,46.51956],[9.86883,46.51838],[9.8708,46.51762],[9.86974,46.51874],[9.87094,46.51873],[9.87283,46.51757],[9.8807,46.5254],[9.88064,46.52491],[9.87753,46.52109],[9.87878,46.5206],[9.88189,46.52443],[9.88233,46.52525],[9.88232,46.52631],[9.88203,46.52694],[9.88476,46.53014],[9.88553,46.53024],[9.8869,46.53085],[9.88762,46.53149],[9.89074,46.53533],[9.88959,46.53578],[9.893,46.53975],[9.89315,46.53998]]]},"properties":{"_zoneType":"SICHERHEIT_CH"}},
{"type":"Feature","geometry":{"type":"Polygon","coordinates":[[[9.88317,46.50203],[9.88376,46.50047],[9.88515,46.50072],[9.88447,46.50204],[9.88317,46.50203]]]},"properties":{"_zoneType":"SICHERHEIT_CH"}},
{"type":"Feature","geometry":{"type":"Polygon","coordinates":[[[9.85038,46.51188],[9.85283,46.51024],[9.85599,46.50845],[9.85938,46.50686],[9.86114,46.50618],[9.86381,46.50806],[9.86523,46.50839],[9.86599,46.50802],[9.86684,46.5079],[9.86842,46.50841],[9.87008,46.50817],[9.8709,46.50942],[9.87157,46.51088],[9.87187,46.51109],[9.87297,46.51103],[9.87354,46.51131],[9.87376,46.51187],[9.87359,46.51317],[9.87301,46.51356],[9.87092,46.51362],[9.87027,46.51342],[9.86878,46.51447],[9.86875,46.51507],[9.86984,46.51637],[9.87081,46.51688],[9.8708,46.51762],[9.86883,46.51838],[9.86693,46.51956],[9.86717,46.52007],[9.86781,46.5228],[9.87016,46.5221],[9.87474,46.5277],[9.88604,46.54244],[9.89602,46.5523],[9.89672,46.55316],[9.89881,46.55238],[9.90148,46.55117],[9.90121,46.55094],[9.90226,46.55021],[9.89817,46.54794],[9.89377,46.54097],[9.89546,46.54196],[9.89648,46.54217],[9.8975,46.5421],[9.89853,46.54263],[9.89991,46.54397],[9.90123,46.54466],[9.9021,46.54545],[9.90234,46.54679],[9.90299,46.54865],[9.90392,46.54947],[9.9055,46.55014],[9.90593,46.5509],[9.90678,46.55134],[9.90772,46.55246],[9.90955,46.55397],[9.91076,46.55551],[9.91123,46.55588],[9.91295,46.55658],[9.91462,46.55798],[9.91507,46.5587],[9.9122,46.56032],[9.90881,46.56192],[9.90524,46.5633],[9.90151,46.56446],[9.90067,46.56466],[9.89941,46.56302],[9.89836,46.56199],[9.89764,46.56052],[9.89656,46.55915],[9.89462,46.55765],[9.89334,46.5569],[9.89179,46.55624],[9.89082,46.55549],[9.88996,46.55516],[9.88805,46.55489],[9.88646,46.55492],[9.88589,46.55479],[9.88324,46.55376],[9.88282,46.55327],[9.88263,46.5519],[9.88201,46.55051],[9.88266,46.54974],[9.88449,46.54918],[9.88573,46.54855],[9.88623,46.54766],[9.88565,46.5469],[9.8843,46.54609],[9.88353,46.54542],[9.8821,46.54466],[9.88224,46.54397],[9.88139,46.54222],[9.88029,46.54147],[9.87967,46.54059],[9.87896,46.54056],[9.8771,46.54],[9.87673,46.53963],[9.87636,46.53847],[9.87471,46.53725],[9.87349,46.5369],[9.87238,46.53615],[9.87196,46.53533],[9.87128,46.53456],[9.87129,46.53361],[9.8703,46.53352],[9.8697,46.53324],[9.869,46.53226],[9.8685,46.53121],[9.86757,46.53104],[9.86587,46.52996],[9.8641,46.52946],[9.86305,46.52858],[9.86282,46.52764],[9.86312,46.52515],[9.86309,46.52369],[9.86026,46.51939],[9.85973,46.51885],[9.8604,46.51788],[9.85945,46.51709],[9.85836,46.51573],[9.85731,46.51517],[9.85601,46.51527],[9.85501,46.51507],[9.85354,46.51394],[9.85178,46.513],[9.85038,46.51188]]]},"properties":{"_zoneType":"SICHERHEIT_CH"}},
{"type":"Feature","geometry":{"type":"Polygon","coordinates":[[[9.89315,46.53998],[9.893,46.53975],[9.88959,46.53578],[9.89074,46.53533],[9.88762,46.53149],[9.8869,46.53085],[9.88553,46.53024],[9.88476,46.53014],[9.88203,46.52694],[9.88232,46.52631],[9.88233,46.52525],[9.88189,46.52443],[9.87878,46.5206],[9.87753,46.52109],[9.88064,46.52491],[9.8807,46.5254],[9.87283,46.51757],[9.87468,46.51643],[9.87617,46.51576],[9.87698,46.51571],[9.87816,46.5159],[9.87894,46.51583],[9.88027,46.51529],[9.88076,46.51542],[9.88117,46.51603],[9.8814,46.51697],[9.88138,46.51971],[9.88203,46.52178],[9.88233,46.52228],[9.88375,46.52245],[9.88504,46.52382],[9.88531,46.52481],[9.88592,46.52602],[9.88676,46.52692],[9.88711,46.52774],[9.88886,46.52995],[9.89019,46.53118],[9.89097,46.53251],[9.89211,46.5332],[9.89243,46.5337],[9.89218,46.53472],[9.89254,46.53581],[9.89395,46.53788],[9.89393,46.53831],[9.8931,46.53914],[9.89315,46.53998]]]},"properties":{"_zoneType":"SICHERHEIT_CH"}}
]}