{"type":"FeatureCollection", "features": [
{"type":"Feature","geometry":{"type":"Polygon","coordinates":[[[7.54352,47.22673],[7.59284,47.16711],[7.81384,47.21696],[7.88739,47.2744],[7.82325,47.33514],[7.54352,47.22673]]]},"properties":{"_zoneType":"UAS_AKT_CH"}},
{"type":"Feature","geometry":{"type":"Polygon","coordinates":[[[7.92952,46.04675],[8.00572,46.04912],[8.00202,46.14247],[7.9288,46.13517],[7.92952,46.04675]]]},"properties":{"_zoneType":"UAS_AKT_CH"}},
{"type":"Feature","geometry":{"type":"Polygon","coordinates":[[[8.44432,46.65733],[8.4361,46.61472],[8.4846,46.61262],[8.5352,46.6307],[8.50634,46.65519],[8.44432,46.65733]]]},"properties":{"_zoneType":"UAS_AKT_CH"}},
{"type":"Feature","geometry":{"type":"Polygon","coordinates":[[[8.80186,46.68156],[8.80127,46.65112],[8.80543,46.65112],[8.83747,46.68306],[8.80186,46.68156]]]},"properties":{"_zoneType":"UAS_AKT_CH"}},
{"type":"Feature","geometry":{"type":"Polygon","coordinates":[[[9.11301,46.80543],[9.1364,46.81977],[9.1037,46.83696],[9.09611,46.83379],[9.11301,46.80543]]]},"properties":{"_zoneType":"UAS_AKT_CH"}},
{"type":"Feature","geometry":{"type":"Polygon","coordinates":[[[8.99452,46.65249],[8.96339,46.69546],[8.94899,46.69093],[8.98863,46.64973],[8.99452,46.65249]]]},"properties":{"_zoneType":"UAS_AKT_CH"}},
{"type":"Feature","geometry":{"type":"Polygon","coordinates":[[[8.6373,47.64288],[8.61233,47.67705],[8.60242,47.6751],[8.6221,47.63857],[8.6373,47.64288]]]},"properties":{"_zoneType":"UAS_AKT_CH"}},
{"type":"Feature","geometry":{"type":"Polygon","coordinates":[[[9.49532,47.12673],[9.49696,47.12749],[9.50501,47.13102],[9.50527,47.13126],[9.50596,47.13268],[9.51351,47.13366],[9.51459,47.1341],[9.51483,47.13465],[9.51454,47.13519],[9.51384,47.13551],[9.513,47.13552],[9.50565,47.13457],[9.50469,47.13469],[9.50095,47.13601],[9.50014,47.13782],[9.497,47.14426],[9.49088,47.15402],[9.49152,47.15521],[9.49101,47.15642],[9.49555,47.15975],[9.49579,47.16],[9.4989,47.16461],[9.49902,47.16495],[9.49973,47.17321],[9.50037,47.17437],[9.50421,47.17799],[9.53862,47.20127],[9.54519,47.20393],[9.54568,47.20426],[9.54669,47.20553],[9.54698,47.20717],[9.54618,47.20867],[9.545,47.20967],[9.54442,47.20996],[9.53648,47.21209],[9.53554,47.2124],[9.53484,47.2129],[9.53199,47.21536],[9.53073,47.21612],[9.52652,47.21801],[9.52548,47.21814],[9.5246,47.21774],[9.5244,47.21703],[9.52499,47.21644],[9.52912,47.21459],[9.52989,47.21413],[9.5327,47.2117],[9.53372,47.21097],[9.53542,47.21035],[9.54306,47.2083],[9.54385,47.20763],[9.54423,47.20682],[9.54402,47.20604],[9.54347,47.20542],[9.53705,47.20283],[9.53678,47.20269],[9.50218,47.17927],[9.49801,47.17537],[9.49697,47.17346],[9.49627,47.16524],[9.49336,47.16092],[9.48926,47.1579],[9.48777,47.15843],[9.4864,47.16014],[9.48419,47.16202],[9.48327,47.16237],[9.48187,47.16223],[9.48103,47.16173],[9.48144,47.1609],[9.4828,47.16019],[9.48415,47.15903],[9.48519,47.15771],[9.48484,47.15621],[9.48548,47.15426],[9.48678,47.15337],[9.48842,47.15316],[9.49443,47.14356],[9.49736,47.13753],[9.49231,47.13653],[9.49185,47.136],[9.49426,47.12849],[9.49382,47.12754],[9.49432,47.12692],[9.49532,47.12673]]]},"properties":{"_zoneType":"UAS_AKT_CH"}},
{"type":"Feature","geometry":{"type":"Polygon","coordinates":[[[8.83931,46.62176],[8.85608,46.58857],[8.86598,46.59146],[8.84452,46.62271],[8.83931,46.62176]]]},"properties":{"_zoneType":"UAS_AKT_CH"}},
{"type":"Feature","geometry":{"type":"Polygon","coordinates":[[[8.5701,47.53933],[8.54745,47.56987],[8.53961,47.56749],[8.5626,47.53734],[8.5701,47.53933]]]},"properties":{"_zoneType":"UAS_AKT_CH"}},
{"type":"Feature","geometry":{"type":"Polygon","coordinates":[[[9.12948,46.82327],[9.10377,46.83689],[9.09634,46.83371],[9.11556,46.81729],[9.12948,46.82327]]]},"properties":{"_zoneType":"UAS_AKT_CH"}},
{"type":"Feature","geometry":{"type":"Polygon","coordinates":[[[8.7582,46.64075],[8.75749,46.62097],[8.76631,46.62072],[8.77524,46.64032],[8.7582,46.64075]]]},"properties":{"_zoneType":"UAS_AKT_CH"}},
{"type":"Feature","geometry":{"type":"Polygon","coordinates":[[[8.58718,47.5951],[8.57491,47.59548],[8.56753,47.57532],[8.57579,47.574],[8.58718,47.5951]]]},"properties":{"_zoneType":"UAS_AKT_CH"}},
{"type":"Feature","geometry":{"type":"Polygon","coordinates":[[[8.7971,46.58858],[8.78629,46.57051],[8.79981,46.5683],[8.80489,46.5875],[8.7971,46.58858]]]},"properties":{"_zoneType":"UAS_AKT_CH"}},
{"type":"Feature","geometry":{"type":"Polygon","coordinates":[[[9.43364,46.83709],[9.40276,46.82612],[9.40662,46.82072],[9.43775,46.83252],[9.43364,46.83709]]]},"properties":{"_zoneType":"UAS_AKT_CH"}},
{"type":"Feature","geometry":{"type":"Polygon","coordinates":[[[8.70796,46.63686],[8.71005,46.61648],[8.71916,46.61673],[8.71658,46.6375],[8.70796,46.63686]]]},"properties":{"_zoneType":"UAS_AKT_CH"}},
{"type":"Feature","geometry":{"type":"Polygon","coordinates":[[[8.81367,46.62459],[8.80996,46.61315],[8.82466,46.61217],[8.81661,46.62425],[8.81367,46.62459]]]},"properties":{"_zoneType":"UAS_AKT_CH"}},
{"type":"Feature","geometry":{"type":"Polygon","coordinates":[[[8.68212,46.65092],[8.67456,46.64479],[8.68733,46.6389],[8.6893,46.63975],[8.68212,46.65092]]]},"properties":{"_zoneType":"UAS_AKT_CH"}},
{"type":"Feature","geometry":{"type":"Polygon","coordinates":[[[9.03574,46.76808],[9.05447,46.76662],[9.05563,46.76766],[9.03872,46.7729],[9.03574,46.76808]]]},"properties":{"_zoneType":"UAS_AKT_CH"}},
{"type":"Feature","geometry":{"type":"Polygon","coordinates":[[[8.47832,47.01678],[8.4794,47.018],[8.48093,47.02099],[8.48212,47.02142],[8.48286,47.02259],[8.48253,47.02431],[8.49181,47.03065],[8.50015,47.0338],[8.50032,47.03392],[8.50436,47.03917],[8.50829,47.04032],[8.5115,47.04067],[8.52491,47.0446],[8.53077,47.04401],[8.53812,47.0445],[8.54252,47.04393],[8.54268,47.04452],[8.53809,47.0451],[8.53074,47.04462],[8.52492,47.04521],[8.52468,47.04519],[8.5112,47.04124],[8.508,47.04089],[8.50386,47.03968],[8.50365,47.03954],[8.4996,47.03428],[8.49123,47.0311],[8.48176,47.02463],[8.48163,47.02438],[8.48197,47.0226],[8.4814,47.02178],[8.48016,47.02132],[8.47858,47.01823],[8.47749,47.017],[8.47832,47.01678]]]},"properties":{"_zoneType":"UAS_AKT_CH"}},
{"type":"Feature","geometry":{"type":"Polygon","coordinates":[[[7.97981,47.55223],[7.98005,47.55299],[7.9801,47.55412],[7.97924,47.55432],[7.97428,47.55457],[7.96967,47.55502],[7.96715,47.5543],[7.9671,47.55365],[7.96865,47.5528],[7.96883,47.55198],[7.97008,47.55197],[7.97963,47.55212],[7.97981,47.55223]]]},"properties":{"_zoneType":"UAS_AKT_CH"}},
{"type":"Feature","geometry":{"type":"Polygon","coordinates":[[[8.0074,47.1184],[8.00634,47.1183],[8.00532,47.11738],[8.00543,47.11669],[8.00824,47.11503],[8.00927,47.11506],[8.0119,47.11389],[8.01293,47.11402],[8.01358,47.11481],[8.01324,47.11525],[8.01065,47.1164],[8.01036,47.11685],[8.0074,47.1184]]]},"properties":{"_zoneType":"UAS_AKT_CH"}},
{"type":"Feature","geometry":{"type":"Polygon","coordinates":[[[9.06963,46.75527],[9.07014,46.74928],[9.07247,46.74923],[9.0719,46.75524],[9.06963,46.75527]]]},"properties":{"_zoneType":"UAS_AKT_CH"}},
{"type":"Feature","geometry":{"type":"Polygon","coordinates":[[[7.46417,46.9594],[7.46504,46.95901],[7.46635,46.95802],[7.46848,46.95937],[7.46901,46.95989],[7.47045,46.9608],[7.46914,46.9616],[7.46842,46.96119],[7.46657,46.96193],[7.46804,46.96384],[7.46775,46.96393],[7.46417,46.9594]]]},"properties":{"_zoneType":"UAS_AKT_CH"}},
{"type":"Feature","geometry":{"type":"Polygon","coordinates":[[[9.34424,46.81587],[9.3458,46.81527],[9.35104,46.82105],[9.34903,46.82163],[9.34424,46.81587]]]},"properties":{"_zoneType":"UAS_AKT_CH"}},
{"type":"Feature","geometry":{"type":"Polygon","coordinates":[[[8.04776,47.55389],[8.04847,47.5536],[8.04966,47.55154],[8.05121,47.55186],[8.05105,47.55222],[8.05354,47.55291],[8.05447,47.55355],[8.05285,47.55496],[8.05231,47.55498],[8.04776,47.55389]]]},"properties":{"_zoneType":"UAS_AKT_CH"}},
{"type":"Feature","geometry":{"type":"Polygon","coordinates":[[[8.97705,46.0459],[8.97846,46.04623],[8.97962,46.04591],[8.97998,46.04726],[8.97968,46.04842],[8.97576,46.04808],[8.97529,46.04782],[8.97538,46.04623],[8.97572,46.04539],[8.97705,46.0459]]]},"properties":{"_zoneType":"UAS_AKT_CH"}},
{"type":"Feature","geometry":{"type":"Polygon","coordinates":[[[8.4703,47.44163],[8.46787,47.44017],[8.46779,47.43955],[8.46887,47.43865],[8.46984,47.43861],[8.47227,47.44011],[8.47232,47.44074],[8.47125,47.44159],[8.4703,47.44163]]]},"properties":{"_zoneType":"UAS_AKT_CH"}},
{"type":"Feature","geometry":{"type":"Polygon","coordinates":[[[8.67041,47.71881],[8.66937,47.71868],[8.66793,47.71761],[8.66815,47.71745],[8.66648,47.71628],[8.66785,47.71546],[8.67086,47.71758],[8.67151,47.71836],[8.67041,47.71881]]]},"properties":{"_zoneType":"UAS_AKT_CH"}},
{"type":"Feature","geometry":{"type":"Polygon","coordinates":[[[9.04811,47.57506],[9.04679,47.57472],[9.04633,47.57372],[9.04691,47.57305],[9.04755,47.57282],[9.04856,47.57285],[9.04936,47.57326],[9.04967,47.57391],[9.04908,47.57479],[9.04811,47.57506]]]},"properties":{"_zoneType":"UAS_AKT_CH"}},
{"type":"Feature","geometry":{"type":"Polygon","coordinates":[[[7.47221,46.97447],[7.47264,46.9752],[7.47069,46.97619],[7.46975,46.97649],[7.46905,46.97617],[7.46991,46.97492],[7.47221,46.97447]]]},"properties":{"_zoneType":"UAS_AKT_CH"}},
{"type":"Feature","geometry":{"type":"Polygon","coordinates":[[[6.56945,46.55068],[6.56918,46.55031],[6.56966,46.549],[6.57083,46.54988],[6.56945,46.55068]]]},"properties":{"_zoneType":"UAS_AKT_CH"}}
]}