{"type":"FeatureCollection", "features": [
{"type":"Feature","geometry":{"type":"Polygon","coordinates":[[[9.08553,47.67888],[9.08548,47.67557],[9.08737,47.67525],[9.08911,47.67484],[9.09064,47.6738],[9.09193,47.67247],[9.09259,47.67154],[9.09287,47.67014],[9.09364,47.66909],[9.09595,47.66736],[9.0969,47.66696],[9.09769,47.6669],[9.09867,47.66718],[9.09912,47.66514],[9.10088,47.66487],[9.10409,47.66332],[9.10554,47.66298],[9.10707,47.66283],[9.11054,47.66322],[9.11074,47.66397],[9.11282,47.66394],[9.115,47.66354],[9.11721,47.66378],[9.11868,47.66355],[9.12204,47.66377],[9.12898,47.66371],[9.12888,47.66431],[9.12803,47.66587],[9.12931,47.66559],[9.13062,47.66555],[9.13326,47.66502],[9.13571,47.66437],[9.13738,47.6637],[9.13892,47.66294],[9.13952,47.66281],[9.14126,47.663],[9.1427,47.66365],[9.14428,47.66404],[9.14576,47.66456],[9.14772,47.66541],[9.14834,47.66593],[9.14986,47.66585],[9.15074,47.66522],[9.15277,47.6646],[9.154,47.66443],[9.15593,47.6646],[9.15638,47.6653],[9.15733,47.6659],[9.15078,47.66764],[9.15005,47.6677],[9.14844,47.66749],[9.14658,47.66676],[9.14428,47.66551],[9.141,47.66433],[9.13922,47.66417],[9.1349,47.66534],[9.13353,47.66583],[9.1318,47.66618],[9.13022,47.66632],[9.12723,47.66703],[9.12543,47.66732],[9.12255,47.66763],[9.1192,47.66834],[9.1176,47.66884],[9.1157,47.66959],[9.11327,47.67087],[9.11026,47.67293],[9.10691,47.67488],[9.10487,47.67589],[9.10109,47.67744],[9.09882,47.67821],[9.0965,47.67888],[9.09345,47.67956],[9.09154,47.67982],[9.0896,47.67994],[9.08764,47.6799],[9.0857,47.67969],[9.08553,47.67888]]]},"properties":{"_zoneType":"VOGELRES_CH","name":"Ermatinger Becken (TG)"}},
{"type":"Feature","geometry":{"type":"Polygon","coordinates":[[[6.8052,46.16076],[6.80483,46.16081],[6.80396,46.16153],[6.80242,46.16179],[6.80122,46.16232],[6.80058,46.16241],[6.79915,46.16308],[6.7957,46.16552],[6.7949,46.16588],[6.7939,46.1647],[6.79227,46.16365],[6.79163,46.16284],[6.79226,46.16111],[6.79257,46.15981],[6.79155,46.15868],[6.79194,46.15792],[6.79107,46.15706],[6.79023,46.15518],[6.79043,46.1546],[6.79034,46.15355],[6.79087,46.15279],[6.79159,46.1522],[6.79179,46.15155],[6.7931,46.14992],[6.79335,46.14902],[6.79446,46.14783],[6.79473,46.14701],[6.79457,46.14599],[6.79518,46.14377],[6.7963,46.1422],[6.79651,46.14096],[6.79631,46.13912],[6.79729,46.13813],[6.79779,46.13656],[6.7987,46.1358],[6.80146,46.13539],[6.80317,46.1356],[6.80424,46.13601],[6.80502,46.1357],[6.80721,46.13648],[6.80825,46.13584],[6.80983,46.13415],[6.81047,46.13405],[6.81093,46.13351],[6.81094,46.13259],[6.81136,46.13223],[6.81259,46.13215],[6.81344,46.13137],[6.81362,46.13051],[6.8143,46.13022],[6.81493,46.12928],[6.8167,46.12972],[6.81847,46.13104],[6.82011,46.13136],[6.8217,46.13143],[6.82273,46.1313],[6.82426,46.13162],[6.82461,46.13235],[6.82424,46.13302],[6.82324,46.13373],[6.82299,46.13431],[6.82211,46.13427],[6.82129,46.13553],[6.82117,46.13661],[6.8215,46.13732],[6.8212,46.1376],[6.82138,46.1386],[6.82194,46.13918],[6.82385,46.1404],[6.82371,46.14131],[6.8227,46.14233],[6.82076,46.14301],[6.82022,46.14362],[6.82017,46.14438],[6.82104,46.14482],[6.8209,46.14595],[6.82117,46.14698],[6.82039,46.14706],[6.81933,46.14809],[6.81834,46.14748],[6.81739,46.14711],[6.816,46.14708],[6.81554,46.14745],[6.81611,46.14803],[6.81574,46.14874],[6.81499,46.14904],[6.81478,46.14953],[6.8137,46.14985],[6.81234,46.14996],[6.81085,46.1505],[6.80921,46.15035],[6.80891,46.15072],[6.80941,46.15138],[6.81133,46.15257],[6.81439,46.15368],[6.81501,46.15446],[6.81485,46.15486],[6.81385,46.15504],[6.81215,46.15601],[6.81193,46.15653],[6.81102,46.15668],[6.81017,46.15758],[6.8101,46.15795],[6.81074,46.15836],[6.80951,46.15902],[6.80841,46.15893],[6.80835,46.15982],[6.80749,46.15978],[6.80657,46.16038],[6.8052,46.16076]]]},"properties":{"_zoneType":"VOGELRES_CH","name":"Col de Bretolet (VS)"}},
{"type":"Feature","geometry":{"type":"Polygon","coordinates":[[[7.42017,47.18243],[7.41025,47.17922],[7.40901,47.18],[7.40347,47.17783],[7.40152,47.17741],[7.40109,47.17883],[7.39693,47.17768],[7.39612,47.17874],[7.3865,47.17543],[7.38562,47.1767],[7.38445,47.17633],[7.38512,47.17551],[7.38576,47.17398],[7.38745,47.1709],[7.38646,47.17076],[7.38408,47.17018],[7.381,47.16914],[7.38027,47.16867],[7.3809,47.16738],[7.38214,47.16523],[7.38219,47.16472],[7.38175,47.16355],[7.38255,47.16142],[7.38314,47.1607],[7.38397,47.16023],[7.38536,47.16007],[7.3869,47.15962],[7.38736,47.16014],[7.38861,47.16034],[7.39,47.16084],[7.39188,47.16116],[7.39246,47.16098],[7.39383,47.16159],[7.39619,47.1624],[7.39385,47.1645],[7.40082,47.16571],[7.40698,47.16603],[7.40393,47.17088],[7.40542,47.17118],[7.40705,47.16847],[7.41894,47.17409],[7.41815,47.17463],[7.43082,47.17718],[7.43085,47.17842],[7.42995,47.18082],[7.42837,47.18077],[7.42623,47.18146],[7.42508,47.18228],[7.42411,47.18148],[7.4212,47.18233],[7.42017,47.18243]],[[7.41275,47.17648],[7.41422,47.17705],[7.41634,47.17569],[7.41405,47.17475],[7.41275,47.17648]]]},"properties":{"_zoneType":"VOGELRES_CH","name":"Witi (BE,SO)"}},
{"type":"Feature","geometry":{"type":"Polygon","coordinates":[[[9.54051,47.48373],[9.54162,47.484],[9.54292,47.48393],[9.54334,47.48417],[9.54322,47.48491],[9.54418,47.48579],[9.54374,47.48593],[9.54436,47.48739],[9.54407,47.488],[9.54511,47.48899],[9.54603,47.49108],[9.54792,47.49106],[9.54796,47.4915],[9.54911,47.49224],[9.54969,47.49211],[9.55026,47.49246],[9.55077,47.49198],[9.55268,47.49205],[9.55447,47.4925],[9.55637,47.49267],[9.55916,47.49276],[9.56002,47.49324],[9.56085,47.4948],[9.56163,47.4952],[9.56071,47.49723],[9.56003,47.49691],[9.55878,47.49772],[9.55819,47.49734],[9.55655,47.49857],[9.55728,47.49911],[9.55499,47.50045],[9.55574,47.50112],[9.55638,47.50098],[9.55834,47.50016],[9.56031,47.49877],[9.56086,47.49788],[9.56244,47.49468],[9.56355,47.49323],[9.56387,47.49333],[9.56492,47.49239],[9.56684,47.49097],[9.56796,47.49092],[9.57106,47.48924],[9.57006,47.48822],[9.57229,47.48705],[9.57554,47.48564],[9.57756,47.48456],[9.57937,47.48315],[9.58027,47.48199],[9.58063,47.48207],[9.58287,47.47996],[9.5829,47.4794],[9.58414,47.4786],[9.58524,47.47754],[9.58561,47.47765],[9.58347,47.48109],[9.58279,47.48206],[9.58149,47.48343],[9.57996,47.4846],[9.57902,47.48518],[9.56655,47.49192],[9.56473,47.4931],[9.56345,47.49425],[9.56207,47.49614],[9.56146,47.4977],[9.56126,47.4996],[9.56183,47.50456],[9.55397,47.50229],[9.53974,47.49054],[9.5326,47.48988],[9.54045,47.48371],[9.54051,47.48373]]]},"properties":{"_zoneType":"VOGELRES_CH","name":"Alter Rhein: Thal (SG)"}},
{"type":"Feature","geometry":{"type":"MultiPolygon","coordinates":[[[[9.46041,47.50891],[9.45401,47.51426],[9.4358,47.50657],[9.43674,47.50576],[9.43856,47.5049],[9.44033,47.50514],[9.44221,47.50488],[9.44283,47.5053],[9.44432,47.50545],[9.44583,47.50576],[9.44668,47.50523],[9.44694,47.50273],[9.4482,47.50269],[9.44879,47.50247],[9.44953,47.50181],[9.44942,47.50129],[9.46041,47.50891]]],[[[9.5326,47.48988],[9.52601,47.48932],[9.52036,47.48941],[9.51869,47.48951],[9.51248,47.49003],[9.50733,47.49054],[9.50268,47.49108],[9.5005,47.49143],[9.4986,47.49192],[9.49559,47.49302],[9.49407,47.49375],[9.49254,47.49472],[9.49137,47.49565],[9.4773,47.48968],[9.47686,47.48877],[9.47702,47.48787],[9.47676,47.4873],[9.47675,47.48617],[9.47728,47.48534],[9.4779,47.48505],[9.47874,47.48422],[9.47927,47.48278],[9.48121,47.48143],[9.48259,47.48095],[9.48299,47.48111],[9.48473,47.4807],[9.4856,47.48001],[9.48877,47.47968],[9.49092,47.47963],[9.49194,47.47978],[9.49326,47.47926],[9.49473,47.47949],[9.49446,47.47903],[9.49853,47.47805],[9.49913,47.47843],[9.50081,47.47868],[9.50267,47.47861],[9.50548,47.47914],[9.50563,47.47927],[9.50777,47.4794],[9.50898,47.47929],[9.51146,47.47938],[9.51492,47.47966],[9.51604,47.47966],[9.51649,47.48002],[9.51732,47.48005],[9.51757,47.47966],[9.52017,47.47998],[9.5241,47.48027],[9.52534,47.48078],[9.52662,47.48017],[9.52768,47.48031],[9.52798,47.4808],[9.52982,47.48121],[9.53068,47.48053],[9.53135,47.48063],[9.53237,47.4814],[9.53143,47.48268],[9.53199,47.48286],[9.53267,47.48155],[9.53339,47.48121],[9.53793,47.48208],[9.53917,47.48211],[9.54039,47.48281],[9.54051,47.48373],[9.54045,47.48371],[9.5326,47.48988]]]]},"properties":{"_zoneType":"VOGELRES_CH","name":"Rorschacher Bucht / Arbon (SG)"}},
{"type":"Feature","geometry":{"type":"Polygon","coordinates":[[[8.94992,47.21491],[8.95181,47.2155],[8.95216,47.21689],[8.94943,47.21732],[8.94208,47.21826],[8.94105,47.21571],[8.94104,47.21531],[8.93977,47.21462],[8.93878,47.21454],[8.93658,47.21487],[8.93422,47.21553],[8.93245,47.21588],[8.93126,47.21493],[8.92813,47.21307],[8.92579,47.21201],[8.92239,47.21099],[8.91992,47.2105],[8.91334,47.20902],[8.91162,47.20854],[8.90943,47.20816],[8.91003,47.20735],[8.9124,47.20743],[8.91755,47.20855],[8.91862,47.20866],[8.9195,47.20897],[8.92203,47.20947],[8.9247,47.21044],[8.92587,47.21069],[8.92784,47.21133],[8.92951,47.2117],[8.93173,47.21187],[8.93266,47.21208],[8.93357,47.21255],[8.93524,47.21294],[8.93784,47.21321],[8.93933,47.21372],[8.94121,47.21361],[8.94277,47.21377],[8.94559,47.21431],[8.9471,47.21429],[8.94886,47.21491],[8.94992,47.21491]]]},"properties":{"_zoneType":"VOGELRES_CH","name":"Zürich-Obersee: Guntliweid bis Bätzimatt (SZ)"}},
{"type":"Feature","geometry":{"type":"Polygon","coordinates":[[[8.3499,47.33416],[8.34908,47.33458],[8.34902,47.33524],[8.34785,47.33519],[8.34713,47.33586],[8.34515,47.3369],[8.34278,47.33757],[8.3414,47.33829],[8.33865,47.33942],[8.33816,47.34053],[8.33768,47.34083],[8.33747,47.34187],[8.33777,47.34296],[8.33823,47.34307],[8.33935,47.34118],[8.3407,47.34037],[8.34217,47.34023],[8.34302,47.34033],[8.34391,47.34078],[8.34464,47.34089],[8.34651,47.34204],[8.34694,47.3428],[8.34654,47.34346],[8.34501,47.34351],[8.34467,47.34266],[8.34223,47.342],[8.3412,47.34233],[8.34076,47.34281],[8.33968,47.34451],[8.33842,47.345],[8.337,47.34444],[8.33592,47.34312],[8.33562,47.34232],[8.33554,47.34058],[8.33641,47.33901],[8.33884,47.33756],[8.34074,47.33699],[8.34146,47.33666],[8.34302,47.33641],[8.34479,47.3357],[8.34723,47.33421],[8.34874,47.33342],[8.35031,47.33227],[8.35158,47.33021],[8.35204,47.32972],[8.3542,47.32913],[8.35606,47.32929],[8.3568,47.3297],[8.35906,47.32996],[8.36027,47.32991],[8.36182,47.32961],[8.36349,47.32891],[8.36284,47.32805],[8.36521,47.32669],[8.36764,47.32492],[8.36894,47.32434],[8.37098,47.32406],[8.37201,47.32358],[8.37266,47.3224],[8.37254,47.32065],[8.37209,47.31916],[8.37387,47.3192],[8.37425,47.32028],[8.37424,47.32122],[8.37535,47.32209],[8.37627,47.32221],[8.37548,47.32355],[8.37492,47.32419],[8.37452,47.3251],[8.37342,47.32598],[8.37204,47.32682],[8.37145,47.32794],[8.37087,47.32841],[8.36804,47.32963],[8.36772,47.3299],[8.3674,47.33121],[8.36703,47.33156],[8.36591,47.33198],[8.36297,47.33224],[8.36135,47.33223],[8.35907,47.33204],[8.35855,47.33266],[8.35686,47.33176],[8.35678,47.33064],[8.35578,47.33064],[8.35506,47.33088],[8.35425,47.33175],[8.35346,47.33233],[8.35185,47.33319],[8.34991,47.33389],[8.3499,47.33416]]]},"properties":{"_zoneType":"VOGELRES_CH","name":"Reuss: Bremgarten - Zufikon bis Brücke von Rottenschwil (AG)"}},
{"type":"Feature","geometry":{"type":"Polygon","coordinates":[[[7.63634,46.75339],[7.63552,46.75453],[7.63424,46.75509],[7.6337,46.75551],[7.63287,46.75516],[7.63306,46.75457],[7.63423,46.75238],[7.63355,46.75249],[7.6328,46.75348],[7.63188,46.7543],[7.63114,46.75426],[7.63325,46.75216],[7.63469,46.75038],[7.635,46.74944],[7.63594,46.74798],[7.63795,46.74677],[7.63853,46.74618],[7.63672,46.74489],[7.63551,46.74506],[7.63384,46.74422],[7.6323,46.74304],[7.63184,46.74232],[7.63125,46.74202],[7.63017,46.74237],[7.62988,46.74214],[7.6314,46.74139],[7.63068,46.74099],[7.62852,46.74077],[7.62846,46.7399],[7.63039,46.74005],[7.63121,46.74067],[7.63349,46.74043],[7.63349,46.73989],[7.63248,46.73881],[7.63251,46.7382],[7.63185,46.73784],[7.63182,46.73665],[7.63025,46.73661],[7.63018,46.73625],[7.63204,46.7355],[7.63164,46.73517],[7.6306,46.73521],[7.63007,46.73433],[7.63011,46.73364],[7.6305,46.73315],[7.63013,46.73241],[7.62921,46.73159],[7.62914,46.72993],[7.62974,46.7291],[7.63051,46.72848],[7.63058,46.72795],[7.62968,46.72744],[7.629,46.72624],[7.62965,46.72561],[7.62867,46.72555],[7.62899,46.72505],[7.62851,46.72431],[7.62793,46.72433],[7.62537,46.72549],[7.62357,46.72348],[7.62318,46.72257],[7.62339,46.72122],[7.62408,46.72038],[7.62637,46.71901],[7.62726,46.71866],[7.62993,46.71721],[7.63177,46.71586],[7.63345,46.71505],[7.6353,46.71433],[7.63618,46.71575],[7.63745,46.71655],[7.63967,46.71739],[7.64021,46.7181],[7.64122,46.71821],[7.64253,46.7181],[7.64351,46.71758],[7.64412,46.71618],[7.65739,46.73519],[7.65729,46.73547],[7.65584,46.73682],[7.65452,46.73706],[7.65387,46.73757],[7.6529,46.73972],[7.65103,46.74161],[7.64881,46.74238],[7.64754,46.74229],[7.64737,46.74199],[7.6456,46.74191],[7.64499,46.74267],[7.64371,46.74347],[7.64153,46.74437],[7.64025,46.74514],[7.6394,46.74613],[7.63883,46.74719],[7.63823,46.74788],[7.63693,46.74824],[7.63635,46.74919],[7.63676,46.75042],[7.63694,46.75166],[7.63634,46.75339]]]},"properties":{"_zoneType":"VOGELRES_CH","name":"Kanderdelta bis Hilterfingen (BE)"}},
{"type":"Feature","geometry":{"type":"Polygon","coordinates":[[[7.41829,46.97157],[7.41748,46.97158],[7.41519,46.9712],[7.41339,46.97077],[7.41217,46.97034],[7.41193,46.97006],[7.40909,46.96928],[7.40624,46.96893],[7.40462,46.96904],[7.40167,46.96964],[7.39995,46.96965],[7.39864,46.96936],[7.39549,46.96811],[7.39295,46.96731],[7.39116,46.96712],[7.38645,46.9672],[7.38508,46.96687],[7.38233,46.96653],[7.38116,46.96619],[7.37991,46.96546],[7.37937,46.96477],[7.37867,46.96348],[7.37843,46.96262],[7.37764,46.96154],[7.37681,46.96096],[7.3753,46.96053],[7.37452,46.9605],[7.37297,46.96074],[7.37161,46.96147],[7.37097,46.9621],[7.37068,46.9628],[7.37084,46.96366],[7.37128,46.96396],[7.3716,46.96613],[7.3705,46.96718],[7.36879,46.96763],[7.36457,46.96783],[7.36263,46.96749],[7.36083,46.96698],[7.35899,46.96666],[7.35906,46.96459],[7.36056,46.96482],[7.3622,46.96528],[7.36312,46.96582],[7.36465,46.96595],[7.36636,46.96527],[7.36676,46.96476],[7.3685,46.9633],[7.36977,46.96124],[7.37039,46.9606],[7.37225,46.95977],[7.37361,46.95944],[7.37497,46.95941],[7.37619,46.95956],[7.3779,46.96007],[7.37862,46.96094],[7.37962,46.96162],[7.37996,46.96297],[7.38036,46.96367],[7.38142,46.96497],[7.38355,46.96582],[7.3851,46.96602],[7.38607,46.96595],[7.3903,46.96622],[7.39375,46.96615],[7.39509,46.96629],[7.39615,46.96683],[7.39734,46.96769],[7.39838,46.96812],[7.40042,46.96866],[7.402,46.9687],[7.4034,46.96846],[7.40585,46.96821],[7.40902,46.96848],[7.41047,46.96883],[7.41325,46.96987],[7.41364,46.97012],[7.41581,46.97065],[7.41849,46.97091],[7.41829,46.97157]]]},"properties":{"_zoneType":"VOGELRES_CH","name":"Wohlensee (Halenbrücke bis Wohleibrücke) (BE)"}},
{"type":"Feature","geometry":{"type":"Polygon","coordinates":[[[6.15705,46.20995],[6.15792,46.21136],[6.15819,46.21277],[6.15782,46.21456],[6.15701,46.2169],[6.15746,46.21793],[6.15859,46.21971],[6.15881,46.22032],[6.15883,46.2215],[6.15845,46.22264],[6.15762,46.22375],[6.15638,46.2248],[6.1557,46.22606],[6.15469,46.22694],[6.15495,46.22868],[6.15578,46.23092],[6.15575,46.23217],[6.15604,46.23307],[6.15603,46.23416],[6.15564,46.23561],[6.15599,46.23679],[6.15616,46.23814],[6.15708,46.23989],[6.15732,46.24067],[6.15799,46.24178],[6.15827,46.24303],[6.15816,46.2437],[6.15904,46.24531],[6.15901,46.24656],[6.15813,46.24824],[6.15674,46.24965],[6.15802,46.25023],[6.15926,46.25129],[6.15984,46.25245],[6.16092,46.25394],[6.16262,46.25742],[6.16492,46.25898],[6.16716,46.25893],[6.16884,46.25937],[6.1702,46.26019],[6.17129,46.26151],[6.17175,46.26306],[6.17258,46.26541],[6.17327,46.26777],[6.17482,46.26998],[6.17572,46.27161],[6.17608,46.27318],[6.17652,46.27414],[6.17639,46.27575],[6.1753,46.27776],[6.17412,46.27955],[6.17332,46.28024],[6.17261,46.28141],[6.17339,46.28263],[6.17415,46.28469],[6.1749,46.28601],[6.17596,46.28668],[6.17647,46.2872],[6.1774,46.28915],[6.17944,46.28954],[6.18095,46.29],[6.18124,46.2899],[6.19372,46.30071],[6.18192,46.30461],[6.18017,46.3047],[6.17981,46.30424],[6.17796,46.3028],[6.17843,46.30268],[6.17806,46.30184],[6.17672,46.30094],[6.17508,46.30041],[6.17341,46.30014],[6.17165,46.29927],[6.16956,46.29797],[6.16841,46.29687],[6.16709,46.29514],[6.16592,46.29287],[6.16577,46.29179],[6.16614,46.28232],[6.16744,46.28005],[6.16905,46.27817],[6.16967,46.2777],[6.17025,46.2765],[6.17047,46.27569],[6.17115,46.27432],[6.17091,46.27351],[6.17041,46.27355],[6.17027,46.27283],[6.17082,46.27279],[6.17011,46.2715],[6.16813,46.26862],[6.16808,46.26806],[6.16685,46.26424],[6.1655,46.26351],[6.16394,46.2636],[6.16233,46.26315],[6.16178,46.2627],[6.16089,46.26123],[6.15842,46.2596],[6.15752,46.25833],[6.15616,46.25537],[6.15534,46.25424],[6.15383,46.25348],[6.15247,46.25241],[6.15152,46.2512],[6.15148,46.24891],[6.15203,46.24752],[6.15308,46.24699],[6.15392,46.24587],[6.15331,46.24544],[6.15313,46.24472],[6.15256,46.24436],[6.15308,46.24297],[6.15204,46.24134],[6.15218,46.24107],[6.15136,46.23995],[6.15106,46.23894],[6.15082,46.23712],[6.15047,46.23657],[6.15028,46.23556],[6.1509,46.23363],[6.15069,46.23302],[6.14999,46.23229],[6.15059,46.23171],[6.15018,46.23146],[6.15023,46.23043],[6.14977,46.22941],[6.14956,46.22844],[6.14974,46.22797],[6.1492,46.22745],[6.14902,46.22652],[6.14974,46.22548],[6.15122,46.22403],[6.15137,46.22335],[6.15315,46.22189],[6.15369,46.22089],[6.15311,46.21987],[6.15237,46.21936],[6.15245,46.2188],[6.15212,46.21808],[6.15151,46.21749],[6.15324,46.21159],[6.15305,46.21105],[6.15516,46.21013],[6.15705,46.20995]]]},"properties":{"_zoneType":"VOGELRES_CH","name":"Rive droite du Petit-Lac (GE, VD)"}},
{"type":"Feature","geometry":{"type":"Polygon","coordinates":[[[7.24007,47.00327],[7.23947,47.00359],[7.23877,47.00284],[7.23886,47.0014],[7.23811,47.00087],[7.238,46.99978],[7.23871,46.99661],[7.23926,46.99624],[7.23941,46.99547],[7.24082,46.99437],[7.24186,46.99425],[7.24203,46.99367],[7.24263,46.9932],[7.24477,46.99271],[7.2454,46.99241],[7.24781,46.99171],[7.24861,46.99158],[7.24996,46.9907],[7.25154,46.98879],[7.252,46.98713],[7.253,46.98661],[7.25447,46.98619],[7.25831,46.9849],[7.2589,46.98553],[7.25745,46.98624],[7.2552,46.98701],[7.25383,46.98766],[7.25218,46.98974],[7.25027,46.99197],[7.24912,46.99351],[7.24744,46.99553],[7.24568,46.99725],[7.24482,46.99783],[7.24143,47.00096],[7.24066,47.00182],[7.24042,47.00249],[7.24084,47.00289],[7.24007,47.00327]]]},"properties":{"_zoneType":"VOGELRES_CH","name":"Stausee Niederried (BE)"}},
{"type":"Feature","geometry":{"type":"MultiPolygon","coordinates":[[[[7.1887,47.07022],[7.18555,47.07211],[7.18471,47.07246],[7.18229,47.07039],[7.18106,47.07001],[7.17793,47.07027],[7.17656,47.07003],[7.17533,47.06955],[7.17186,47.06672],[7.1709,47.06554],[7.17033,47.06391],[7.16866,47.06195],[7.16594,47.059],[7.16585,47.05826],[7.16643,47.05742],[7.16943,47.05441],[7.17069,47.05352],[7.17454,47.05558],[7.17563,47.05659],[7.17842,47.05861],[7.17745,47.05925],[7.17848,47.05994],[7.17873,47.06126],[7.1796,47.06132],[7.18123,47.06099],[7.18193,47.06137],[7.18305,47.0629],[7.184,47.06247],[7.18485,47.06318],[7.18643,47.06416],[7.18838,47.06579],[7.18957,47.06737],[7.18973,47.06802],[7.19072,47.06896],[7.1887,47.07022]]],[[[7.10789,47.04528],[7.10912,47.04628],[7.11173,47.04732],[7.11469,47.0488],[7.11633,47.04928],[7.11947,47.05046],[7.12136,47.05134],[7.12318,47.05187],[7.1266,47.05362],[7.12761,47.05399],[7.1301,47.05534],[7.13146,47.05579],[7.13244,47.05645],[7.13488,47.05767],[7.1367,47.05843],[7.13739,47.05897],[7.13939,47.06131],[7.13961,47.0617],[7.14097,47.06302],[7.14249,47.06399],[7.14396,47.06535],[7.14653,47.06682],[7.1497,47.06877],[7.1511,47.06992],[7.15256,47.07097],[7.15422,47.07199],[7.15611,47.07396],[7.15768,47.07665],[7.15811,47.07781],[7.15823,47.07921],[7.15786,47.08008],[7.15783,47.08148],[7.15747,47.08214],[7.1561,47.08254],[7.15366,47.08218],[7.14826,47.08085],[7.14369,47.08007],[7.14173,47.07982],[7.13863,47.07911],[7.13717,47.07831],[7.13579,47.07722],[7.13403,47.07507],[7.13247,47.07267],[7.13052,47.07153],[7.12878,47.0699],[7.12616,47.06644],[7.12535,47.06562],[7.12415,47.06476],[7.12037,47.06293],[7.1179,47.06196],[7.11506,47.06093],[7.1116,47.05901],[7.10837,47.05767],[7.10631,47.05646],[7.10474,47.05576],[7.10279,47.05513],[7.09926,47.05334],[7.09546,47.05235],[7.09569,47.05194],[7.09882,47.04888],[7.09929,47.04861],[7.09969,47.04775],[7.10038,47.04721],[7.10292,47.04634],[7.10739,47.04451],[7.10789,47.04528]]]]},"properties":{"_zoneType":"VOGELRES_CH","name":"Hagneckdelta und St. Petersinsel (BE)"}},
{"type":"Feature","geometry":{"type":"Polygon","coordinates":[[[7.35987,47.16],[7.3571,47.15993],[7.35373,47.15953],[7.35124,47.15882],[7.35033,47.1584],[7.35005,47.15761],[7.35085,47.15644],[7.35149,47.15586],[7.35305,47.15482],[7.35345,47.15438],[7.35605,47.15324],[7.35549,47.15256],[7.35343,47.15249],[7.3514,47.15265],[7.34826,47.15318],[7.34681,47.15322],[7.34432,47.15303],[7.34169,47.15269],[7.3406,47.15277],[7.33934,47.15253],[7.33746,47.15159],[7.3358,47.14991],[7.33548,47.14882],[7.33541,47.14739],[7.33493,47.14613],[7.33405,47.14584],[7.33336,47.14534],[7.33125,47.14554],[7.33063,47.14513],[7.3306,47.14429],[7.33221,47.14315],[7.33325,47.14217],[7.33696,47.14302],[7.33835,47.14319],[7.34227,47.14323],[7.34634,47.14309],[7.34549,47.14407],[7.34373,47.14437],[7.34259,47.14402],[7.33967,47.14611],[7.33897,47.14647],[7.33827,47.14734],[7.33828,47.14785],[7.33893,47.14853],[7.33995,47.15002],[7.34187,47.1511],[7.34415,47.15175],[7.34616,47.15198],[7.35155,47.15126],[7.3539,47.15104],[7.35574,47.15101],[7.35712,47.1516],[7.35787,47.15294],[7.35774,47.15352],[7.35541,47.1548],[7.35413,47.1556],[7.35249,47.15682],[7.35209,47.15731],[7.35205,47.15795],[7.35351,47.15838],[7.35598,47.15883],[7.35806,47.15903],[7.36052,47.1589],[7.36053,47.15996],[7.35987,47.16]]]},"properties":{"_zoneType":"VOGELRES_CH","name":"Häftli bei Büren (BE)"}},
{"type":"Feature","geometry":{"type":"MultiPolygon","coordinates":[[[[7.57352,47.22035],[7.57377,47.22082],[7.57543,47.22257],[7.57697,47.22389],[7.57855,47.22476],[7.58204,47.22586],[7.58598,47.22692],[7.59034,47.22849],[7.58973,47.22924],[7.58778,47.22864],[7.58574,47.2278],[7.58342,47.22726],[7.58092,47.22653],[7.57885,47.22571],[7.57585,47.2248],[7.57502,47.22423],[7.57317,47.22238],[7.57201,47.22084],[7.57094,47.22008],[7.5708,47.21972],[7.56959,47.21897],[7.5685,47.21863],[7.5678,47.21786],[7.56666,47.21754],[7.56517,47.2175],[7.56364,47.21784],[7.55989,47.21765],[7.55991,47.21691],[7.5616,47.21703],[7.56433,47.21668],[7.56712,47.21674],[7.56858,47.21701],[7.56927,47.21738],[7.57025,47.21829],[7.57096,47.21851],[7.57185,47.21841],[7.57237,47.21947],[7.57303,47.22022],[7.57352,47.22035]]],[[[7.55023,47.20742],[7.55101,47.20822],[7.55145,47.20933],[7.55257,47.21134],[7.55299,47.21187],[7.5517,47.21198],[7.55062,47.21038],[7.5498,47.20868],[7.54909,47.20791],[7.54787,47.20745],[7.54314,47.20745],[7.54163,47.20728],[7.53699,47.20633],[7.53494,47.20572],[7.53392,47.20519],[7.53314,47.20423],[7.5328,47.20352],[7.53179,47.20203],[7.53088,47.20097],[7.5278,47.19897],[7.5257,47.19795],[7.5238,47.19738],[7.52147,47.19684],[7.51899,47.19658],[7.51612,47.1968],[7.51377,47.19688],[7.51182,47.19705],[7.51053,47.19698],[7.51071,47.196],[7.5121,47.19605],[7.51501,47.19553],[7.51948,47.19544],[7.52062,47.19553],[7.52318,47.19622],[7.52798,47.19773],[7.52954,47.1985],[7.53081,47.19986],[7.53173,47.20035],[7.53265,47.20123],[7.53333,47.20223],[7.53424,47.20401],[7.53487,47.20487],[7.5358,47.20534],[7.53668,47.20555],[7.54206,47.20636],[7.54351,47.20647],[7.54692,47.20633],[7.54881,47.20659],[7.54953,47.20684],[7.55023,47.20742]]]]},"properties":{"_zoneType":"VOGELRES_CH","name":"Aare bei Solothurn und Naturschutzreservat Aare Flumenthal (SO)"}},
{"type":"Feature","geometry":{"type":"Polygon","coordinates":[[[6.56943,46.73373],[6.57359,46.73946],[6.57504,46.74045],[6.57944,46.74316],[6.58184,46.74402],[6.58072,46.74482],[6.55823,46.75264],[6.55346,46.74953],[6.55346,46.74947],[6.56077,46.7427],[6.56083,46.74258],[6.56458,46.73847],[6.56582,46.73728],[6.56764,46.73533],[6.56614,46.73348],[6.56374,46.73505],[6.56249,46.73574],[6.56173,46.7345],[6.55454,46.73069],[6.55897,46.73006],[6.55549,46.72446],[6.55456,46.72279],[6.55199,46.71882],[6.55304,46.71819],[6.55714,46.71516],[6.56005,46.71312],[6.56167,46.71236],[6.56507,46.71142],[6.56582,46.71295],[6.56784,46.71229],[6.56851,46.71321],[6.56936,46.71368],[6.57009,46.71546],[6.57037,46.71559],[6.57148,46.71851],[6.57232,46.72011],[6.57057,46.72239],[6.57015,46.72327],[6.5697,46.72524],[6.56986,46.72666],[6.57041,46.72844],[6.57179,46.73079],[6.57212,46.73115],[6.57135,46.73173],[6.56837,46.73203],[6.56827,46.73213],[6.56943,46.73373]]]},"properties":{"_zoneType":"VOGELRES_CH","name":"Plaine de l’Orbe – Chavornay (VD)"}},
{"type":"Feature","geometry":{"type":"Polygon","coordinates":[[[7.05657,46.90279],[7.05709,46.9039],[7.05728,46.90519],[7.05802,46.906],[7.03568,46.92395],[7.03515,46.92471],[7.03383,46.92436],[7.03137,46.92313],[7.03111,46.92291],[7.02738,46.92097],[7.02473,46.91989],[7.02343,46.91924],[7.0225,46.91846],[7.02313,46.91663],[7.02651,46.91445],[7.02951,46.91218],[7.03572,46.90681],[7.04017,46.90334],[7.04155,46.90291],[7.04435,46.90227],[7.04961,46.90121],[7.05065,46.90134],[7.05421,46.90243],[7.05568,46.90255],[7.05657,46.90279]]]},"properties":{"_zoneType":"VOGELRES_CH","name":"Salavaux (VD)"}},
{"type":"Feature","geometry":{"type":"Polygon","coordinates":[[[6.29505,46.42491],[6.29474,46.4254],[6.29524,46.42583],[6.29549,46.42669],[6.29205,46.42522],[6.28808,46.4227],[6.28647,46.42146],[6.28247,46.41801],[6.27826,46.41444],[6.26948,46.40682],[6.26894,46.40617],[6.26844,46.40489],[6.26763,46.40355],[6.26437,46.40092],[6.25562,46.39398],[6.2535,46.39225],[6.24744,46.38751],[6.24684,46.38682],[6.2459,46.38465],[6.24693,46.38415],[6.25921,46.37744],[6.26057,46.37938],[6.26146,46.3818],[6.26274,46.38144],[6.26521,46.381],[6.26832,46.38092],[6.26996,46.38051],[6.27166,46.38026],[6.2742,46.38013],[6.27674,46.38031],[6.27919,46.3808],[6.28148,46.38156],[6.28355,46.3826],[6.28509,46.38367],[6.28635,46.3847],[6.28778,46.38616],[6.28842,46.38715],[6.28947,46.38823],[6.29024,46.38851],[6.29176,46.38943],[6.29354,46.39069],[6.29497,46.39215],[6.29602,46.39376],[6.29683,46.3959],[6.29752,46.39881],[6.29766,46.40054],[6.29741,46.4023],[6.29719,46.40282],[6.29856,46.40379],[6.29999,46.40525],[6.30119,46.40728],[6.30226,46.40838],[6.30324,46.40963],[6.30418,46.41128],[6.30509,46.41396],[6.30526,46.41607],[6.30712,46.4172],[6.29697,46.42448],[6.29542,46.42514],[6.29505,46.42491]]]},"properties":{"_zoneType":"VOGELRES_CH","name":"Pointe de Promenthoux (VD)"}},
{"type":"Feature","geometry":{"type":"Polygon","coordinates":[[[6.24152,46.30437],[6.23532,46.30649],[6.23468,46.3056],[6.23431,46.30448],[6.23434,46.30291],[6.23497,46.30171],[6.23571,46.29908],[6.23363,46.29708],[6.23188,46.29494],[6.2307,46.29263],[6.22994,46.29165],[6.22824,46.29088],[6.22513,46.28972],[6.22343,46.2887],[6.22112,46.2863],[6.2205,46.28534],[6.2191,46.28376],[6.21713,46.28189],[6.21613,46.28122],[6.21504,46.27985],[6.21472,46.27872],[6.21351,46.27669],[6.21135,46.27473],[6.21068,46.27402],[6.20942,46.27323],[6.20861,46.27242],[6.2078,46.27081],[6.20628,46.26973],[6.20456,46.2697],[6.20322,46.26947],[6.20108,46.26932],[6.19812,46.2688],[6.19655,46.26827],[6.19462,46.26732],[6.19334,46.26644],[6.19208,46.26519],[6.19126,46.26412],[6.19013,46.2624],[6.18984,46.26146],[6.18801,46.25902],[6.18765,46.25748],[6.18771,46.25579],[6.18714,46.25496],[6.18658,46.25357],[6.1865,46.25279],[6.1867,46.2517],[6.18715,46.25075],[6.18682,46.25001],[6.18558,46.24807],[6.1853,46.24731],[6.18508,46.24531],[6.18574,46.24262],[6.1869,46.24105],[6.18696,46.24015],[6.1862,46.23912],[6.18584,46.23766],[6.18525,46.23653],[6.18485,46.23522],[6.18308,46.23354],[6.18114,46.23122],[6.17902,46.22961],[6.17794,46.22834],[6.17668,46.22717],[6.17597,46.22576],[6.17406,46.22316],[6.17317,46.22228],[6.17249,46.22103],[6.17075,46.21874],[6.16917,46.21833],[6.16711,46.21747],[6.16581,46.21638],[6.17089,46.21127],[6.17312,46.21229],[6.17241,46.21318],[6.17126,46.21393],[6.17293,46.21451],[6.175,46.2148],[6.17558,46.21541],[6.17886,46.21978],[6.18219,46.22433],[6.1826,46.22523],[6.1832,46.22556],[6.18405,46.22678],[6.18618,46.22831],[6.18742,46.22983],[6.18894,46.23129],[6.18947,46.23201],[6.19033,46.23274],[6.19115,46.23397],[6.19159,46.23559],[6.19248,46.23653],[6.19256,46.23734],[6.19313,46.23811],[6.19367,46.23975],[6.19335,46.24085],[6.19383,46.2414],[6.19396,46.24264],[6.19358,46.24356],[6.19197,46.24423],[6.19156,46.24538],[6.19183,46.24675],[6.19237,46.24676],[6.19308,46.24892],[6.19389,46.25028],[6.19387,46.25089],[6.19298,46.25286],[6.19401,46.25451],[6.19416,46.25535],[6.19468,46.25635],[6.1947,46.25749],[6.19414,46.25755],[6.19519,46.25847],[6.19653,46.26059],[6.19652,46.26111],[6.19699,46.26201],[6.19781,46.26308],[6.19851,46.26372],[6.20043,46.2646],[6.20231,46.2649],[6.20445,46.26502],[6.2058,46.26528],[6.20843,46.26515],[6.20994,46.26564],[6.21099,46.26666],[6.21218,46.26724],[6.2137,46.26883],[6.21428,46.27024],[6.21553,46.27092],[6.21638,46.2719],[6.2175,46.27283],[6.21931,46.27456],[6.22035,46.27624],[6.22109,46.27766],[6.22117,46.27838],[6.22175,46.27855],[6.22479,46.28157],[6.22504,46.28196],[6.22692,46.28387],[6.22691,46.28423],[6.22764,46.28479],[6.22846,46.28586],[6.23152,46.28699],[6.23418,46.28817],[6.23563,46.28913],[6.23606,46.29013],[6.23691,46.2909],[6.2369,46.29137],[6.23756,46.29277],[6.23851,46.2938],[6.23908,46.29463],[6.24076,46.29621],[6.24219,46.29772],[6.24262,46.2987],[6.24145,46.30181],[6.24136,46.30305],[6.24072,46.30376],[6.24152,46.30437]]]},"properties":{"_zoneType":"VOGELRES_CH","name":"Rive gauche du Petit-Lac (GE)"}},
{"type":"Feature","geometry":{"type":"Polygon","coordinates":[[[8.84149,46.17552],[8.84127,46.17749],[8.84086,46.17822],[8.84015,46.17885],[8.84127,46.14479],[8.843,46.14483],[8.84485,46.14461],[8.84679,46.14508],[8.84712,46.14503],[8.84916,46.14593],[8.85416,46.14716],[8.85483,46.14793],[8.85556,46.14919],[8.85827,46.14876],[8.8601,46.14883],[8.86508,46.14972],[8.86676,46.1497],[8.86685,46.14935],[8.87178,46.14916],[8.87542,46.14965],[8.87705,46.14953],[8.87825,46.14984],[8.88324,46.15078],[8.88468,46.15114],[8.88552,46.15162],[8.88908,46.15412],[8.88978,46.15469],[8.89013,46.15604],[8.88588,46.16451],[8.88584,46.1669],[8.88554,46.16761],[8.88466,46.16807],[8.87625,46.16818],[8.87137,46.16831],[8.86858,46.16869],[8.86667,46.1691],[8.8643,46.16982],[8.86163,46.17099],[8.85915,46.17233],[8.85597,46.17371],[8.85386,46.17436],[8.85096,46.17511],[8.84976,46.17501],[8.8474,46.17444],[8.84673,46.17465],[8.84548,46.17416],[8.84485,46.17408],[8.84314,46.17431],[8.84149,46.17552]]]},"properties":{"_zoneType":"VOGELRES_CH","name":"Bolle di Magadino (TI)"}},
{"type":"Feature","geometry":{"type":"Polygon","coordinates":[[[8.77308,47.36533],[8.77184,47.36506],[8.76973,47.36419],[8.76721,47.363],[8.76703,47.36222],[8.76734,47.36086],[8.76677,47.3596],[8.7661,47.35854],[8.76794,47.35635],[8.76883,47.35499],[8.76932,47.35367],[8.77057,47.35169],[8.77172,47.35075],[8.77245,47.34945],[8.77266,47.34874],[8.77419,47.34681],[8.77471,47.34564],[8.77483,47.34252],[8.77477,47.34134],[8.77555,47.33973],[8.77559,47.33827],[8.77632,47.33689],[8.77738,47.33633],[8.77808,47.33625],[8.77859,47.3349],[8.77914,47.33434],[8.78103,47.33323],[8.78206,47.33209],[8.78455,47.33309],[8.78628,47.33361],[8.78786,47.33382],[8.78807,47.33362],[8.78936,47.33397],[8.79281,47.33356],[8.79537,47.33379],[8.7964,47.33408],[8.80083,47.33608],[8.80319,47.33726],[8.80421,47.33701],[8.80607,47.33708],[8.80593,47.3394],[8.80543,47.34062],[8.80348,47.34322],[8.8013,47.34293],[8.80008,47.34251],[8.79987,47.34271],[8.79912,47.34484],[8.79874,47.34699],[8.79799,47.34897],[8.79914,47.34916],[8.80024,47.3499],[8.80085,47.35051],[8.80015,47.35177],[8.79961,47.3513],[8.79845,47.35169],[8.79762,47.3514],[8.79714,47.35206],[8.7962,47.35221],[8.7955,47.35277],[8.79391,47.35465],[8.79344,47.35465],[8.79284,47.35392],[8.79223,47.35371],[8.79148,47.3539],[8.79048,47.35477],[8.79032,47.35539],[8.78878,47.35502],[8.78783,47.35657],[8.78861,47.35692],[8.78689,47.3587],[8.78618,47.35847],[8.78546,47.3599],[8.78302,47.36276],[8.78301,47.36327],[8.7821,47.36357],[8.78144,47.36416],[8.77984,47.36446],[8.77862,47.36427],[8.77798,47.36439],[8.77744,47.36512],[8.77308,47.36533]]]},"properties":{"_zoneType":"VOGELRES_CH","name":"Pfäffikersee (ZH)"}},
{"type":"Feature","geometry":{"type":"Polygon","coordinates":[[[8.66418,47.37251],[8.66296,47.3732],[8.66123,47.37363],[8.65963,47.37339],[8.65678,47.37253],[8.65591,47.37253],[8.65552,47.37216],[8.65467,47.37205],[8.65345,47.37127],[8.65312,47.37087],[8.65346,47.3696],[8.65429,47.36812],[8.65315,47.36826],[8.65225,47.36766],[8.65229,47.36729],[8.653,47.3668],[8.65251,47.36578],[8.6527,47.36465],[8.65243,47.36301],[8.65379,47.36073],[8.65645,47.3583],[8.65827,47.35677],[8.66013,47.35486],[8.66117,47.35428],[8.66389,47.35384],[8.66385,47.35304],[8.66539,47.35049],[8.66593,47.35007],[8.66717,47.34843],[8.66826,47.34751],[8.66933,47.34692],[8.67071,47.3465],[8.67315,47.3463],[8.67435,47.34571],[8.67557,47.34567],[8.67563,47.34502],[8.67762,47.34286],[8.67841,47.34137],[8.67868,47.34025],[8.67938,47.33995],[8.67944,47.33946],[8.68074,47.33897],[8.68228,47.33715],[8.68202,47.33667],[8.68291,47.33571],[8.68278,47.33552],[8.68443,47.33412],[8.68518,47.33303],[8.68441,47.33284],[8.68591,47.33107],[8.68747,47.32975],[8.68837,47.32808],[8.68916,47.32715],[8.6894,47.32637],[8.68939,47.3245],[8.68993,47.32268],[8.69074,47.32213],[8.69283,47.321],[8.69602,47.32073],[8.69753,47.32088],[8.69781,47.32023],[8.69781,47.31927],[8.69735,47.31885],[8.69883,47.31877],[8.69974,47.31852],[8.70227,47.32042],[8.70426,47.31933],[8.7076,47.32204],[8.70832,47.32254],[8.70648,47.32374],[8.70927,47.32592],[8.70996,47.32712],[8.71064,47.32964],[8.70989,47.3303],[8.70842,47.33068],[8.708,47.33272],[8.70759,47.33358],[8.70707,47.33392],[8.70408,47.33468],[8.70234,47.33523],[8.69865,47.33696],[8.69806,47.33734],[8.69629,47.33748],[8.69536,47.33788],[8.69485,47.33844],[8.69386,47.33897],[8.69161,47.34078],[8.69149,47.34135],[8.69083,47.34203],[8.6907,47.34296],[8.69009,47.34373],[8.69006,47.34452],[8.68974,47.345],[8.6897,47.34611],[8.68992,47.34664],[8.68982,47.34742],[8.69019,47.34874],[8.68968,47.34972],[8.68983,47.35042],[8.68945,47.35084],[8.68958,47.35174],[8.68927,47.35252],[8.68826,47.3539],[8.68639,47.35579],[8.68575,47.35624],[8.68499,47.35727],[8.68463,47.35886],[8.68401,47.35953],[8.68319,47.35982],[8.68264,47.36046],[8.68171,47.36108],[8.68171,47.36149],[8.68064,47.36249],[8.67583,47.36344],[8.67542,47.36365],[8.67467,47.36473],[8.67383,47.36507],[8.67135,47.36703],[8.66901,47.36925],[8.66818,47.36942],[8.66823,47.37006],[8.66736,47.37021],[8.66654,47.37096],[8.66588,47.37115],[8.66418,47.37251]]]},"properties":{"_zoneType":"VOGELRES_CH","name":"Greifensee (ZH)"}},
{"type":"Feature","geometry":{"type":"Polygon","coordinates":[[[8.48776,47.51551],[8.4885,47.51589],[8.48929,47.5174],[8.4885,47.51837],[8.48708,47.51941],[8.48407,47.51822],[8.48283,47.51747],[8.48011,47.51535],[8.47911,47.51425],[8.4786,47.51322],[8.47837,47.51233],[8.47847,47.51093],[8.47819,47.51084],[8.47926,47.50897],[8.47946,47.50792],[8.47932,47.50649],[8.47785,47.50137],[8.47725,47.50012],[8.47812,47.49944],[8.47641,47.49879],[8.47545,47.49786],[8.47337,47.49524],[8.473,47.49437],[8.47333,47.49353],[8.47531,47.49359],[8.4768,47.49379],[8.47776,47.49352],[8.47993,47.49462],[8.48054,47.49462],[8.48204,47.49508],[8.48404,47.49602],[8.48516,47.49675],[8.48902,47.49885],[8.49036,47.499],[8.49203,47.49958],[8.49105,47.50032],[8.49067,47.50172],[8.49064,47.50243],[8.49,47.50474],[8.48919,47.50651],[8.48847,47.50775],[8.48742,47.50911],[8.48647,47.51137],[8.48538,47.51325],[8.48476,47.5139],[8.48454,47.51467],[8.4868,47.51546],[8.48776,47.51551]]]},"properties":{"_zoneType":"VOGELRES_CH","name":"Neeracher Ried (ZH)"}},
{"type":"Feature","geometry":{"type":"Polygon","coordinates":[[[8.01709,47.1807],[8.01187,47.18072],[8.01178,47.17757],[8.01193,47.17757],[8.00939,47.17307],[8.00564,47.17309],[8.00566,47.17288],[8.00466,47.17097],[8.00408,47.16667],[8.00587,47.16553],[8.00704,47.16443],[8.00667,47.16351],[8.0071,47.1624],[8.00744,47.16204],[8.00828,47.16199],[8.00885,47.16164],[8.01578,47.1601],[8.022,47.15662],[8.02315,47.15779],[8.02684,47.1571],[8.03123,47.15844],[8.03447,47.15906],[8.03694,47.16122],[8.04207,47.16626],[8.04263,47.16836],[8.04066,47.1691],[8.04211,47.17008],[8.04158,47.17055],[8.04176,47.17208],[8.04021,47.17304],[8.03413,47.17549],[8.03163,47.17455],[8.02946,47.17386],[8.02834,47.17389],[8.0281,47.17839],[8.02171,47.1784],[8.02195,47.17927],[8.01709,47.1807]]]},"properties":{"_zoneType":"VOGELRES_CH","name":"Wauwilermoos (LU)"}},
{"type":"Feature","geometry":{"type":"Polygon","coordinates":[[[7.16688,46.79985],[7.16666,46.7999],[7.16558,46.79836],[7.16424,46.79807],[7.16374,46.79763],[7.16195,46.7972],[7.16059,46.79643],[7.1602,46.79576],[7.16021,46.79409],[7.16062,46.79429],[7.16113,46.79345],[7.16195,46.79293],[7.16235,46.79215],[7.16142,46.79199],[7.16071,46.78972],[7.16216,46.78943],[7.16218,46.78827],[7.16133,46.78582],[7.16064,46.78532],[7.15915,46.78533],[7.1578,46.78651],[7.15875,46.78737],[7.1584,46.78812],[7.1576,46.78875],[7.15765,46.78992],[7.15665,46.78913],[7.15584,46.79117],[7.15437,46.7917],[7.15335,46.79168],[7.15216,46.79083],[7.15185,46.78978],[7.15059,46.78971],[7.14928,46.79027],[7.14768,46.79126],[7.14681,46.79138],[7.14629,46.79106],[7.14461,46.79059],[7.14434,46.79035],[7.14459,46.78905],[7.14587,46.78931],[7.14616,46.7901],[7.14671,46.79035],[7.14746,46.79026],[7.14827,46.78907],[7.14898,46.78832],[7.15045,46.78759],[7.15263,46.78736],[7.15394,46.78766],[7.15418,46.78807],[7.15388,46.78884],[7.15458,46.79017],[7.15571,46.78837],[7.15476,46.78761],[7.15517,46.78711],[7.1552,46.78649],[7.1557,46.78575],[7.15658,46.78525],[7.15681,46.7847],[7.15744,46.78434],[7.15748,46.78388],[7.15892,46.78344],[7.16061,46.78318],[7.16136,46.78326],[7.16298,46.78373],[7.16414,46.78441],[7.16516,46.78576],[7.16496,46.78703],[7.1664,46.78679],[7.16629,46.78747],[7.16517,46.78896],[7.16448,46.78915],[7.16479,46.78963],[7.16623,46.78954],[7.16675,46.79105],[7.16712,46.79112],[7.16823,46.79066],[7.16856,46.79095],[7.16941,46.79093],[7.16973,46.79171],[7.169,46.79257],[7.16948,46.79337],[7.16936,46.79427],[7.16901,46.79433],[7.16775,46.79549],[7.1689,46.79634],[7.16949,46.79703],[7.16935,46.79824],[7.16818,46.79966],[7.16688,46.79985]]]},"properties":{"_zoneType":"VOGELRES_CH","name":"Lac de Pérolles (FR)"}},
{"type":"Feature","geometry":{"type":"Polygon","coordinates":[[[7.10882,46.6133],[7.10761,46.61376],[7.10706,46.61439],[7.10565,46.61551],[7.10552,46.61617],[7.10583,46.61845],[7.10538,46.6194],[7.10553,46.62083],[7.09629,46.61775],[7.09613,46.61719],[7.09607,46.61559],[7.09514,46.61429],[7.09778,46.61256],[7.10005,46.61173],[7.10188,46.60956],[7.10257,46.60953],[7.10464,46.60905],[7.10526,46.60967],[7.10588,46.60942],[7.1071,46.61019],[7.10786,46.61002],[7.10959,46.61018],[7.10973,46.61112],[7.11033,46.61238],[7.11,46.6133],[7.10882,46.6133]]]},"properties":{"_zoneType":"VOGELRES_CH","name":"Lac de la Gruyère à Broc (FR)"}},
{"type":"Feature","geometry":{"type":"Polygon","coordinates":[[[7.12637,46.96154],[7.12326,46.96007],[7.12248,46.96091],[7.11873,46.95907],[7.11927,46.95802],[7.11931,46.95748],[7.11882,46.95535],[7.12908,46.93989],[7.13211,46.9411],[7.13192,46.9417],[7.13326,46.94249],[7.13354,46.94299],[7.13431,46.94338],[7.13416,46.94447],[7.13906,46.94489],[7.14069,46.94493],[7.14257,46.94763],[7.142,46.94892],[7.14173,46.94999],[7.14381,46.95069],[7.14126,46.95385],[7.14101,46.95374],[7.14,46.95512],[7.13921,46.95485],[7.13824,46.95582],[7.13733,46.95629],[7.1362,46.95779],[7.13531,46.95829],[7.13297,46.96005],[7.13228,46.96044],[7.12943,46.95913],[7.12878,46.95964],[7.12981,46.96018],[7.12963,46.96048],[7.12843,46.95992],[7.12637,46.96154]]]},"properties":{"_zoneType":"VOGELRES_CH","name":"Chablais (Lac de Morat) (FR)"}},
{"type":"Feature","geometry":{"type":"MultiPolygon","coordinates":[[[[8.97907,47.20425],[8.97568,47.20955],[8.97537,47.20946],[8.97539,47.20764],[8.97573,47.20676],[8.97579,47.20506],[8.97881,47.20415],[8.97907,47.20425]]],[[[8.99682,47.21259],[8.98885,47.21834],[8.98609,47.21896],[8.98114,47.21902],[8.98201,47.21722],[8.97487,47.2144],[8.97568,47.21316],[8.97655,47.21286],[8.9773,47.21171],[8.97695,47.21118],[8.98101,47.20489],[8.98777,47.2043],[8.98818,47.20686],[8.98886,47.20876],[8.98975,47.20855],[8.99682,47.21259]]]]},"properties":{"_zoneType":"VOGELRES_CH","name":"Benkner-, Burger- und Kaltbrunner-Riet (SG)"}},
{"type":"Feature","geometry":{"type":"Polygon","coordinates":[[[8.80487,47.68133],[8.80119,47.68119],[8.80138,47.67934],[8.80114,47.67893],[8.79999,47.67804],[8.79904,47.67768],[8.79909,47.67711],[8.79824,47.67673],[8.79932,47.67563],[8.80167,47.67715],[8.80242,47.6774],[8.80361,47.67745],[8.80564,47.67695],[8.80864,47.67599],[8.81052,47.67603],[8.8129,47.67626],[8.81466,47.67703],[8.81561,47.67725],[8.81707,47.67719],[8.81826,47.67696],[8.82071,47.67592],[8.82154,47.67568],[8.82439,47.67516],[8.82608,47.67461],[8.82908,47.67425],[8.83044,47.67366],[8.83194,47.67244],[8.83372,47.67188],[8.83571,47.67059],[8.83748,47.66857],[8.83909,47.66584],[8.83998,47.6646],[8.84095,47.66353],[8.84162,47.66324],[8.84249,47.66336],[8.84371,47.66242],[8.8455,47.66212],[8.84767,47.66212],[8.8483,47.66188],[8.84971,47.66087],[8.85077,47.66043],[8.8523,47.66038],[8.85294,47.66022],[8.85531,47.65919],[8.85644,47.65833],[8.85677,47.65838],[8.85879,47.65774],[8.86004,47.65714],[8.86115,47.65635],[8.86232,47.65527],[8.86317,47.65477],[8.86545,47.65375],[8.86726,47.65341],[8.86814,47.65385],[8.86891,47.65391],[8.86953,47.65359],[8.86936,47.65224],[8.87061,47.65175],[8.87188,47.65199],[8.87365,47.65183],[8.87382,47.65239],[8.87515,47.65309],[8.87579,47.65374],[8.87703,47.65383],[8.87891,47.65336],[8.88164,47.65283],[8.88287,47.65234],[8.88332,47.65175],[8.88356,47.65078],[8.88517,47.64876],[8.88658,47.64768],[8.88711,47.64754],[8.89038,47.64521],[8.89125,47.64445],[8.89236,47.644],[8.8931,47.64417],[8.89485,47.64426],[8.89507,47.64814],[8.8935,47.64844],[8.89113,47.64943],[8.88921,47.65058],[8.88624,47.6527],[8.88524,47.65329],[8.88319,47.65407],[8.88169,47.65452],[8.87976,47.65494],[8.87831,47.65505],[8.8754,47.65495],[8.87545,47.65707],[8.87369,47.65719],[8.87223,47.6576],[8.87023,47.65769],[8.86934,47.6581],[8.86774,47.65776],[8.86723,47.65812],[8.86371,47.65854],[8.85979,47.65845],[8.85838,47.65924],[8.8581,47.65914],[8.85674,47.65994],[8.85663,47.66047],[8.85516,47.66188],[8.8538,47.66256],[8.85275,47.66291],[8.85032,47.66331],[8.85003,47.66357],[8.84684,47.66459],[8.84528,47.66479],[8.84507,47.66525],[8.84551,47.66575],[8.84372,47.66617],[8.84247,47.66731],[8.84198,47.66813],[8.84196,47.66937],[8.84163,47.66972],[8.84162,47.67071],[8.8362,47.67367],[8.83499,47.67391],[8.83245,47.67462],[8.83099,47.67527],[8.82937,47.67556],[8.8278,47.67682],[8.82637,47.6769],[8.82221,47.67783],[8.82037,47.67804],[8.819,47.67845],[8.81677,47.67881],[8.81388,47.67909],[8.8128,47.67906],[8.81305,47.67977],[8.80924,47.67984],[8.80867,47.68001],[8.80768,47.68078],[8.8074,47.68127],[8.80623,47.68094],[8.80487,47.68133]]]},"properties":{"_zoneType":"VOGELRES_CH","name":"Stein am Rhein (SH,TG)"}},
{"type":"Feature","geometry":{"type":"MultiPolygon","coordinates":[[[[8.2267,47.60437],[8.2267,47.60491],[8.22517,47.60553],[8.22478,47.60513],[8.22603,47.60444],[8.2267,47.60437]]],[[[8.2223,47.60558],[8.22171,47.60475],[8.22069,47.60205],[8.2203,47.60195],[8.21973,47.6002],[8.21898,47.59877],[8.21853,47.5983],[8.21719,47.59754],[8.21509,47.59507],[8.2147,47.59449],[8.2151,47.59313],[8.21611,47.59195],[8.2171,47.59138],[8.21902,47.59107],[8.21985,47.59111],[8.2221,47.59021],[8.22295,47.58958],[8.22348,47.58998],[8.22433,47.58924],[8.2266,47.58859],[8.22705,47.58809],[8.2274,47.58645],[8.22562,47.58618],[8.22127,47.5846],[8.22168,47.58297],[8.22501,47.57825],[8.22563,47.57786],[8.22785,47.57798],[8.23002,47.57675],[8.23356,47.57763],[8.23368,47.5774],[8.23536,47.57784],[8.23561,47.57754],[8.23662,47.57787],[8.23818,47.57684],[8.23723,47.57641],[8.23765,47.57582],[8.23932,47.57633],[8.24223,47.57526],[8.24454,47.57293],[8.2453,47.57204],[8.24578,47.57232],[8.2449,47.57338],[8.24793,47.57446],[8.25154,47.57308],[8.25321,47.57373],[8.25123,47.57543],[8.24685,47.57852],[8.24571,47.57947],[8.24315,47.58118],[8.24132,47.58267],[8.24037,47.58319],[8.24216,47.58425],[8.24149,47.58487],[8.24182,47.58508],[8.24081,47.58601],[8.2414,47.58653],[8.24081,47.58718],[8.23986,47.58881],[8.23822,47.59007],[8.23676,47.59082],[8.23632,47.59191],[8.23535,47.59278],[8.23418,47.59419],[8.23277,47.59475],[8.22914,47.59563],[8.22656,47.59648],[8.22589,47.59784],[8.22502,47.59844],[8.22498,47.59927],[8.22533,47.59999],[8.22551,47.6019],[8.22594,47.60203],[8.22612,47.60309],[8.22736,47.60288],[8.22738,47.60371],[8.22513,47.60411],[8.2223,47.60558]]]]},"properties":{"_zoneType":"VOGELRES_CH","name":"Klingnauerstausee (AG)"}},
{"type":"Feature","geometry":{"type":"MultiPolygon","coordinates":[[[[6.99484,47.00671],[6.99503,47.0069],[6.99408,47.00766],[6.99426,47.00835],[6.99334,47.0086],[6.9891,47.00683],[6.98943,47.00638],[6.99125,47.0046],[6.99418,47.00253],[6.9967,47.00137],[6.99932,47.0005],[7.00159,47.00009],[7.00347,46.99991],[7.00688,47.00008],[7.00936,47.00058],[7.01245,47.00152],[7.01136,47.00284],[7.00956,47.00275],[7.00853,47.00245],[7.00637,47.00233],[7.00465,47.00278],[7.0039,47.00318],[7.00353,47.00378],[7.00297,47.00396],[7.0025,47.00458],[7.00192,47.00445],[7.00076,47.00474],[7,47.0045],[6.99943,47.00513],[6.99864,47.0054],[6.99774,47.00532],[6.99667,47.00488],[6.99596,47.006],[6.99484,47.00671]]],[[[7.04278,47.01077],[7.04239,47.01116],[7.03979,47.01305],[7.03462,47.01042],[7.03464,47.01125],[7.03402,47.01196],[7.03333,47.01226],[7.03146,47.0124],[7.03008,47.01041],[7.02916,47.0096],[7.02674,47.00796],[7.02525,47.00662],[7.01509,46.99816],[7.01567,46.99736],[7.01745,46.99528],[7.0209,46.99148],[7.02898,46.98206],[7.02876,46.98142],[7.02755,46.98114],[7.02899,46.97921],[7.02824,46.96886],[7.02797,46.96475],[7.02904,46.96375],[7.02873,46.9636],[7.03117,46.9615],[7.0326,46.96236],[7.03418,46.963],[7.04399,46.96879],[7.04701,46.97033],[7.05234,46.97293],[7.05373,46.97369],[7.056,46.97542],[7.05732,46.97467],[7.05815,46.97445],[7.06016,46.97366],[7.06109,46.97315],[7.06418,46.97065],[7.0667,46.96938],[7.06796,46.96897],[7.07005,46.96885],[7.07116,46.96914],[7.0733,46.97004],[7.07511,46.97056],[7.07687,46.97133],[7.08201,46.97462],[7.0834,46.97539],[7.08502,46.97603],[7.08754,46.97646],[7.09413,46.99064],[7.08981,46.99179],[7.09104,46.99378],[7.09063,46.99395],[7.0894,46.99499],[7.08558,46.99387],[7.08366,46.99506],[7.07981,46.99403],[7.06781,46.99115],[7.06707,46.98823],[7.06525,46.9901],[7.06253,46.99374],[7.05759,47.00049],[7.04798,47.00952],[7.04393,47.00947],[7.04278,47.01077]]]]},"properties":{"_zoneType":"VOGELRES_CH","name":"Fanel jusqu'à Chablais de Cudrefin, Pointe de Marin (BE,FR,VD,NE)"}},
{"type":"Feature","geometry":{"type":"Polygon","coordinates":[[[6.93909,46.90895],[6.94288,46.91042],[6.94867,46.91387],[6.95089,46.91542],[6.95058,46.91572],[6.95152,46.91655],[6.95203,46.91778],[6.95345,46.91864],[6.9506,46.92016],[6.94632,46.92305],[6.92385,46.91045],[6.91875,46.90776],[6.90827,46.904],[6.89835,46.90052],[6.90105,46.89725],[6.90073,46.89644],[6.90135,46.89628],[6.9015,46.89554],[6.9038,46.89323],[6.90464,46.89205],[6.90601,46.89259],[6.90646,46.89214],[6.91368,46.89527],[6.92423,46.89997],[6.92543,46.90055],[6.92661,46.90187],[6.92807,46.90298],[6.92785,46.9035],[6.92906,46.9047],[6.93136,46.90592],[6.93453,46.90735],[6.93523,46.90722],[6.93656,46.90758],[6.93909,46.90895]]]},"properties":{"_zoneType":"VOGELRES_CH","name":"Chevroux jusqu'à Portalban (FR, VD)"}},
{"type":"Feature","geometry":{"type":"Polygon","coordinates":[[[6.78187,46.81554],[6.781,46.81608],[6.78103,46.81719],[6.78068,46.81774],[6.77965,46.81839],[6.74187,46.8086],[6.73789,46.80762],[6.73893,46.80632],[6.74018,46.80606],[6.73991,46.805],[6.74106,46.80451],[6.74171,46.80393],[6.7411,46.80326],[6.7453,46.80196],[6.74543,46.80198],[6.75114,46.80031],[6.75398,46.79977],[6.75717,46.7996],[6.75781,46.79851],[6.76176,46.80046],[6.76318,46.80136],[6.76467,46.80269],[6.76825,46.80477],[6.77072,46.80651],[6.76838,46.80808],[6.7733,46.812],[6.77538,46.8128],[6.77619,46.81204],[6.77778,46.81229],[6.77926,46.81324],[6.78004,46.81347],[6.78243,46.81486],[6.78288,46.81542],[6.78254,46.81585],[6.78187,46.81554]]]},"properties":{"_zoneType":"VOGELRES_CH","name":"Yvonand jusqu'à Cheyres (FR, VD)"}},
{"type":"Feature","geometry":{"type":"Polygon","coordinates":[[[6.65009,46.8083],[6.64935,46.80913],[6.6485,46.80979],[6.64704,46.80887],[6.64768,46.80843],[6.64675,46.80813],[6.64502,46.80726],[6.64286,46.80596],[6.64064,46.80522],[6.63823,46.80424],[6.6365,46.80366],[6.63651,46.80281],[6.63567,46.8018],[6.63466,46.80141],[6.63347,46.80224],[6.63239,46.80187],[6.63139,46.80127],[6.63069,46.80037],[6.63104,46.79999],[6.63251,46.79956],[6.63216,46.79747],[6.63211,46.79531],[6.63293,46.79414],[6.63277,46.79387],[6.63508,46.79109],[6.63573,46.79131],[6.63717,46.78937],[6.63815,46.79015],[6.63993,46.78803],[6.64305,46.78977],[6.64473,46.78946],[6.6469,46.78783],[6.64788,46.78745],[6.64978,46.78749],[6.65132,46.78709],[6.65411,46.78716],[6.65563,46.78671],[6.65696,46.78605],[6.65782,46.7851],[6.65664,46.78477],[6.65715,46.78392],[6.655,46.7832],[6.65556,46.78227],[6.65557,46.78167],[6.65678,46.78041],[6.66553,46.78493],[6.66684,46.7855],[6.67533,46.78879],[6.67851,46.78976],[6.68456,46.79136],[6.68744,46.79246],[6.69217,46.79494],[6.69371,46.79569],[6.69553,46.79645],[6.70025,46.79812],[6.70282,46.79882],[6.7045,46.79913],[6.70091,46.80298],[6.68343,46.79649],[6.66661,46.79021],[6.65257,46.80555],[6.65009,46.8083]]]},"properties":{"_zoneType":"VOGELRES_CH","name":"Grandson jusqu'à Champ-Pittet (VD)"}},
{"type":"Feature","geometry":{"type":"Polygon","coordinates":[[[6.81194,46.47025],[6.81067,46.47038],[6.81042,46.46982],[6.80927,46.46926],[6.80896,46.46889],[6.81505,46.44803],[6.82113,46.42717],[6.80534,46.39408],[6.80562,46.39362],[6.80434,46.39313],[6.80446,46.39189],[6.80473,46.3913],[6.80475,46.39037],[6.80537,46.38921],[6.80648,46.38913],[6.80801,46.38867],[6.81046,46.38821],[6.81125,46.3878],[6.81245,46.38764],[6.81428,46.38718],[6.81507,46.38623],[6.81574,46.38596],[6.81677,46.38594],[6.81851,46.38504],[6.81907,46.38491],[6.8203,46.3851],[6.82266,46.38449],[6.82323,46.3848],[6.82372,46.3845],[6.82345,46.3836],[6.82391,46.38303],[6.82482,46.38295],[6.82598,46.38326],[6.82804,46.383],[6.83071,46.38374],[6.8312,46.38342],[6.83282,46.38351],[6.83464,46.38389],[6.83544,46.38437],[6.83631,46.38431],[6.83685,46.38461],[6.84067,46.386],[6.84175,46.38625],[6.84397,46.38699],[6.84462,46.38735],[6.84717,46.38753],[6.84874,46.38744],[6.8498,46.38692],[6.85092,46.38672],[6.85204,46.38563],[6.85304,46.38511],[6.8543,46.38331],[6.85484,46.3823],[6.8554,46.38036],[6.85697,46.37992],[6.85747,46.37946],[6.85758,46.37852],[6.85819,46.37758],[6.85974,46.37654],[6.86191,46.37434],[6.86313,46.37333],[6.86442,46.37277],[6.86678,46.37217],[6.86794,46.37156],[6.86972,46.37241],[6.87032,46.37209],[6.87173,46.37189],[6.87279,46.37084],[6.87494,46.37087],[6.87595,46.37154],[6.87569,46.37195],[6.8739,46.3737],[6.87266,46.37471],[6.87125,46.37561],[6.86925,46.37674],[6.87033,46.37751],[6.87382,46.37932],[6.87458,46.38017],[6.87556,46.3805],[6.87408,46.38112],[6.8728,46.38202],[6.87103,46.38415],[6.87222,46.38469],[6.87163,46.38528],[6.87522,46.38761],[6.87673,46.38762],[6.87726,46.38778],[6.87996,46.38795],[6.8811,46.38862],[6.88129,46.38903],[6.88246,46.38894],[6.88408,46.38908],[6.88537,46.38899],[6.8902,46.38843],[6.89247,46.38896],[6.89444,46.38959],[6.89647,46.38986],[6.89948,46.39077],[6.9033,46.39152],[6.90444,46.39149],[6.90582,46.39098],[6.90613,46.39106],[6.9074,46.39241],[6.91039,46.39393],[6.91152,46.39431],[6.91314,46.39466],[6.9141,46.39451],[6.9151,46.39389],[6.91641,46.39345],[6.91734,46.39336],[6.91948,46.39375],[6.92112,46.39454],[6.92038,46.39511],[6.91977,46.39609],[6.92321,46.39709],[6.92497,46.39895],[6.92548,46.4005],[6.92538,46.40145],[6.92505,46.40192],[6.92518,46.40246],[6.92701,46.4033],[6.92815,46.40438],[6.92847,46.4044],[6.93004,46.40639],[6.93055,46.40723],[6.93087,46.40836],[6.93096,46.40944],[6.93069,46.41071],[6.92979,46.41237],[6.9294,46.41258],[6.92871,46.41356],[6.92701,46.41445],[6.92759,46.41504],[6.92771,46.41639],[6.9273,46.41816],[6.9268,46.41874],[6.9255,46.41923],[6.92347,46.42087],[6.92324,46.42141],[6.92367,46.42366],[6.9236,46.42424],[6.92271,46.4251],[6.92119,46.42717],[6.91955,46.42897],[6.91818,46.42959],[6.91603,46.42997],[6.91522,46.42974],[6.91413,46.42906],[6.91227,46.42875],[6.91162,46.42898],[6.90893,46.43058],[6.90877,46.4311],[6.90966,46.43354],[6.90965,46.43417],[6.90928,46.43515],[6.9077,46.43683],[6.90565,46.4379],[6.90495,46.43861],[6.90283,46.43968],[6.90139,46.44056],[6.90022,46.44062],[6.89554,46.43977],[6.8945,46.43969],[6.89278,46.4393],[6.89125,46.43952],[6.89054,46.43904],[6.88992,46.43904],[6.88891,46.43962],[6.88851,46.44014],[6.88583,46.44154],[6.88589,46.44203],[6.88491,46.44234],[6.88452,46.44202],[6.8829,46.44182],[6.88225,46.44161],[6.88062,46.44212],[6.87914,46.44294],[6.87918,46.44342],[6.87864,46.44513],[6.87801,46.44528],[6.8772,46.44595],[6.87582,46.44678],[6.875,46.44688],[6.87314,46.44809],[6.87178,46.4479],[6.87034,46.44828],[6.86878,46.44818],[6.86774,46.44831],[6.86672,46.44799],[6.86613,46.44853],[6.86522,46.44861],[6.86282,46.4482],[6.86029,46.44742],[6.85957,46.44734],[6.85923,46.44887],[6.85804,46.45065],[6.85763,46.4506],[6.85686,46.45131],[6.85686,46.45172],[6.85546,46.45234],[6.85464,46.45238],[6.85391,46.45323],[6.85242,46.4566],[6.85166,46.45718],[6.84779,46.45779],[6.84681,46.45803],[6.8456,46.45798],[6.84479,46.45827],[6.8426,46.45853],[6.84214,46.45899],[6.84142,46.45912],[6.84081,46.45874],[6.83676,46.46036],[6.83581,46.4604],[6.83522,46.46078],[6.83501,46.46141],[6.83517,46.46236],[6.83483,46.46406],[6.83419,46.46502],[6.83364,46.46529],[6.83268,46.46645],[6.83307,46.46668],[6.83258,46.46733],[6.83146,46.46807],[6.82901,46.46846],[6.82791,46.46823],[6.82586,46.46829],[6.8234,46.4678],[6.82254,46.4682],[6.82153,46.46822],[6.82093,46.4693],[6.82054,46.46961],[6.81793,46.46993],[6.8152,46.46971],[6.8138,46.47002],[6.81305,46.46999],[6.81194,46.47025]]]},"properties":{"_zoneType":"VOGELRES_CH","name":"Les Grangettes (VD,VS)"}},
{"type":"Feature","geometry":{"type":"Polygon","coordinates":[[[6.15305,46.21105],[6.15104,46.20914],[6.1511,46.20879],[6.14979,46.20851],[6.14789,46.20689],[6.1467,46.20669],[6.14259,46.20555],[6.14143,46.20534],[6.13984,46.20526],[6.13815,46.20554],[6.13656,46.20554],[6.13607,46.20539],[6.13423,46.20402],[6.13356,46.20373],[6.1321,46.20346],[6.12999,46.20356],[6.12913,46.20371],[6.12689,46.20344],[6.12551,46.20312],[6.1245,46.2027],[6.12317,46.20243],[6.12225,46.20197],[6.12114,46.20173],[6.12101,46.20235],[6.11998,46.20222],[6.11801,46.20303],[6.11987,46.2036],[6.11986,46.20382],[6.11706,46.2037],[6.11695,46.20387],[6.1124,46.20373],[6.11013,46.20394],[6.10958,46.20363],[6.10792,46.2034],[6.10507,46.20141],[6.104,46.20076],[6.10296,46.19967],[6.10331,46.19951],[6.10203,46.19792],[6.10108,46.19741],[6.10177,46.19703],[6.09946,46.19433],[6.09839,46.19461],[6.09605,46.1932],[6.09472,46.19385],[6.0944,46.19335],[6.09282,46.19322],[6.09167,46.19381],[6.09082,46.19355],[6.08973,46.19401],[6.08802,46.19508],[6.08775,46.19599],[6.08832,46.19695],[6.08926,46.19724],[6.09126,46.19813],[6.09194,46.19821],[6.09206,46.19896],[6.09171,46.19972],[6.09369,46.19964],[6.09404,46.20004],[6.09488,46.20023],[6.09573,46.20101],[6.09678,46.20128],[6.09715,46.20203],[6.0979,46.20203],[6.09835,46.20272],[6.09966,46.20312],[6.09943,46.2034],[6.09832,46.20309],[6.09595,46.20182],[6.09464,46.2006],[6.09405,46.20046],[6.09309,46.20063],[6.09159,46.20026],[6.09123,46.20081],[6.09166,46.20219],[6.09328,46.20417],[6.09381,46.20431],[6.0943,46.20508],[6.09739,46.20717],[6.09739,46.20813],[6.09853,46.20864],[6.10226,46.20996],[6.10228,46.2113],[6.10198,46.21209],[6.10097,46.21361],[6.10085,46.21428],[6.10031,46.2144],[6.09937,46.21386],[6.09857,46.2137],[6.09675,46.21489],[6.09833,46.21542],[6.10006,46.21559],[6.09904,46.21643],[6.09831,46.2164],[6.097,46.21582],[6.0914,46.21406],[6.09052,46.21454],[6.08951,46.2141],[6.08833,46.21391],[6.08668,46.2129],[6.08633,46.21286],[6.08497,46.212],[6.08268,46.20987],[6.08227,46.20914],[6.08253,46.20866],[6.08371,46.20825],[6.08331,46.20783],[6.08194,46.20573],[6.08098,46.20469],[6.0799,46.20384],[6.07886,46.20324],[6.07775,46.20326],[6.076,46.20378],[6.07595,46.20537],[6.07411,46.20444],[6.07259,46.20473],[6.0722,46.20528],[6.07248,46.20614],[6.07085,46.20629],[6.06964,46.20682],[6.06912,46.20648],[6.06846,46.20667],[6.067,46.20617],[6.0664,46.20514],[6.06482,46.20406],[6.06379,46.2028],[6.06384,46.20238],[6.06546,46.20194],[6.06678,46.20189],[6.06834,46.20209],[6.06926,46.20174],[6.06532,46.19619],[6.06506,46.19549],[6.0633,46.19467],[6.06172,46.19505],[6.06144,46.19449],[6.05872,46.19514],[6.05719,46.19539],[6.05649,46.19592],[6.05526,46.19533],[6.05581,46.19457],[6.05442,46.19451],[6.053,46.19469],[6.05146,46.19515],[6.04939,46.19541],[6.04571,46.1964],[6.04577,46.19759],[6.04487,46.19903],[6.04449,46.20042],[6.04363,46.20089],[6.04304,46.20033],[6.04069,46.19982],[6.03993,46.20053],[6.03862,46.20026],[6.03792,46.19973],[6.03713,46.20021],[6.03565,46.20082],[6.03527,46.20126],[6.03237,46.20093],[6.02889,46.20027],[6.0279,46.20054],[6.0265,46.20057],[6.02357,46.20116],[6.02033,46.20256],[6.01939,46.20213],[6.01859,46.20136],[6.01827,46.1997],[6.02274,46.19925],[6.02133,46.19662],[6.02277,46.19574],[6.025,46.19548],[6.02454,46.19464],[6.02459,46.19404],[6.02318,46.19306],[6.02158,46.19113],[6.01853,46.18879],[6.01757,46.18736],[6.01608,46.18316],[6.01569,46.18227],[6.01456,46.18107],[6.01249,46.18012],[6.00959,46.17957],[6.00922,46.18051],[6.00965,46.18098],[6.01155,46.18189],[6.01257,46.18282],[6.01294,46.184],[6.0127,46.18685],[6.01201,46.18783],[6.01015,46.18896],[6.0105,46.18979],[6.00941,46.19047],[6.0089,46.1918],[6.00818,46.19281],[6.00777,46.1937],[6.00697,46.1943],[6.00691,46.19505],[6.00616,46.19631],[6.00624,46.19823],[6.00557,46.19879],[6.00331,46.20354],[6.00251,46.20444],[6.00086,46.20568],[6.00033,46.20632],[6.00009,46.20718],[6.00243,46.20736],[6.0025,46.20756],[6.00798,46.20973],[6.0054,46.2134],[6.00396,46.21281],[6.00344,46.21286],[6.00363,46.21372],[6.00466,46.21457],[6.00611,46.21517],[6.00655,46.21577],[6.00717,46.21593],[6.00829,46.21574],[6.00901,46.2167],[6.00838,46.21706],[6.00894,46.218],[6.0102,46.21854],[6.00958,46.21931],[6.00956,46.21972],[6.01059,46.22079],[6.01134,46.22052],[6.01344,46.21943],[6.01371,46.21943],[6.01502,46.22074],[6.0147,46.22098],[6.01305,46.22144],[6.01305,46.22188],[6.01363,46.22254],[6.01423,46.22282],[6.01542,46.22284],[6.01683,46.22379],[6.01405,46.22662],[6.01311,46.22654],[6.01184,46.22705],[6.01148,46.22768],[6.01055,46.228],[6.00975,46.22727],[6.00806,46.2264],[6.00678,46.22669],[6.00663,46.22602],[6.00697,46.22555],[6.007,46.2245],[6.00724,46.22394],[6.00487,46.22345],[6.00352,46.22278],[6.00291,46.22231],[6.00154,46.2205],[6.00004,46.22003],[5.99957,46.2211],[5.9991,46.22162],[5.99757,46.22227],[5.99612,46.22236],[5.99527,46.22259],[5.99428,46.22243],[5.99285,46.22295],[5.99019,46.22172],[5.99066,46.22143],[5.99159,46.21981],[5.99291,46.21904],[5.99343,46.21819],[5.99365,46.21731],[5.99278,46.21522],[5.99147,46.21546],[5.99086,46.21325],[5.99229,46.21233],[5.99177,46.21174],[5.98984,46.21118],[5.98778,46.21042],[5.987,46.20983],[5.98542,46.20973],[5.98357,46.20986],[5.98075,46.20849],[5.98056,46.20772],[5.98266,46.20761],[5.98515,46.20847],[5.9859,46.20857],[5.98714,46.20831],[5.9886,46.20829],[5.98941,46.20679],[5.99052,46.20625],[5.98973,46.20492],[5.98939,46.20473],[5.98825,46.20494],[5.98763,46.20455],[5.98645,46.20322],[5.98535,46.20277],[5.984,46.20281],[5.98026,46.2041],[5.98004,46.20431],[5.9778,46.20397],[5.97627,46.20454],[5.97598,46.20485],[5.97598,46.20606],[5.97439,46.20602],[5.97276,46.20711],[5.97147,46.20605],[5.97078,46.20632],[5.96976,46.206],[5.97022,46.20522],[5.97078,46.20495],[5.97066,46.20446],[5.97136,46.20433],[5.97283,46.2036],[5.9734,46.20269],[5.97215,46.20218],[5.97153,46.20159],[5.97052,46.20173],[5.96919,46.20058],[5.96813,46.20002],[5.96756,46.20018],[5.96564,46.19953],[5.96466,46.19879],[5.96463,46.19822],[5.96385,46.19743],[5.96373,46.19701],[5.97187,46.19418],[5.97273,46.19437],[5.97365,46.19536],[5.97465,46.19596],[5.97511,46.19652],[5.97605,46.19708],[5.97718,46.19722],[5.97792,46.19791],[5.97866,46.19911],[5.97925,46.19969],[5.97995,46.19963],[5.98051,46.19997],[5.98143,46.19984],[5.98199,46.20069],[5.98276,46.20079],[5.98356,46.20059],[5.98386,46.20093],[5.98586,46.201],[5.98675,46.20134],[5.9875,46.20192],[5.98862,46.20181],[5.98941,46.20204],[5.99185,46.20203],[5.99329,46.2022],[5.99348,46.20134],[5.99556,46.2009],[5.99708,46.20009],[5.99745,46.1993],[5.99751,46.19794],[5.99804,46.19769],[5.99827,46.19677],[5.99948,46.19674],[5.99991,46.19649],[6.00017,46.19524],[6.00009,46.19293],[6.00077,46.19182],[6.00037,46.19079],[6.00288,46.18758],[6.00354,46.1871],[6.00547,46.18618],[6.00645,46.18386],[6.00771,46.18393],[6.00744,46.1818],[6.00693,46.18109],[6.00638,46.1795],[6.00741,46.17937],[6.00785,46.17818],[6.00856,46.17688],[6.005,46.17573],[6.00378,46.17577],[6.0008,46.17633],[5.99892,46.17678],[5.99697,46.17712],[5.99327,46.17754],[5.99231,46.17754],[5.99134,46.17729],[5.99173,46.17684],[5.99026,46.17588],[5.98936,46.17423],[5.9887,46.1716],[5.98819,46.17092],[5.98752,46.17058],[5.98679,46.17069],[5.98638,46.17113],[5.98608,46.17212],[5.98565,46.17272],[5.98477,46.17337],[5.98397,46.17372],[5.98243,46.1736],[5.98182,46.17304],[5.981,46.17135],[5.98098,46.16992],[5.98039,46.16702],[5.97977,46.16582],[5.97667,46.16232],[5.97472,46.15915],[5.97459,46.15845],[5.97316,46.15618],[5.97186,46.15474],[5.96921,46.15224],[5.96878,46.15173],[5.96745,46.14966],[5.9668,46.148],[5.96504,46.14621],[5.96409,46.1442],[5.96405,46.14331],[5.96434,46.14204],[5.96477,46.14126],[5.96555,46.14036],[5.96633,46.13908],[5.96633,46.13803],[5.96522,46.13662],[5.96379,46.13589],[5.96233,46.13548],[5.95886,46.1342],[5.95738,46.13346],[5.9559,46.13236],[5.95645,46.1318],[5.95685,46.12876],[5.95738,46.12855],[5.95879,46.1294],[5.95989,46.12983],[5.96109,46.13061],[5.96043,46.13124],[5.9624,46.13315],[5.96459,46.1355],[5.96585,46.13614],[5.96682,46.13776],[5.96809,46.13802],[5.96731,46.13866],[5.96727,46.13918],[5.96676,46.13959],[5.96543,46.14144],[5.96517,46.1428],[5.96535,46.14444],[5.96568,46.1457],[5.96669,46.14626],[5.96792,46.14609],[5.96831,46.14556],[5.96787,46.14496],[5.96802,46.14437],[5.96786,46.14342],[5.96965,46.14262],[5.97117,46.14116],[5.97227,46.14048],[5.97293,46.14125],[5.97419,46.1409],[5.9746,46.14049],[5.97545,46.13906],[5.97722,46.13882],[5.97759,46.13949],[5.97854,46.1392],[5.97973,46.13971],[5.98101,46.13942],[5.98191,46.14067],[5.9827,46.14062],[5.98293,46.14132],[5.98234,46.14155],[5.98245,46.14229],[5.98312,46.14254],[5.98385,46.14316],[5.98548,46.14341],[5.98595,46.14287],[5.98709,46.14259],[5.9879,46.14329],[5.98858,46.14331],[5.9888,46.14378],[5.99035,46.1433],[5.99213,46.14391],[5.993,46.14405],[5.99379,46.14445],[5.99462,46.14364],[5.99502,46.14404],[5.99666,46.14367],[5.99707,46.14287],[5.99812,46.14304],[5.99949,46.14295],[6.00121,46.14219],[6.0021,46.14228],[6.00315,46.14179],[6.00455,46.14199],[6.00571,46.14234],[6.00674,46.14213],[6.00855,46.14282],[6.00952,46.14243],[6.01052,46.14225],[6.01308,46.1421],[6.01363,46.14253],[6.01446,46.14246],[6.01476,46.14302],[6.01589,46.14276],[6.01718,46.14284],[6.01903,46.14211],[6.01996,46.1421],[6.02117,46.14113],[6.02161,46.14152],[6.02272,46.14157],[6.0239,46.14038],[6.02525,46.14041],[6.02619,46.14012],[6.02729,46.14003],[6.02845,46.14044],[6.02823,46.13974],[6.02904,46.13938],[6.03048,46.13907],[6.03149,46.13948],[6.03167,46.13867],[6.03303,46.13859],[6.03248,46.13792],[6.03341,46.13726],[6.03367,46.13653],[6.03428,46.13616],[6.03494,46.13472],[6.03547,46.13482],[6.0363,46.137],[6.03586,46.13728],[6.03437,46.13899],[6.03234,46.14027],[6.03003,46.14116],[6.02899,46.14063],[6.0282,46.14093],[6.02561,46.14116],[6.02432,46.14184],[6.02176,46.14286],[6.02222,46.14353],[6.02136,46.14365],[6.02044,46.14354],[6.01859,46.14356],[6.01633,46.14426],[6.01457,46.14454],[6.01335,46.14458],[6.01348,46.1437],[6.01181,46.14348],[6.01016,46.14361],[6.00836,46.14355],[6.00566,46.14401],[6.00427,46.14443],[6.0013,46.14466],[5.99913,46.1455],[5.99357,46.1462],[5.99224,46.14585],[5.99185,46.14484],[5.99078,46.14485],[5.99032,46.1446],[5.9885,46.1452],[5.98584,46.14679],[5.9845,46.14591],[5.984,46.14492],[5.98301,46.14425],[5.98258,46.14355],[5.98201,46.14322],[5.9806,46.14342],[5.97909,46.14316],[5.97758,46.1427],[5.9762,46.14261],[5.97508,46.14224],[5.97273,46.14285],[5.97159,46.14408],[5.97073,46.14481],[5.97017,46.14634],[5.96899,46.14699],[5.96763,46.14716],[5.96716,46.14739],[5.968,46.14818],[5.96786,46.14923],[5.96834,46.15007],[5.96958,46.15082],[5.97019,46.15199],[5.97125,46.15302],[5.97179,46.15279],[5.9741,46.15583],[5.97503,46.15656],[5.97501,46.15694],[5.97629,46.15811],[5.97694,46.15832],[5.9765,46.15891],[5.97722,46.15977],[5.97683,46.15999],[5.9777,46.16072],[5.97765,46.16135],[5.978,46.16219],[5.97863,46.16298],[5.98017,46.16443],[5.98076,46.16518],[5.9813,46.16661],[5.98183,46.16693],[5.98263,46.16964],[5.98379,46.17054],[5.98368,46.17195],[5.98433,46.17191],[5.98487,46.16975],[5.98536,46.16888],[5.98648,46.16782],[5.98725,46.16772],[5.98877,46.16819],[5.98956,46.16918],[5.99088,46.1697],[5.99143,46.17127],[5.99145,46.17198],[5.99103,46.17376],[5.99103,46.17512],[5.99187,46.17625],[5.99288,46.1766],[5.99368,46.17666],[5.99756,46.17592],[5.99885,46.17549],[6.00186,46.17474],[6.00345,46.17507],[6.00389,46.17429],[6.00491,46.17388],[6.00595,46.17402],[6.00671,46.17441],[6.00973,46.1753],[6.01043,46.17489],[6.00974,46.17455],[6.0102,46.17331],[6.011,46.17199],[6.01078,46.17172],[6.01162,46.171],[6.01207,46.17121],[6.01323,46.17059],[6.01636,46.1695],[6.01761,46.16839],[6.01808,46.16817],[6.01888,46.16639],[6.01934,46.1658],[6.01918,46.16486],[6.02045,46.16538],[6.02049,46.16649],[6.01995,46.168],[6.01918,46.16927],[6.01752,46.17104],[6.01635,46.17206],[6.01417,46.173],[6.01485,46.17351],[6.01773,46.17521],[6.01901,46.17534],[6.02238,46.17655],[6.02477,46.17552],[6.02567,46.17601],[6.02564,46.17658],[6.02614,46.17677],[6.02721,46.17557],[6.02746,46.17558],[6.03338,46.177],[6.03453,46.17761],[6.03813,46.18082],[6.04015,46.18255],[6.04136,46.18335],[6.04236,46.18433],[6.04157,46.18486],[6.04217,46.18582],[6.04265,46.18793],[6.04138,46.18794],[6.04038,46.18766],[6.03928,46.18803],[6.0386,46.18895],[6.03725,46.18979],[6.03715,46.19003],[6.03568,46.19106],[6.03488,46.19136],[6.03344,46.19165],[6.0334,46.19311],[6.03203,46.19351],[6.03121,46.19357],[6.03109,46.19478],[6.03132,46.19646],[6.03239,46.19718],[6.0332,46.1967],[6.03465,46.19742],[6.03713,46.19629],[6.03968,46.19454],[6.04143,46.19461],[6.04411,46.19376],[6.04416,46.19343],[6.04634,46.19275],[6.04851,46.19234],[6.04923,46.19185],[6.05103,46.19189],[6.05347,46.1914],[6.05543,46.19133],[6.05726,46.19146],[6.05869,46.19037],[6.05855,46.18975],[6.05917,46.18899],[6.05822,46.18841],[6.05748,46.18832],[6.05868,46.18693],[6.06011,46.18622],[6.06141,46.18607],[6.06286,46.18633],[6.06417,46.18721],[6.06572,46.1879],[6.06846,46.18698],[6.07287,46.18928],[6.07203,46.18962],[6.0723,46.19038],[6.0729,46.19076],[6.07151,46.19147],[6.07214,46.19212],[6.07092,46.19249],[6.0698,46.19403],[6.07364,46.19581],[6.07573,46.19743],[6.07411,46.1988],[6.07495,46.19899],[6.07471,46.19948],[6.07585,46.2003],[6.07631,46.19957],[6.07758,46.19865],[6.07996,46.1983],[6.08218,46.1984],[6.08585,46.20047],[6.08625,46.20112],[6.08724,46.20087],[6.0875,46.20038],[6.0877,46.19886],[6.08645,46.19871],[6.08467,46.19566],[6.08441,46.19403],[6.08428,46.19201],[6.08371,46.1896],[6.08411,46.18883],[6.08466,46.18907],[6.08478,46.18971],[6.08568,46.19038],[6.08628,46.19056],[6.08672,46.19111],[6.08819,46.1918],[6.08942,46.19175],[6.08957,46.19119],[6.09051,46.19143],[6.09194,46.19072],[6.09275,46.19054],[6.09268,46.18997],[6.09323,46.18866],[6.09382,46.18771],[6.09433,46.18819],[6.09618,46.18868],[6.09701,46.18701],[6.09822,46.18741],[6.09924,46.1875],[6.09876,46.18804],[6.09851,46.18938],[6.09806,46.19015],[6.09825,46.19065],[6.09915,46.19091],[6.10024,46.19181],[6.10024,46.19252],[6.10121,46.19304],[6.10178,46.19357],[6.10237,46.19449],[6.10449,46.19532],[6.10618,46.19671],[6.10772,46.1969],[6.11128,46.19769],[6.11071,46.20053],[6.11129,46.20068],[6.11259,46.20006],[6.11298,46.20038],[6.11502,46.20057],[6.11528,46.19962],[6.11789,46.19987],[6.11913,46.19928],[6.12071,46.19939],[6.12129,46.1986],[6.12119,46.20062],[6.12199,46.20135],[6.12502,46.20222],[6.12917,46.20271],[6.13212,46.20277],[6.13447,46.20347],[6.13567,46.20418],[6.13718,46.20428],[6.1419,46.20427],[6.14472,46.20484],[6.14657,46.205],[6.1533,46.20348],[6.15791,46.2057],[6.15607,46.20744],[6.15598,46.20819],[6.15705,46.20995],[6.15516,46.21013],[6.15305,46.21105]]]},"properties":{"_zoneType":"VOGELRES_CH","name":"Rhône-Verbois (GE)"}}
]}