{"type":"FeatureCollection", "features": [
{"type":"Feature","geometry":{"type":"Polygon","coordinates":[[[4.63665,51.48351],[4.63635,51.48687],[4.63555,51.49009],[4.63425,51.49324],[4.63246,51.49629],[4.6302,51.49922],[4.62749,51.502],[4.62436,51.5046],[4.62084,51.507],[4.61696,51.50917],[4.61276,51.5111],[4.60828,51.51276],[4.60356,51.51414],[4.59864,51.51522],[4.59358,51.516],[4.58842,51.51647],[4.58322,51.51663],[4.57801,51.51646],[4.57285,51.51598],[4.5678,51.51518],[4.56289,51.51408],[4.55818,51.51269],[4.55356,51.51095],[4.54938,51.50901],[4.54553,51.50682],[4.54204,51.5044],[4.53894,51.50178],[4.53627,51.49899],[4.53405,51.49605],[4.5323,51.49299],[4.53103,51.48983],[4.53027,51.48661],[4.53001,51.48325],[4.53028,51.48],[4.53106,51.47678],[4.53233,51.47363],[4.53409,51.47057],[4.53633,51.46763],[4.539,51.46484],[4.54211,51.46223],[4.54573,51.45974],[4.5496,51.45756],[4.55379,51.45562],[4.55826,51.45396],[4.56314,51.45252],[4.56804,51.45144],[4.5731,51.45066],[4.57825,51.45019],[4.58364,51.45004],[4.58883,51.45022],[4.59398,51.45071],[4.59902,51.45152],[4.60392,51.45262],[4.60878,51.45408],[4.61323,51.45577],[4.61739,51.45772],[4.62123,51.45992],[4.62471,51.46234],[4.62789,51.46506],[4.63054,51.46786],[4.63273,51.47081],[4.63445,51.47388],[4.63569,51.47704],[4.63642,51.48026],[4.63665,51.48351]]]},"properties":{"type":"PARAJUMP","name":"SCHIJF","identifier":"LVNL:PJ:EHAAPJA014","lowerLimit":"GND","upperLimit":"FL100","authority":"LVNL"}},
{"type":"Feature","geometry":{"type":"Polygon","coordinates":[[[3.83862,51.49897],[3.83833,51.50234],[3.83754,51.50555],[3.83625,51.5087],[3.83447,51.51176],[3.83428,51.51201],[3.83223,51.5147],[3.82953,51.51748],[3.82641,51.52009],[3.8229,51.52249],[3.81903,51.52467],[3.81484,51.5266],[3.81036,51.52827],[3.80565,51.52966],[3.80073,51.53075],[3.79567,51.53154],[3.79052,51.53202],[3.78531,51.53218],[3.7801,51.53202],[3.77926,51.53194],[3.78122,51.53084],[3.78474,51.52844],[3.78786,51.52583],[3.79055,51.52305],[3.7928,51.52011],[3.79458,51.51706],[3.79588,51.51391],[3.79667,51.51069],[3.79696,51.50733],[3.79672,51.50408],[3.79597,51.50086],[3.79473,51.4977],[3.79299,51.49463],[3.79079,51.49169],[3.78938,51.49021],[3.78813,51.48889],[3.78505,51.48626],[3.78145,51.48376],[3.7776,51.48157],[3.77343,51.47962],[3.76897,51.47793],[3.76427,51.47653],[3.7592,51.47538],[3.75415,51.47459],[3.74967,51.47416],[3.75142,51.47317],[3.7556,51.47123],[3.76006,51.46955],[3.76494,51.46811],[3.76984,51.46702],[3.77508,51.46621],[3.78023,51.46575],[3.78543,51.4656],[3.79082,51.46578],[3.79597,51.46627],[3.80101,51.46708],[3.80591,51.46819],[3.8106,51.46959],[3.81506,51.47127],[3.81923,51.47322],[3.82308,51.47541],[3.82669,51.47792],[3.82977,51.48054],[3.83243,51.48334],[3.83464,51.48628],[3.83637,51.48935],[3.83762,51.49251],[3.83837,51.49572],[3.83862,51.49897]]]},"properties":{"type":"PARAJUMP","name":"'S HEER ARENDSKERKE","identifier":"LVNL:PJ:EHAAPJA005","lowerLimit":"GND","upperLimit":"FL120","authority":"LVNL"}},
{"type":"Feature","geometry":{"type":"Polygon","coordinates":[[[3.77926,51.53194],[3.77735,51.53302],[3.77315,51.53495],[3.76867,51.53661],[3.76395,51.538],[3.75904,51.53909],[3.7538,51.5399],[3.74863,51.54037],[3.74342,51.54051],[3.73836,51.54034],[3.73821,51.54034],[3.73306,51.53986],[3.728,51.53906],[3.72309,51.53796],[3.71838,51.53656],[3.71391,51.53488],[3.70973,51.53294],[3.70587,51.53076],[3.70237,51.52835],[3.69926,51.52573],[3.69658,51.52294],[3.69435,51.52],[3.69258,51.51694],[3.69131,51.51379],[3.69053,51.51057],[3.69026,51.50721],[3.69052,51.50396],[3.69129,51.50074],[3.69255,51.49759],[3.6943,51.49452],[3.69652,51.49158],[3.69919,51.48879],[3.70229,51.48617],[3.70591,51.48367],[3.70991,51.48142],[3.71411,51.47949],[3.71858,51.47782],[3.7233,51.47644],[3.7282,51.47535],[3.73326,51.47456],[3.7386,51.47408],[3.7438,51.47393],[3.749,51.4741],[3.74967,51.47416],[3.75415,51.47459],[3.7592,51.47538],[3.76427,51.47653],[3.76897,51.47793],[3.77343,51.47962],[3.7776,51.48157],[3.78145,51.48376],[3.78505,51.48626],[3.78813,51.48889],[3.78938,51.49021],[3.79079,51.49169],[3.79299,51.49463],[3.79473,51.4977],[3.79597,51.50086],[3.79672,51.50408],[3.79696,51.50733],[3.79667,51.51069],[3.79588,51.51391],[3.79458,51.51706],[3.7928,51.52011],[3.79055,51.52305],[3.78786,51.52583],[3.78474,51.52844],[3.78122,51.53084],[3.77926,51.53194]]]},"properties":{"type":"PARAJUMP","name":"ZUID VAN MIDDEN-ZEELAND","identifier":"LVNL:PJ:EHAAPJA008","lowerLimit":"GND","upperLimit":"FL120","authority":"LVNL"}},
{"type":"Feature","geometry":{"type":"Polygon","coordinates":[[[4.73669,51.5168],[4.7364,51.52016],[4.7356,51.52338],[4.7343,51.52653],[4.73252,51.52958],[4.73027,51.53252],[4.72756,51.5353],[4.72444,51.5379],[4.72092,51.5403],[4.71704,51.54248],[4.71284,51.54441],[4.70836,51.54607],[4.70364,51.54746],[4.69872,51.54854],[4.69348,51.54935],[4.68831,51.54981],[4.6831,51.54996],[4.67789,51.54979],[4.67273,51.5493],[4.66768,51.54849],[4.66277,51.54739],[4.65806,51.54599],[4.65359,51.54431],[4.64941,51.54237],[4.64555,51.54018],[4.64205,51.53777],[4.63895,51.53515],[4.63627,51.53236],[4.63404,51.52942],[4.63228,51.52636],[4.63101,51.52321],[4.63024,51.51999],[4.62997,51.51663],[4.63024,51.51338],[4.63101,51.51016],[4.63228,51.50701],[4.63403,51.50394],[4.63626,51.501],[4.63893,51.49821],[4.64215,51.49551],[4.64565,51.4931],[4.64952,51.49092],[4.65371,51.48898],[4.65817,51.48731],[4.66288,51.48592],[4.66779,51.48482],[4.67302,51.484],[4.67817,51.48353],[4.68338,51.48337],[4.68858,51.48354],[4.69392,51.48404],[4.69897,51.48484],[4.70387,51.48594],[4.70874,51.48739],[4.71319,51.48908],[4.71736,51.49103],[4.72121,51.49322],[4.72481,51.49573],[4.72789,51.49836],[4.73054,51.50116],[4.73274,51.5041],[4.73447,51.50717],[4.73571,51.51033],[4.73646,51.51355],[4.73669,51.5168]]]},"properties":{"type":"PARAJUMP","name":"RIJSBERGEN","identifier":"LVNL:PJ:EHAAPJA013","lowerLimit":"GND","upperLimit":"FL100","authority":"LVNL"}},
{"type":"Feature","geometry":{"type":"Polygon","coordinates":[[[3.83428,51.51201],[3.83529,51.51379],[3.83654,51.51695],[3.83729,51.52017],[3.83753,51.52342],[3.83725,51.52678],[3.83646,51.53],[3.83517,51.53315],[3.83339,51.53621],[3.83114,51.53914],[3.82844,51.54193],[3.82532,51.54453],[3.82181,51.54694],[3.81794,51.54912],[3.81359,51.55111],[3.8091,51.55277],[3.80437,51.55415],[3.79945,51.55523],[3.79438,51.55601],[3.78922,51.55648],[3.78401,51.55662],[3.7788,51.55646],[3.77364,51.55597],[3.76858,51.55517],[3.76367,51.55407],[3.75896,51.55268],[3.75448,51.551],[3.7503,51.54907],[3.74643,51.54688],[3.74293,51.54447],[3.73982,51.54186],[3.73836,51.54034],[3.74342,51.54051],[3.74863,51.54037],[3.7538,51.5399],[3.75904,51.53909],[3.76395,51.538],[3.76867,51.53661],[3.77315,51.53495],[3.77735,51.53302],[3.77926,51.53194],[3.7801,51.53202],[3.78531,51.53218],[3.79052,51.53202],[3.79567,51.53154],[3.80073,51.53075],[3.80565,51.52966],[3.81036,51.52827],[3.81484,51.5266],[3.81903,51.52467],[3.8229,51.52249],[3.82641,51.52009],[3.82953,51.51748],[3.83223,51.5147],[3.83428,51.51201]]]},"properties":{"type":"PARAJUMP","name":"OUD SABBINGE","identifier":"LVNL:PJ:EHAAPJA011","lowerLimit":"GND","upperLimit":"FL120","authority":"LVNL"}},
{"type":"Feature","geometry":{"type":"Polygon","coordinates":[[[4.60257,51.55436],[4.60227,51.55772],[4.60146,51.56094],[4.60015,51.56409],[4.59836,51.56714],[4.59609,51.57007],[4.59338,51.57285],[4.59024,51.57545],[4.58671,51.57785],[4.58283,51.58002],[4.57875,51.58188],[4.57862,51.58194],[4.57413,51.5836],[4.5694,51.58498],[4.56448,51.58606],[4.55941,51.58684],[4.55489,51.58725],[4.55722,51.58639],[4.56143,51.58447],[4.56532,51.5823],[4.56885,51.5799],[4.57198,51.5773],[4.5747,51.57452],[4.57697,51.57159],[4.57876,51.56854],[4.58007,51.56539],[4.58088,51.56218],[4.58117,51.55906],[4.58119,51.55881],[4.58096,51.55557],[4.58023,51.55234],[4.579,51.54918],[4.57727,51.54611],[4.57508,51.54316],[4.57244,51.54036],[4.56936,51.53773],[4.56577,51.53522],[4.56192,51.53302],[4.55776,51.53106],[4.55314,51.52932],[4.54844,51.52791],[4.54353,51.5268],[4.5383,51.52597],[4.53314,51.52549],[4.52794,51.52532],[4.52273,51.52547],[4.52207,51.52553],[4.52391,51.52484],[4.52879,51.5234],[4.5337,51.5223],[4.53876,51.52151],[4.5441,51.52103],[4.54931,51.52088],[4.5547,51.52105],[4.55986,51.52155],[4.56491,51.52235],[4.56981,51.52346],[4.57451,51.52487],[4.57913,51.52661],[4.5833,51.52857],[4.58714,51.53077],[4.59074,51.53328],[4.59381,51.53591],[4.59646,51.53871],[4.59865,51.54166],[4.60037,51.54473],[4.60161,51.54789],[4.60234,51.55111],[4.60257,51.55436]]]},"properties":{"type":"PARAJUMP","name":"SEPPE AIRPORT","identifier":"LVNL:PJ:EHSEPJA001","lowerLimit":"GND","upperLimit":"FL100","authority":"LVNL"}},
{"type":"Feature","geometry":{"type":"Polygon","coordinates":[[[4.55489,51.58725],[4.55273,51.58805],[4.548,51.58943],[4.54307,51.59051],[4.538,51.59129],[4.53283,51.59175],[4.52762,51.5919],[4.5224,51.59173],[4.51724,51.59125],[4.51218,51.59045],[4.50726,51.58935],[4.50255,51.58796],[4.49807,51.58628],[4.49388,51.58434],[4.49001,51.58216],[4.48651,51.57975],[4.48339,51.57714],[4.48071,51.57435],[4.47847,51.57141],[4.4767,51.56835],[4.47654,51.56795],[4.47542,51.5652],[4.47464,51.56198],[4.47437,51.55862],[4.47463,51.55537],[4.47539,51.55215],[4.47665,51.54899],[4.4784,51.54593],[4.48062,51.54299],[4.4833,51.54019],[4.48639,51.53758],[4.49001,51.53508],[4.49388,51.53289],[4.49806,51.53095],[4.5027,51.52922],[4.50741,51.52784],[4.5125,51.52671],[4.51757,51.52593],[4.52207,51.52553],[4.52273,51.52547],[4.52794,51.52532],[4.53314,51.52549],[4.5383,51.52597],[4.54353,51.5268],[4.54844,51.52791],[4.55314,51.52932],[4.55776,51.53106],[4.56192,51.53302],[4.56577,51.53522],[4.56936,51.53773],[4.57244,51.54036],[4.57508,51.54316],[4.57727,51.54611],[4.579,51.54918],[4.58023,51.55234],[4.58096,51.55557],[4.58119,51.55881],[4.58117,51.55906],[4.58088,51.56218],[4.58007,51.56539],[4.57876,51.56854],[4.57697,51.57159],[4.5747,51.57452],[4.57198,51.5773],[4.56885,51.5799],[4.56532,51.5823],[4.56143,51.58447],[4.55722,51.58639],[4.55489,51.58725]]]},"properties":{"type":"PARAJUMP","name":"BOSSCHENHOOFD","identifier":"LVNL:PJ:EHAAPJA003","lowerLimit":"GND","upperLimit":"FL100","authority":"LVNL"}},
{"type":"Feature","geometry":{"type":"Polygon","coordinates":[[[4.57875,51.58188],[4.57685,51.58433],[4.57413,51.58711],[4.571,51.58971],[4.56747,51.5921],[4.56358,51.59427],[4.55937,51.5962],[4.55487,51.59785],[4.55014,51.59923],[4.54522,51.60031],[4.54015,51.60109],[4.53498,51.60156],[4.52976,51.60171],[4.52454,51.60154],[4.51938,51.60105],[4.51431,51.60026],[4.5094,51.59916],[4.50468,51.59776],[4.50021,51.59609],[4.49601,51.59415],[4.49214,51.59196],[4.48864,51.58955],[4.48552,51.58694],[4.48283,51.58415],[4.4806,51.58122],[4.47883,51.57816],[4.47755,51.575],[4.47677,51.57179],[4.4765,51.56842],[4.47654,51.56795],[4.4767,51.56835],[4.47847,51.57141],[4.48071,51.57435],[4.48339,51.57714],[4.48651,51.57975],[4.49001,51.58216],[4.49388,51.58434],[4.49807,51.58628],[4.50255,51.58796],[4.50726,51.58935],[4.51218,51.59045],[4.51724,51.59125],[4.5224,51.59173],[4.52762,51.5919],[4.53283,51.59175],[4.538,51.59129],[4.54307,51.59051],[4.548,51.58943],[4.55273,51.58805],[4.55489,51.58725],[4.55941,51.58684],[4.56448,51.58606],[4.5694,51.58498],[4.57413,51.5836],[4.57862,51.58194],[4.57875,51.58188]]]},"properties":{"type":"PARAJUMP","name":"OUDENBOSCH","identifier":"LVNL:PJ:EHAAPJA010","lowerLimit":"GND","upperLimit":"FL100","authority":"LVNL"}},
{"type":"Feature","geometry":{"type":"Polygon","coordinates":[[[4.52098,51.85172],[4.52074,51.85508],[4.51999,51.8583],[4.51874,51.86146],[4.517,51.86453],[4.51469,51.86758],[4.512,51.87037],[4.50888,51.87299],[4.50536,51.87541],[4.50148,51.8776],[4.49712,51.87961],[4.49261,51.88129],[4.48787,51.88268],[4.48292,51.88378],[4.47783,51.88458],[4.47263,51.88507],[4.46738,51.88523],[4.46213,51.88508],[4.45693,51.88462],[4.45182,51.88384],[4.44687,51.88276],[4.44211,51.88138],[4.43759,51.87972],[4.43335,51.8778],[4.4293,51.87555],[4.42576,51.87314],[4.42262,51.87054],[4.41991,51.86775],[4.41764,51.86482],[4.41585,51.86176],[4.41455,51.85861],[4.41375,51.85539],[4.41347,51.85203],[4.41371,51.84878],[4.41447,51.84556],[4.41573,51.8424],[4.41748,51.83934],[4.4197,51.83639],[4.42238,51.83359],[4.42548,51.83097],[4.42912,51.82847],[4.433,51.82628],[4.43721,51.82433],[4.4417,51.82265],[4.44643,51.82125],[4.45155,51.8201],[4.45663,51.81931],[4.46182,51.81882],[4.46707,51.81865],[4.47249,51.81882],[4.47769,51.81929],[4.48278,51.82008],[4.48772,51.82117],[4.49247,51.82256],[4.49698,51.82422],[4.5012,51.82615],[4.5051,51.82833],[4.50864,51.83073],[4.51179,51.83334],[4.51451,51.83612],[4.51678,51.83905],[4.51857,51.84211],[4.51988,51.84526],[4.52068,51.84847],[4.52098,51.85172]]]},"properties":{"type":"PARAJUMP","name":"RHOON","identifier":"LVNL:PJ:EHAAPJA012","lowerLimit":"GND","upperLimit":"FL120","authority":"LVNL"}},
{"type":"Feature","geometry":{"type":"Polygon","coordinates":[[[5.35586,51.98735],[5.35561,51.99071],[5.35485,51.99393],[5.35358,51.99709],[5.35182,52.00015],[5.3495,52.0032],[5.34679,52.00599],[5.34365,52.00861],[5.34012,52.01102],[5.33621,52.0132],[5.33183,52.01521],[5.32731,52.01688],[5.32254,52.01827],[5.31757,52.01936],[5.31246,52.02015],[5.30725,52.02063],[5.30198,52.02079],[5.29671,52.02063],[5.2915,52.02016],[5.28638,52.01937],[5.28142,52.01828],[5.27665,52.0169],[5.27212,52.01524],[5.26787,52.01331],[5.26382,52.01105],[5.26028,52.00864],[5.25714,52.00603],[5.25443,52.00324],[5.25217,52.0003],[5.25038,51.99724],[5.24909,51.99409],[5.2483,51.99087],[5.24803,51.98751],[5.24828,51.98426],[5.24905,51.98104],[5.25033,51.97789],[5.2521,51.97482],[5.25434,51.97188],[5.25703,51.96909],[5.26016,51.96647],[5.26368,51.96405],[5.26757,51.96186],[5.27178,51.95991],[5.27629,51.95822],[5.28121,51.95677],[5.28616,51.95567],[5.29126,51.95487],[5.29646,51.95438],[5.30172,51.95421],[5.30698,51.95436],[5.31219,51.95482],[5.3173,51.95559],[5.32244,51.95671],[5.32721,51.95809],[5.33173,51.95976],[5.33597,51.96168],[5.33989,51.96386],[5.34357,51.96635],[5.34671,51.96895],[5.34943,51.97174],[5.35169,51.97468],[5.35348,51.97773],[5.35478,51.98089],[5.35558,51.9841],[5.35586,51.98735]]]},"properties":{"type":"PARAJUMP","name":"WIJK BIJ DUURSTEDE","identifier":"LVNL:PJ:EHAAPJA019","lowerLimit":"GND","upperLimit":"FL60","authority":"LVNL"}},
{"type":"Feature","geometry":{"type":"Polygon","coordinates":[[[5.18493,52.13548],[5.18467,52.13885],[5.18389,52.14206],[5.18261,52.14522],[5.18083,52.14828],[5.17857,52.15122],[5.17586,52.15402],[5.17272,52.15663],[5.16917,52.15905],[5.16601,52.16082],[5.16526,52.16124],[5.16087,52.16325],[5.15633,52.16492],[5.15155,52.16631],[5.14657,52.1674],[5.14144,52.1682],[5.13621,52.16868],[5.13093,52.16884],[5.12565,52.16869],[5.12041,52.16822],[5.11528,52.16744],[5.11176,52.16667],[5.11029,52.16635],[5.10551,52.16497],[5.10096,52.16331],[5.09655,52.16131],[5.09263,52.15913],[5.08907,52.15672],[5.08592,52.15411],[5.08319,52.15133],[5.08091,52.14839],[5.07912,52.14533],[5.07782,52.14218],[5.07702,52.13897],[5.07674,52.1356],[5.07699,52.13235],[5.07776,52.12914],[5.07903,52.12598],[5.0808,52.12292],[5.08304,52.11997],[5.08574,52.11718],[5.08899,52.11447],[5.09253,52.11205],[5.09644,52.10987],[5.10068,52.10792],[5.1052,52.10624],[5.10997,52.10484],[5.11494,52.10374],[5.12005,52.10294],[5.12527,52.10244],[5.13074,52.10227],[5.1362,52.10243],[5.14142,52.10291],[5.14655,52.1037],[5.15152,52.1048],[5.15629,52.10619],[5.16083,52.10786],[5.16507,52.10979],[5.169,52.11197],[5.17267,52.11446],[5.17582,52.11708],[5.17853,52.11987],[5.1808,52.1228],[5.18258,52.12587],[5.18387,52.12902],[5.18466,52.13224],[5.18493,52.13548]]]},"properties":{"type":"PARAJUMP","name":"WESTBROEK","identifier":"LVNL:PJ:EHAAPJA020","lowerLimit":"GND","upperLimit":"FL60","authority":"LVNL"}},
{"type":"Feature","geometry":{"type":"Polygon","coordinates":[[[5.16601,52.16082],[5.16764,52.16118],[5.17243,52.16257],[5.17697,52.16424],[5.18122,52.16617],[5.18515,52.16835],[5.18883,52.17085],[5.19198,52.17346],[5.1947,52.17625],[5.19697,52.17919],[5.19875,52.18225],[5.20005,52.1854],[5.20084,52.18862],[5.20111,52.19186],[5.20085,52.19523],[5.20007,52.19845],[5.19879,52.2016],[5.19701,52.20466],[5.19475,52.20761],[5.19203,52.2104],[5.18889,52.21301],[5.18534,52.21543],[5.18143,52.21762],[5.17719,52.21956],[5.17265,52.22125],[5.16788,52.22265],[5.16272,52.22379],[5.15758,52.22458],[5.15234,52.22507],[5.14705,52.22523],[5.14176,52.22508],[5.13652,52.22461],[5.13138,52.22383],[5.12639,52.22274],[5.1216,52.22136],[5.11689,52.21964],[5.11263,52.2177],[5.1087,52.21552],[5.10514,52.21312],[5.10198,52.21051],[5.09924,52.20772],[5.09697,52.20479],[5.09517,52.20173],[5.09386,52.19858],[5.09306,52.19536],[5.09278,52.192],[5.09303,52.18875],[5.0938,52.18553],[5.09507,52.18238],[5.09684,52.17931],[5.09909,52.17637],[5.10179,52.17357],[5.10492,52.17095],[5.10859,52.16845],[5.11176,52.16667],[5.11528,52.16744],[5.12041,52.16822],[5.12565,52.16869],[5.13093,52.16884],[5.13621,52.16868],[5.14144,52.1682],[5.14657,52.1674],[5.15155,52.16631],[5.15633,52.16492],[5.16087,52.16325],[5.16526,52.16124],[5.16601,52.16082]]]},"properties":{"type":"PARAJUMP","name":"HILVERSUM","identifier":"LVNL:PJ:EHHVPJA001","lowerLimit":"GND","upperLimit":"FL60","authority":"LVNL"}},
{"type":"Feature","geometry":{"type":"Polygon","coordinates":[[[5.37085,52.20818],[5.3706,52.21154],[5.36984,52.21476],[5.36856,52.21792],[5.3668,52.22098],[5.36446,52.22403],[5.36174,52.22682],[5.35859,52.22943],[5.35503,52.23184],[5.35112,52.23403],[5.34687,52.23598],[5.34233,52.23765],[5.33755,52.23905],[5.33257,52.24016],[5.32725,52.24098],[5.32201,52.24146],[5.31671,52.24162],[5.31142,52.24147],[5.30618,52.24099],[5.30104,52.24021],[5.29605,52.23912],[5.29125,52.23774],[5.2867,52.23607],[5.28244,52.23414],[5.27837,52.23189],[5.27481,52.22948],[5.27165,52.22687],[5.26892,52.22408],[5.26665,52.22114],[5.26485,52.21808],[5.26355,52.21493],[5.26276,52.21171],[5.26248,52.20835],[5.26274,52.2051],[5.26351,52.20188],[5.26479,52.19873],[5.26657,52.19566],[5.26882,52.19272],[5.27153,52.18993],[5.27479,52.18722],[5.27834,52.18481],[5.28226,52.18262],[5.2865,52.18068],[5.29104,52.17901],[5.29581,52.17761],[5.30079,52.17651],[5.30592,52.17571],[5.31134,52.17521],[5.31662,52.17505],[5.3219,52.1752],[5.32714,52.17567],[5.33227,52.17646],[5.33726,52.17754],[5.34221,52.17898],[5.34675,52.18065],[5.351,52.18259],[5.35493,52.18477],[5.35849,52.18717],[5.36165,52.18978],[5.36438,52.19257],[5.36666,52.1955],[5.36846,52.19856],[5.36977,52.20171],[5.37056,52.20493],[5.37085,52.20818]]]},"properties":{"type":"PARAJUMP","name":"BAARN","identifier":"LVNL:PJ:EHAAPJA002","lowerLimit":"GND","upperLimit":"FL60","authority":"LVNL"}},
{"type":"Feature","geometry":{"type":"Polygon","coordinates":[[[6.1009,52.24469],[6.10063,52.24805],[6.09984,52.25127],[6.09855,52.25442],[6.09676,52.25748],[6.09449,52.26042],[6.09177,52.26321],[6.08861,52.26583],[6.08506,52.26824],[6.08113,52.27043],[6.07688,52.27237],[6.07234,52.27405],[6.06738,52.27549],[6.06239,52.27658],[6.05724,52.27737],[6.052,52.27785],[6.0467,52.27801],[6.04141,52.27785],[6.03616,52.27738],[6.03101,52.27659],[6.02602,52.2755],[6.02122,52.27412],[6.01667,52.27246],[6.0124,52.27053],[6.00833,52.26827],[6.00476,52.26586],[6.0016,52.26325],[5.99887,52.26046],[5.9966,52.25752],[5.99481,52.25446],[5.99351,52.25131],[5.99271,52.2481],[5.99244,52.24473],[5.9927,52.24148],[5.99347,52.23827],[5.99475,52.23511],[5.99653,52.23205],[5.99879,52.2291],[6.0015,52.22631],[6.00464,52.22369],[6.00832,52.22119],[6.01224,52.21901],[6.01649,52.21707],[6.02103,52.21539],[6.02581,52.214],[6.03079,52.21289],[6.03611,52.21207],[6.04134,52.2116],[6.04663,52.21143],[6.05192,52.21159],[6.05716,52.21206],[6.06248,52.21288],[6.06746,52.21398],[6.07224,52.21537],[6.07679,52.21704],[6.08104,52.21898],[6.08497,52.22116],[6.08853,52.22357],[6.0918,52.22627],[6.09451,52.22907],[6.09678,52.23201],[6.09856,52.23507],[6.09985,52.23822],[6.10063,52.24144],[6.1009,52.24469]]]},"properties":{"type":"PARAJUMP","name":"TEUGE","identifier":"LVNL:PJ:EHTEPJA001","lowerLimit":"GND","upperLimit":"FL130","authority":"LVNL"}},
{"type":"Feature","geometry":{"type":"Polygon","coordinates":[[[6.57094,52.73104],[6.57063,52.73441],[6.56979,52.73762],[6.56845,52.74077],[6.5666,52.74382],[6.56427,52.74675],[6.56149,52.74953],[6.55826,52.75213],[6.55464,52.75452],[6.55065,52.75669],[6.54632,52.75861],[6.54171,52.76027],[6.53685,52.76165],[6.5318,52.76273],[6.52659,52.7635],[6.52129,52.76397],[6.51593,52.76412],[6.51058,52.76395],[6.50528,52.76346],[6.50008,52.76267],[6.49504,52.76156],[6.49019,52.76017],[6.4856,52.75849],[6.4813,52.75655],[6.47733,52.75437],[6.4753,52.75301],[6.47816,52.75066],[6.481,52.74776],[6.48326,52.74482],[6.48504,52.74175],[6.48632,52.73859],[6.48709,52.73537],[6.48733,52.73201],[6.48703,52.72876],[6.48621,52.72555],[6.48488,52.7224],[6.48305,52.71934],[6.48074,52.71641],[6.47797,52.71363],[6.47476,52.71102],[6.47332,52.71006],[6.47375,52.70971],[6.47735,52.7073],[6.48132,52.70511],[6.48562,52.70317],[6.49037,52.70145],[6.49522,52.70006],[6.50044,52.69894],[6.50564,52.69816],[6.51094,52.6977],[6.51629,52.69755],[6.52163,52.69772],[6.52711,52.69823],[6.5323,52.69903],[6.53733,52.70014],[6.54216,52.70155],[6.5469,52.7033],[6.55118,52.70525],[6.55512,52.70745],[6.55869,52.70987],[6.56196,52.71259],[6.56468,52.7154],[6.56693,52.71835],[6.56869,52.72142],[6.56996,52.72458],[6.57071,52.7278],[6.57094,52.73104]]]},"properties":{"type":"PARAJUMP","name":"HOOGEVEEN","identifier":"LVNL:PJ:EHHOPJA001","lowerLimit":"GND","upperLimit":"FL150","authority":"LVNL"}},
{"type":"Feature","geometry":{"type":"Polygon","coordinates":[[[6.4753,52.75301],[6.47498,52.75328],[6.47139,52.75569],[6.46728,52.75796],[6.46298,52.7599],[6.45838,52.76157],[6.45354,52.76296],[6.44849,52.76406],[6.44329,52.76486],[6.43799,52.76534],[6.43264,52.76551],[6.42728,52.76536],[6.42198,52.76489],[6.41677,52.76411],[6.41172,52.76303],[6.40686,52.76165],[6.40225,52.75999],[6.39778,52.75799],[6.39381,52.75581],[6.3902,52.75341],[6.38699,52.7508],[6.38422,52.74802],[6.38192,52.74508],[6.38009,52.74202],[6.37877,52.73887],[6.37796,52.73566],[6.37767,52.73229],[6.37792,52.72905],[6.37869,52.72583],[6.37998,52.72267],[6.38177,52.71961],[6.38404,52.71666],[6.38677,52.71386],[6.38994,52.71124],[6.39352,52.70882],[6.39746,52.70662],[6.40174,52.70467],[6.40632,52.70298],[6.41132,52.70152],[6.41635,52.70042],[6.42153,52.69961],[6.42683,52.69912],[6.43217,52.69894],[6.43752,52.69908],[6.44282,52.69953],[6.4482,52.70033],[6.45325,52.70141],[6.4581,52.70279],[6.46271,52.70445],[6.46703,52.70637],[6.47102,52.70854],[6.47332,52.71006],[6.47476,52.71102],[6.47797,52.71363],[6.48074,52.71641],[6.48305,52.71934],[6.48488,52.7224],[6.48621,52.72555],[6.48703,52.72876],[6.48733,52.73201],[6.48709,52.73537],[6.48632,52.73859],[6.48504,52.74175],[6.48326,52.74482],[6.481,52.74776],[6.47816,52.75066],[6.4753,52.75301]]]},"properties":{"type":"PARAJUMP","name":"ECHTEN","identifier":"LVNL:PJ:EHAAPJA004","lowerLimit":"GND","upperLimit":"FL150","authority":"LVNL"}},
{"type":"Feature","geometry":{"type":"Polygon","coordinates":[[[6.52686,52.80005],[6.52662,52.80341],[6.52586,52.80663],[6.52458,52.80979],[6.5228,52.81286],[6.52053,52.8158],[6.5178,52.8186],[6.51463,52.82123],[6.51105,52.82365],[6.50695,52.82593],[6.50265,52.82788],[6.49806,52.82956],[6.49322,52.83096],[6.48817,52.83208],[6.48297,52.83288],[6.47767,52.83338],[6.47231,52.83356],[6.46694,52.83342],[6.46162,52.83297],[6.45641,52.8322],[6.45134,52.83113],[6.44646,52.82977],[6.44184,52.82812],[6.43749,52.8262],[6.43335,52.82396],[6.42972,52.82157],[6.42649,52.81897],[6.4237,52.81619],[6.42129,52.81315],[6.41946,52.8101],[6.41814,52.80695],[6.41732,52.80373],[6.41703,52.80037],[6.41728,52.79712],[6.41805,52.7939],[6.41933,52.79074],[6.42112,52.78768],[6.42339,52.78473],[6.42613,52.78194],[6.4293,52.77931],[6.43288,52.77689],[6.43683,52.77469],[6.44111,52.77274],[6.44569,52.77105],[6.45052,52.76963],[6.45556,52.76851],[6.46074,52.76769],[6.46623,52.76717],[6.47158,52.76699],[6.47694,52.76713],[6.48225,52.76758],[6.48746,52.76835],[6.4927,52.76946],[6.49756,52.77084],[6.50218,52.77249],[6.5065,52.77441],[6.5105,52.77658],[6.51425,52.77906],[6.51747,52.78167],[6.52025,52.78445],[6.52256,52.78738],[6.5244,52.79044],[6.52574,52.79359],[6.52656,52.7968],[6.52686,52.80005]]]},"properties":{"type":"PARAJUMP","name":"SPIER","identifier":"LVNL:PJ:EHAAPJA016","lowerLimit":"GND","upperLimit":"FL150","authority":"LVNL"}},
{"type":"Feature","geometry":{"type":"Polygon","coordinates":[[[4.88893,53.11534],[4.88864,53.11871],[4.88782,53.12192],[4.88649,53.12507],[4.88465,53.12813],[4.88232,53.13106],[4.87953,53.13385],[4.8763,53.13646],[4.87266,53.13886],[4.86864,53.14104],[4.8643,53.14297],[4.85966,53.14464],[4.85476,53.14603],[4.84967,53.14713],[4.84443,53.14792],[4.83908,53.1484],[4.83367,53.14856],[4.82827,53.14841],[4.82292,53.14793],[4.81767,53.14715],[4.8124,53.14602],[4.80751,53.14463],[4.80287,53.14295],[4.79853,53.14102],[4.79452,53.13883],[4.79088,53.13643],[4.78766,53.13382],[4.78487,53.13103],[4.78255,53.12809],[4.78072,53.12503],[4.77939,53.12188],[4.77858,53.11867],[4.77829,53.1153],[4.77855,53.11206],[4.77934,53.10884],[4.78065,53.10568],[4.78246,53.10262],[4.78475,53.09968],[4.78752,53.09688],[4.79084,53.09417],[4.79447,53.09176],[4.79847,53.08958],[4.8028,53.08764],[4.80743,53.08596],[4.81231,53.08456],[4.81739,53.08346],[4.82281,53.08264],[4.82815,53.08216],[4.83355,53.08199],[4.83913,53.08216],[4.84447,53.08264],[4.84971,53.08344],[4.85479,53.08453],[4.85968,53.08592],[4.86431,53.08759],[4.86865,53.08953],[4.8728,53.09179],[4.87654,53.09429],[4.87974,53.09691],[4.8825,53.09971],[4.88479,53.10266],[4.88659,53.10572],[4.88789,53.10888],[4.88867,53.11209],[4.88893,53.11534]]]},"properties":{"type":"PARAJUMP","name":"TEXEL","identifier":"LVNL:PJ:EHTXPJA001","lowerLimit":"GND","upperLimit":"FL150","authority":"LVNL"}},
{"type":"Feature","geometry":{"type":"Polygon","coordinates":[[[6.58617,53.12743],[6.58585,53.13079],[6.58501,53.134],[6.58365,53.13715],[6.58179,53.1402],[6.57944,53.14313],[6.57663,53.14591],[6.57338,53.14851],[6.56972,53.1509],[6.5657,53.15307],[6.56133,53.155],[6.55668,53.15665],[6.55178,53.15803],[6.54668,53.15911],[6.54142,53.15989],[6.53607,53.16036],[6.53066,53.1605],[6.52526,53.16034],[6.51991,53.15985],[6.51467,53.15905],[6.50958,53.15795],[6.50469,53.15656],[6.50005,53.15488],[6.49571,53.15294],[6.4917,53.15076],[6.48807,53.14835],[6.48485,53.14574],[6.48206,53.14295],[6.47974,53.14002],[6.47791,53.13696],[6.47659,53.1338],[6.47578,53.13059],[6.4755,53.12722],[6.47577,53.12398],[6.47656,53.12076],[6.47787,53.1176],[6.47968,53.11454],[6.48198,53.1116],[6.48475,53.10881],[6.48808,53.1061],[6.49171,53.10369],[6.49571,53.10151],[6.50005,53.09957],[6.50468,53.09789],[6.50974,53.09645],[6.51483,53.09536],[6.52007,53.09458],[6.52561,53.09409],[6.531,53.09394],[6.5364,53.09411],[6.54174,53.09459],[6.54698,53.09539],[6.55224,53.09653],[6.55711,53.09794],[6.56174,53.09962],[6.56621,53.10164],[6.57019,53.10384],[6.57392,53.10635],[6.5771,53.10898],[6.57984,53.11178],[6.58211,53.11473],[6.5839,53.1178],[6.58517,53.12096],[6.58593,53.12418],[6.58617,53.12743]]]},"properties":{"type":"PARAJUMP","name":"WINDE","identifier":"LVNL:PJ:EHAAPJA021","lowerLimit":"GND","upperLimit":"FL130","authority":"LVNL"}},
{"type":"Feature","geometry":{"type":"Polygon","coordinates":[[[7.08988,53.20997],[7.08961,53.21333],[7.0888,53.21655],[7.08748,53.2197],[7.08565,53.22276],[7.08333,53.2257],[7.08055,53.22849],[7.07732,53.23111],[7.07369,53.23352],[7.06953,53.23578],[7.06517,53.23771],[7.06051,53.23938],[7.05561,53.24076],[7.05051,53.24186],[7.04525,53.24264],[7.03989,53.24312],[7.03447,53.24328],[7.02906,53.24312],[7.02369,53.24265],[7.01843,53.24187],[7.01333,53.24078],[7.00842,53.23939],[7.00377,53.23773],[6.9994,53.2358],[6.99524,53.23354],[6.9916,53.23113],[6.98837,53.22852],[6.98558,53.22573],[6.98326,53.22279],[6.98142,53.21973],[6.9801,53.21658],[6.97929,53.21337],[6.979,53.21],[6.97927,53.20676],[6.98006,53.20354],[6.98137,53.20038],[6.98319,53.19732],[6.9855,53.19438],[6.98827,53.19159],[6.99149,53.18897],[6.99525,53.18647],[6.99926,53.18429],[7.0036,53.18235],[7.00824,53.18067],[7.01313,53.17928],[7.01822,53.17818],[7.02347,53.17738],[7.02882,53.17689],[7.03442,53.17672],[7.03982,53.17687],[7.04518,53.17735],[7.05043,53.17813],[7.05571,53.17927],[7.0606,53.18066],[7.06524,53.18233],[7.06959,53.18427],[7.07361,53.18645],[7.07725,53.18885],[7.08059,53.19156],[7.08336,53.19435],[7.08568,53.19729],[7.0875,53.20035],[7.08882,53.20351],[7.08961,53.20672],[7.08988,53.20997]]]},"properties":{"type":"PARAJUMP","name":"OOSTWOLD","identifier":"LVNL:PJ:EHOWPJA001","lowerLimit":"GND","upperLimit":"FL150","authority":"LVNL"}},
{"type":"Feature","geometry":{"type":"Polygon","coordinates":[[[5.73298,53.4518],[5.73267,53.45517],[5.73183,53.45838],[5.73048,53.46153],[5.72861,53.46458],[5.72626,53.46752],[5.72343,53.4703],[5.72017,53.4729],[5.71649,53.4753],[5.71244,53.47747],[5.70805,53.4794],[5.70319,53.48112],[5.69825,53.48249],[5.69311,53.48357],[5.68781,53.48434],[5.68242,53.4848],[5.67697,53.48495],[5.67153,53.48477],[5.66614,53.48428],[5.66085,53.48348],[5.65573,53.48238],[5.65081,53.48098],[5.64614,53.4793],[5.64177,53.47736],[5.63774,53.47517],[5.63408,53.47276],[5.63084,53.47014],[5.62804,53.46735],[5.62571,53.46441],[5.62388,53.46135],[5.62255,53.4582],[5.62174,53.45498],[5.62147,53.45162],[5.62174,53.44837],[5.62255,53.44516],[5.62388,53.442],[5.62571,53.43894],[5.62804,53.436],[5.63084,53.43321],[5.63407,53.4306],[5.63786,53.4281],[5.6419,53.42592],[5.64627,53.42399],[5.65094,53.42232],[5.65586,53.42093],[5.66099,53.41983],[5.66627,53.41904],[5.67184,53.41854],[5.67728,53.41839],[5.68272,53.41855],[5.68829,53.41905],[5.69357,53.41985],[5.69869,53.42095],[5.70377,53.4224],[5.70843,53.42409],[5.71278,53.42604],[5.7168,53.42823],[5.72044,53.43065],[5.72378,53.43337],[5.72655,53.43616],[5.72885,53.43911],[5.73066,53.44218],[5.73195,53.44534],[5.73273,53.44856],[5.73298,53.4518]]]},"properties":{"type":"PARAJUMP","name":"AMELAND","identifier":"LVNL:PJ:EHALPJA001","lowerLimit":"GND","upperLimit":"FL150","authority":"LVNL"}},
{"type":"Feature","geometry":{"type":"Polygon","coordinates":[[[5.64922,50.82636],[5.63757,50.81429],[5.69606,50.79009],[5.69193,50.79517],[5.69136,50.79645],[5.69138,50.79708],[5.69215,50.79832],[5.69736,50.80235],[5.69833,50.80348],[5.69867,50.80412],[5.69892,50.80532],[5.6985,50.80663],[5.6972,50.80808],[5.69418,50.81024],[5.69318,50.81058],[5.69265,50.81114],[5.69271,50.81137],[5.69168,50.81213],[5.69151,50.81184],[5.68877,50.81163],[5.6886,50.81187],[5.68681,50.81212],[5.68691,50.81232],[5.68599,50.81223],[5.68591,50.81249],[5.68497,50.81281],[5.68435,50.81342],[5.68264,50.81295],[5.68175,50.81221],[5.68059,50.81203],[5.67994,50.81256],[5.67949,50.81434],[5.67845,50.81506],[5.67828,50.81647],[5.67315,50.81601],[5.67273,50.81695],[5.66966,50.81725],[5.66944,50.81783],[5.66807,50.81774],[5.66796,50.81694],[5.66768,50.81655],[5.6661,50.81695],[5.66669,50.81726],[5.66553,50.81723],[5.66524,50.81703],[5.66386,50.81726],[5.66363,50.81777],[5.66323,50.81804],[5.659,50.81849],[5.65401,50.82009],[5.6552,50.82096],[5.65432,50.82127],[5.65645,50.82317],[5.6555,50.8238],[5.65623,50.82434],[5.65183,50.82753],[5.64922,50.82636]]]},"properties":{"type":"CTR_NL","name":"MAASTRICHT CTR","identifier":"LVNL:CTR:EHBK3","lowerLimit":"GND","upperLimit":"3000 FT MSL","authority":"LVNL / IenW"}},
{"type":"Feature","geometry":{"type":"Polygon","coordinates":[[[5.95739,50.98501],[5.96043,50.9834],[5.96043,51.01275],[5.92708,51.01303],[5.87728,51.0335],[5.87688,51.03157],[5.87459,51.02922],[5.87538,51.02677],[5.87666,51.02462],[5.87665,51.02388],[5.87891,51.02062],[5.87898,51.01988],[5.87853,51.01866],[5.87887,51.01784],[5.88426,51.01339],[5.88545,51.01382],[5.88835,51.01347],[5.89271,51.0123],[5.89564,51.01102],[5.89548,51.00453],[5.90552,51.00217],[5.90435,50.99614],[5.90374,50.98721],[5.8995,50.98435],[5.89567,50.98135],[5.8938,50.9811],[5.89259,50.98031],[5.89378,50.97956],[5.89567,50.97731],[5.89618,50.9771],[5.89681,50.97649],[5.89709,50.97487],[5.90243,50.97458],[5.90469,50.97455],[5.9056,50.97472],[5.91173,50.97641],[5.91559,50.97783],[5.91717,50.97809],[5.91855,50.97775],[5.92299,50.97955],[5.92765,50.98229],[5.93389,50.98536],[5.95013,50.98721],[5.95518,50.98842],[5.95739,50.98501]]]},"properties":{"type":"CTR_NL","name":"MAASTRICHT CTR","identifier":"LVNL:CTR:EHBK2","lowerLimit":"GND","upperLimit":"3000 FT MSL","authority":"LVNL / IenW"}},
{"type":"Feature","geometry":{"type":"Polygon","coordinates":[[[5.69193,50.79517],[5.69481,50.7924],[5.69606,50.79009],[5.7286,50.77693],[5.76054,50.80812],[5.76865,50.80775],[5.77681,50.80762],[5.78498,50.80774],[5.79313,50.80811],[5.80125,50.80872],[5.80816,50.80944],[5.81615,50.8105],[5.82406,50.8118],[5.83186,50.81334],[5.83953,50.81512],[5.84599,50.81682],[5.85339,50.81901],[5.86061,50.82143],[5.86764,50.82406],[5.87446,50.8269],[5.88014,50.8295],[5.8892,50.83414],[5.89857,50.83969],[5.9065,50.84511],[5.91452,50.85144],[5.91987,50.85628],[5.97786,50.91257],[6.08503,50.91153],[6.08644,50.91228],[6.08677,50.913],[6.08684,50.9141],[6.08933,50.91623],[6.09209,50.91744],[6.09347,50.91908],[6.09417,50.92031],[6.09416,50.92071],[6.09373,50.92123],[6.09017,50.91957],[6.08944,50.91853],[6.08683,50.91937],[6.08384,50.92093],[6.08213,50.92154],[6.07746,50.92259],[6.07178,50.92313],[6.06818,50.92066],[6.06577,50.92101],[6.06297,50.92204],[6.06181,50.92124],[6.05402,50.92225],[6.05616,50.92716],[6.05087,50.92991],[6.04915,50.92939],[6.04719,50.92843],[6.04558,50.92808],[6.045,50.92896],[6.04441,50.92934],[6.03979,50.93085],[6.03859,50.93086],[6.0182,50.9347],[6.01508,50.94788],[6.01685,50.95264],[6.0118,50.9543],[6.0052,50.95678],[6.00664,50.95806],[6.00908,50.95949],[6.01069,50.96003],[6.013,50.9604],[6.01521,50.96237],[6.01731,50.96528],[6.01946,50.96895],[6.02116,50.97101],[6.02264,50.97402],[6.0268,50.98131],[6.02689,50.98164],[6.02651,50.98327],[6.02293,50.98327],[6.0187,50.98382],[6.01723,50.98368],[6.01736,50.9834],[5.98422,50.98212],[5.98224,50.98307],[5.98136,50.98322],[5.97958,50.98292],[5.97394,50.98056],[5.96851,50.97943],[5.96758,50.9794],[5.96633,50.97977],[5.96501,50.98094],[5.96079,50.98306],[5.96088,50.98316],[5.95739,50.98501],[5.95518,50.98842],[5.95013,50.98721],[5.93389,50.98536],[5.92765,50.98229],[5.92299,50.97955],[5.91855,50.97775],[5.91717,50.97809],[5.91559,50.97783],[5.91173,50.97641],[5.9056,50.97472],[5.90469,50.97455],[5.90243,50.97458],[5.89709,50.97487],[5.89681,50.97649],[5.89618,50.9771],[5.89567,50.97731],[5.89378,50.97956],[5.89259,50.98031],[5.8938,50.9811],[5.89567,50.98135],[5.8995,50.98435],[5.90374,50.98721],[5.90435,50.99614],[5.90552,51.00217],[5.89548,51.00453],[5.89564,51.01102],[5.89271,51.0123],[5.88835,51.01347],[5.88545,51.01382],[5.88426,51.01339],[5.87887,51.01784],[5.87853,51.01866],[5.87898,51.01988],[5.87891,51.02062],[5.87665,51.02388],[5.87666,51.02462],[5.87538,51.02677],[5.87459,51.02922],[5.87688,51.03157],[5.87728,51.0335],[5.87728,51.03352],[5.82558,51.05472],[5.76697,50.99883],[5.76685,50.9989],[5.76645,50.99812],[5.76557,50.99706],[5.76333,50.99532],[5.75831,50.99241],[5.75656,50.99116],[5.75537,50.98996],[5.75023,50.98327],[5.74875,50.9821],[5.74716,50.98119],[5.74523,50.98055],[5.7387,50.97922],[5.73662,50.97799],[5.73565,50.97648],[5.73506,50.97447],[5.73404,50.97304],[5.73231,50.97162],[5.72904,50.96989],[5.72634,50.96769],[5.7214,50.96317],[5.72061,50.96173],[5.72048,50.96014],[5.72074,50.95943],[5.72194,50.95768],[5.72293,50.95691],[5.72421,50.95626],[5.72628,50.95562],[5.72938,50.95528],[5.73252,50.95551],[5.73646,50.95636],[5.73909,50.95786],[5.74167,50.96003],[5.74399,50.96105],[5.74609,50.96128],[5.74871,50.96084],[5.75085,50.9602],[5.75282,50.9593],[5.75483,50.9581],[5.75689,50.95632],[5.7579,50.95517],[5.7587,50.95371],[5.75875,50.95231],[5.75845,50.95152],[5.75777,50.95072],[5.75678,50.95009],[5.75141,50.94891],[5.74804,50.9477],[5.74697,50.94706],[5.74589,50.94563],[5.74573,50.94271],[5.74098,50.93541],[5.73985,50.93444],[5.73307,50.93009],[5.72836,50.92527],[5.72703,50.92306],[5.72613,50.92034],[5.72611,50.91883],[5.72673,50.91607],[5.72659,50.91437],[5.72565,50.91249],[5.72445,50.91101],[5.7229,50.90963],[5.72158,50.90888],[5.72021,50.90836],[5.71797,50.90804],[5.71536,50.90848],[5.71351,50.90906],[5.7103,50.91094],[5.70753,50.91169],[5.70424,50.91158],[5.69941,50.91033],[5.69767,50.90925],[5.69684,50.90831],[5.69639,50.90748],[5.69623,50.90669],[5.69666,50.90216],[5.69647,50.90074],[5.69587,50.89868],[5.69497,50.89683],[5.69238,50.89391],[5.6908,50.89289],[5.68544,50.89027],[5.68339,50.88893],[5.68161,50.88745],[5.68028,50.88542],[5.67938,50.88345],[5.67931,50.88213],[5.67954,50.88054],[5.67671,50.8804],[5.67638,50.88088],[5.67196,50.88111],[5.66963,50.88182],[5.66883,50.88108],[5.66672,50.88006],[5.66397,50.87903],[5.6617,50.87866],[5.66151,50.87808],[5.66066,50.87773],[5.66103,50.87742],[5.65869,50.87619],[5.65793,50.87659],[5.65742,50.87629],[5.65669,50.87637],[5.65334,50.87395],[5.65135,50.87507],[5.64858,50.87331],[5.64789,50.87373],[5.64679,50.87316],[5.64416,50.87136],[5.64543,50.87076],[5.64781,50.86909],[5.64908,50.86867],[5.6495,50.86835],[5.64734,50.86695],[5.64165,50.86415],[5.64403,50.86295],[5.64224,50.86139],[5.64357,50.86048],[5.64196,50.85955],[5.64186,50.85918],[5.64382,50.85888],[5.64165,50.85757],[5.64351,50.85679],[5.64033,50.85374],[5.64176,50.85258],[5.64191,50.85114],[5.64266,50.8501],[5.64027,50.84949],[5.64071,50.84774],[5.6389,50.84772],[5.6392,50.84639],[5.64057,50.84471],[5.64228,50.84311],[5.64119,50.84293],[5.6428,50.84146],[5.64187,50.8408],[5.64535,50.8394],[5.64375,50.83793],[5.64747,50.83593],[5.64721,50.83584],[5.64801,50.83491],[5.64829,50.8332],[5.65002,50.83391],[5.651,50.83277],[5.65136,50.83201],[5.65114,50.83115],[5.6503,50.82986],[5.65021,50.82883],[5.64887,50.82705],[5.64884,50.82672],[5.64922,50.82636],[5.65183,50.82753],[5.65623,50.82434],[5.6555,50.8238],[5.65645,50.82317],[5.65432,50.82127],[5.6552,50.82096],[5.65401,50.82009],[5.659,50.81849],[5.66323,50.81804],[5.66363,50.81777],[5.66386,50.81726],[5.66524,50.81703],[5.66553,50.81723],[5.66669,50.81726],[5.6661,50.81695],[5.66768,50.81655],[5.66796,50.81694],[5.66807,50.81774],[5.66944,50.81783],[5.66966,50.81725],[5.67273,50.81695],[5.67315,50.81601],[5.67828,50.81647],[5.67845,50.81506],[5.67949,50.81434],[5.67994,50.81256],[5.68059,50.81203],[5.68175,50.81221],[5.68264,50.81295],[5.68435,50.81342],[5.68497,50.81281],[5.68591,50.81249],[5.68599,50.81223],[5.68691,50.81232],[5.68681,50.81212],[5.6886,50.81187],[5.68877,50.81163],[5.69151,50.81184],[5.69168,50.81213],[5.69271,50.81137],[5.69265,50.81114],[5.69318,50.81058],[5.69418,50.81024],[5.6972,50.80808],[5.6985,50.80663],[5.69892,50.80532],[5.69867,50.80412],[5.69833,50.80348],[5.69736,50.80235],[5.69215,50.79832],[5.69138,50.79708],[5.69136,50.79645],[5.69193,50.79517]]]},"properties":{"type":"CTR_NL","name":"MAASTRICHT CTR","identifier":"LVNL:CTR:EHBK1","lowerLimit":"GND","upperLimit":"3000 FT MSL","authority":"LVNL / IenW"}}
]}