{"type":"FeatureCollection", "features": [
{"type":"Feature","geometry":{"type":"Polygon","coordinates":[[[5.99421,58.58672],[5.97784,58.58459],[5.97543,58.61016],[5.95724,58.61636],[5.92146,58.61356],[5.91068,58.60745],[5.93108,58.60094],[5.91948,58.59157],[5.90464,58.58643],[5.89455,58.5877],[5.89005,58.58393],[5.88686,58.58364],[5.88874,58.5789],[5.89214,58.57654],[5.89327,58.57552],[5.89355,58.57527],[5.89999,58.5746],[5.90702,58.57387],[5.91123,58.57386],[5.9146,58.57385],[5.918,58.57408],[5.91883,58.57414],[5.93662,58.57244],[5.96687,58.56061],[5.98738,58.56424],[5.98855,58.57054],[5.97056,58.57179],[5.97047,58.57931],[5.99421,58.58672]]]},"properties":{"_zoneType":"NO_INFRA_NVE","type":"NO_INFRA_NVE","name":"Bjerkreim vindkraftverk","authority":"NVE (Norges vassdrags- og energidirektorat)"}},
{"type":"Feature","geometry":{"type":"Polygon","coordinates":[[[5.85139,58.58146],[5.86973,58.57151],[5.8841,58.5728],[5.88418,58.57288],[5.88647,58.57318],[5.88735,58.57438],[5.89138,58.57643],[5.8922,58.57599],[5.89222,58.57602],[5.88851,58.57892],[5.88635,58.58446],[5.88868,58.58715],[5.88584,58.58789],[5.87796,58.58652],[5.8729,58.59912],[5.85901,58.59753],[5.86962,58.60835],[5.85599,58.60531],[5.8385,58.57784],[5.85139,58.58146]]]},"properties":{"_zoneType":"NO_INFRA_NVE","type":"NO_INFRA_NVE","name":"Skinansfjellet vindkraftverk","authority":"NVE (Norges vassdrags- og energidirektorat)"}},
{"type":"Feature","geometry":{"type":"Polygon","coordinates":[[[5.93378,58.73026],[5.9412,58.7239],[5.95629,58.72979],[5.93378,58.73026]]]},"properties":{"_zoneType":"NO_INFRA_NVE","type":"NO_INFRA_NVE","name":"Tindafjellet vindkraftverk","authority":"NVE (Norges vassdrags- og energidirektorat)"}},
{"type":"Feature","geometry":{"type":"Polygon","coordinates":[[[5.90748,58.75181],[5.91225,58.74489],[5.91597,58.74957],[5.90748,58.75181]]]},"properties":{"_zoneType":"NO_INFRA_NVE","type":"NO_INFRA_NVE","name":"Skurvenuten vindkraftverk","authority":"NVE (Norges vassdrags- og energidirektorat)"}},
{"type":"Feature","geometry":{"type":"Polygon","coordinates":[[[6.07966,58.44527],[6.08064,58.42453],[6.0698,58.4246],[6.07716,58.42149],[6.0662,58.40987],[6.08027,58.40717],[6.09015,58.41654],[6.07876,58.4227],[6.09811,58.42285],[6.08831,58.4344],[6.12386,58.43719],[6.12667,58.45611],[6.10672,58.45795],[6.10264,58.44488],[6.07966,58.44527]]]},"properties":{"_zoneType":"NO_INFRA_NVE","type":"NO_INFRA_NVE","name":"Egersund vindkraftverk","authority":"NVE (Norges vassdrags- og energidirektorat)"}},
{"type":"Feature","geometry":{"type":"Polygon","coordinates":[[[4.89514,59.31776],[4.90624,59.31334],[4.91195,59.31574],[4.89514,59.31776]]]},"properties":{"_zoneType":"NO_INFRA_NVE","type":"NO_INFRA_NVE","name":"Utsira vind","authority":"NVE (Norges vassdrags- og energidirektorat)"}},
{"type":"Feature","geometry":{"type":"Polygon","coordinates":[[[5.02279,59.1433],[5.03522,59.13769],[5.03329,59.14429],[5.02279,59.1433]]]},"properties":{"_zoneType":"NO_INFRA_NVE","type":"NO_INFRA_NVE","name":"Zefyros","authority":"NVE (Norges vassdrags- og energidirektorat)"}},
{"type":"Feature","geometry":{"type":"Polygon","coordinates":[[[5.74631,58.74114],[5.74872,58.73215],[5.76054,58.73329],[5.75798,58.74285],[5.74631,58.74114]]]},"properties":{"_zoneType":"NO_INFRA_NVE","type":"NO_INFRA_NVE","name":"Åsen 2 vindkraftverk","authority":"NVE (Norges vassdrags- og energidirektorat)"}},
{"type":"Feature","geometry":{"type":"MultiPolygon","coordinates":[[[[8.81895,63.50757],[8.81784,63.51477],[8.81883,63.51898],[8.81871,63.51955],[8.81855,63.51972],[8.81798,63.51811],[8.81705,63.51661],[8.81746,63.51316],[8.81778,63.50738],[8.81895,63.50757]]],[[[8.77687,63.55004],[8.78193,63.54994],[8.78795,63.54953],[8.80116,63.54467],[8.80931,63.54123],[8.80705,63.53665],[8.8046,63.53608],[8.80172,63.53598],[8.80205,63.53568],[8.80539,63.53592],[8.80819,63.5367],[8.81032,63.54058],[8.80581,63.54474],[8.802,63.54467],[8.7886,63.54967],[8.77893,63.5502],[8.77687,63.55004]]],[[[8.80029,63.53671],[8.80053,63.53694],[8.79818,63.53684],[8.79813,63.53682],[8.80029,63.53671]]],[[[8.79527,63.53587],[8.79513,63.53585],[8.79343,63.53406],[8.79327,63.53368],[8.79436,63.53294],[8.79503,63.53268],[8.79667,63.53219],[8.7938,63.53361],[8.79522,63.53585],[8.79527,63.53587]]],[[[8.8002,63.53165],[8.80041,63.5315],[8.80039,63.53163],[8.8002,63.53165]]],[[[8.80057,63.53079],[8.80053,63.53066],[8.80057,63.53078],[8.80057,63.53079]]],[[[8.80051,63.53061],[8.7991,63.52845],[8.79674,63.527],[8.79522,63.52491],[8.79469,63.52361],[8.79522,63.52219],[8.79543,63.52214],[8.79496,63.52344],[8.79562,63.52527],[8.79937,63.52751],[8.80051,63.53061]]],[[[8.81516,63.52801],[8.81549,63.52788],[8.81491,63.52727],[8.81387,63.5238],[8.81258,63.52149],[8.81517,63.52111],[8.81785,63.52028],[8.81827,63.52004],[8.81815,63.52018],[8.81289,63.52194],[8.81633,63.52758],[8.81517,63.52801],[8.81516,63.52801]]]]},"properties":{"_zoneType":"NO_INFRA_NVE","type":"NO_INFRA_NVE","name":"Hitra vindkraftverk","authority":"NVE (Norges vassdrags- og energidirektorat)"}},
{"type":"Feature","geometry":{"type":"Polygon","coordinates":[[[5.92897,58.66483],[5.94985,58.67802],[5.96775,58.68146],[5.97354,58.68347],[5.97279,58.68523],[5.9595,58.6908],[5.94946,58.69048],[5.92248,58.67787],[5.9019,58.67223],[5.90009,58.67031],[5.89637,58.66944],[5.89502,58.6686],[5.89135,58.66667],[5.89186,58.66486],[5.8947,58.66375],[5.91117,58.66012],[5.92897,58.66483]]]},"properties":{"_zoneType":"NO_INFRA_NVE","type":"NO_INFRA_NVE","name":"Måkaknuten vindkraftverk","authority":"NVE (Norges vassdrags- og energidirektorat)"}},
{"type":"Feature","geometry":{"type":"Polygon","coordinates":[[[6.08408,58.37797],[6.10007,58.37645],[6.10494,58.38349],[6.09236,58.3897],[6.08408,58.37797]]]},"properties":{"_zoneType":"NO_INFRA_NVE","type":"NO_INFRA_NVE","name":"Svåheia vindkraftverk","authority":"NVE (Norges vassdrags- og energidirektorat)"}},
{"type":"Feature","geometry":{"type":"Polygon","coordinates":[[[5.97354,58.68347],[5.97279,58.68523],[5.9595,58.6908],[5.94946,58.69048],[5.92248,58.67787],[5.9019,58.67223],[5.90009,58.67031],[5.89637,58.66944],[5.89135,58.66667],[5.89502,58.6686],[5.89637,58.66944],[5.90009,58.67031],[5.9019,58.67223],[5.92248,58.67787],[5.94946,58.69048],[5.9595,58.6908],[5.97279,58.68523],[5.97354,58.68347]]]},"properties":{"_zoneType":"NO_INFRA_NVE","type":"NO_INFRA_NVE","name":"Måkaknuten vindkraftverk","authority":"NVE (Norges vassdrags- og energidirektorat)"}},
{"type":"Feature","geometry":{"type":"Polygon","coordinates":[[[5.92843,58.65988],[5.95896,58.65789],[5.97403,58.6669],[5.96259,58.67276],[5.92843,58.65988]]]},"properties":{"_zoneType":"NO_INFRA_NVE","type":"NO_INFRA_NVE","name":"Stigafjellet vindkraftverk","authority":"NVE (Norges vassdrags- og energidirektorat)"}},
{"type":"Feature","geometry":{"type":"Polygon","coordinates":[[[10.12061,63.8509],[10.18264,63.86232],[10.21074,63.87319],[10.20113,63.91399],[10.18723,63.92189],[10.13421,63.90802],[10.04201,63.87712],[10.04988,63.86912],[10.08214,63.86405],[10.12061,63.8509]]]},"properties":{"_zoneType":"NO_INFRA_NVE","type":"NO_INFRA_NVE","name":"Storheia vindkraftverk","authority":"NVE (Norges vassdrags- og energidirektorat)"}},
{"type":"Feature","geometry":{"type":"Polygon","coordinates":[[[6.5068,58.35738],[6.48763,58.34058],[6.44669,58.3323],[6.46262,58.32517],[6.49391,58.3237],[6.5028,58.32986],[6.52091,58.32784],[6.51402,58.35391],[6.5068,58.35738]]]},"properties":{"_zoneType":"NO_INFRA_NVE","type":"NO_INFRA_NVE","name":"Tellenes vindkraftverk","authority":"NVE (Norges vassdrags- og energidirektorat)"}},
{"type":"Feature","geometry":{"type":"Polygon","coordinates":[[[7.90899,63.41975],[7.86205,63.41573],[7.86482,63.40222],[7.89454,63.37793],[7.91479,63.38654],[7.93396,63.379],[7.94418,63.38907],[7.93266,63.39545],[7.91403,63.40726],[7.90899,63.41975]]]},"properties":{"_zoneType":"NO_INFRA_NVE","type":"NO_INFRA_NVE","name":"Smøla vindkraftverk","authority":"NVE (Norges vassdrags- og energidirektorat)"}},
{"type":"Feature","geometry":null,"properties":{"_zoneType":"NO_INFRA_NVE","type":"NO_INFRA_NVE","name":"Nye Smøla vindkraftverk","authority":"NVE (Norges vassdrags- og energidirektorat)"}},
{"type":"Feature","geometry":{"type":"Polygon","coordinates":[[[6.41789,58.34055],[6.43408,58.33458],[6.45398,58.34606],[6.45333,58.36124],[6.41884,58.35978],[6.41789,58.34055]]]},"properties":{"_zoneType":"NO_INFRA_NVE","type":"NO_INFRA_NVE","name":"Tellenes vindkraftverk","authority":"NVE (Norges vassdrags- og energidirektorat)"}},
{"type":"Feature","geometry":{"type":"Polygon","coordinates":[[[6.38365,58.33288],[6.38019,58.32829],[6.40806,58.33101],[6.4053,58.33927],[6.38365,58.33288]]]},"properties":{"_zoneType":"NO_INFRA_NVE","type":"NO_INFRA_NVE","name":"Tellenes vindkraftverk","authority":"NVE (Norges vassdrags- og energidirektorat)"}},
{"type":"Feature","geometry":{"type":"Polygon","coordinates":[[[7.95277,63.40994],[7.96344,63.4017],[7.962,63.41624],[7.94801,63.42599],[7.93548,63.42267],[7.93997,63.41656],[7.94884,63.41225],[7.95277,63.40994]]]},"properties":{"_zoneType":"NO_INFRA_NVE","type":"NO_INFRA_NVE","name":"Smøla vindkraftverk","authority":"NVE (Norges vassdrags- og energidirektorat)"}},
{"type":"Feature","geometry":null,"properties":{"_zoneType":"NO_INFRA_NVE","type":"NO_INFRA_NVE","name":"Nye Smøla vindkraftverk","authority":"NVE (Norges vassdrags- og energidirektorat)"}},
{"type":"Feature","geometry":{"type":"Polygon","coordinates":[[[7.94418,63.38907],[7.93769,63.40558],[7.95277,63.40994],[7.94884,63.41225],[7.93997,63.41656],[7.93548,63.42267],[7.90899,63.41975],[7.91403,63.40726],[7.93266,63.39545],[7.94418,63.38907]]]},"properties":{"_zoneType":"NO_INFRA_NVE","type":"NO_INFRA_NVE","name":"Smøla vindkraftverk","authority":"NVE (Norges vassdrags- og energidirektorat)"}},
{"type":"Feature","geometry":null,"properties":{"_zoneType":"NO_INFRA_NVE","type":"NO_INFRA_NVE","name":"Nye Smøla vindkraftverk","authority":"NVE (Norges vassdrags- og energidirektorat)"}},
{"type":"Feature","geometry":{"type":"Polygon","coordinates":[[[5.57573,59.31012],[5.58417,59.31148],[5.57801,59.31658],[5.57573,59.31012]]]},"properties":{"_zoneType":"NO_INFRA_NVE","type":"NO_INFRA_NVE","name":"Tysvær vindkraftverk","authority":"NVE (Norges vassdrags- og energidirektorat)"}},
{"type":"Feature","geometry":{"type":"Polygon","coordinates":[[[10.30598,64.16481],[10.28129,64.16205],[10.29633,64.15718],[10.27106,64.15709],[10.28994,64.1476],[10.27198,64.15003],[10.22636,64.1366],[10.23716,64.12765],[10.2051,64.11976],[10.18373,64.12535],[10.1943,64.11653],[10.23005,64.1144],[10.23869,64.12474],[10.27653,64.13417],[10.29731,64.14459],[10.30598,64.16481]]]},"properties":{"_zoneType":"NO_INFRA_NVE","type":"NO_INFRA_NVE","name":"Roan vindkraftverk","authority":"NVE (Norges vassdrags- og energidirektorat)"}},
{"type":"Feature","geometry":{"type":"Polygon","coordinates":[[[11.19731,63.16445],[11.18067,63.13328],[11.1933,63.11335],[11.20877,63.1171],[11.21118,63.13088],[11.23385,63.1372],[11.20598,63.13832],[11.19517,63.14612],[11.19731,63.16445]]]},"properties":{"_zoneType":"NO_INFRA_NVE","type":"NO_INFRA_NVE","name":"Stokkfjellet vindkraftverk","authority":"NVE (Norges vassdrags- og energidirektorat)"}},
{"type":"Feature","geometry":{"type":"Polygon","coordinates":[[[9.54828,63.3729],[9.56199,63.38537],[9.53754,63.38506],[9.52378,63.3728],[9.513,63.37222],[9.4931,63.38351],[9.4433,63.37198],[9.43914,63.35894],[9.45718,63.36018],[9.47243,63.32849],[9.46347,63.31603],[9.48446,63.31488],[9.50962,63.32305],[9.52328,63.33461],[9.53062,63.3548],[9.54953,63.36063],[9.54828,63.3729]]]},"properties":{"_zoneType":"NO_INFRA_NVE","type":"NO_INFRA_NVE","name":"Geitfjellet vindkraftverk","authority":"NVE (Norges vassdrags- og energidirektorat)"}},
{"type":"Feature","geometry":{"type":"Polygon","coordinates":[[[5.55965,59.31229],[5.55515,59.31786],[5.54638,59.31558],[5.55965,59.31229]]]},"properties":{"_zoneType":"NO_INFRA_NVE","type":"NO_INFRA_NVE","name":"Tysvær vindkraftverk","authority":"NVE (Norges vassdrags- og energidirektorat)"}},
{"type":"Feature","geometry":{"type":"Polygon","coordinates":[[[5.56331,59.29523],[5.55629,59.29343],[5.56145,59.2899],[5.56331,59.29523]]]},"properties":{"_zoneType":"NO_INFRA_NVE","type":"NO_INFRA_NVE","name":"Tysvær vindkraftverk","authority":"NVE (Norges vassdrags- og energidirektorat)"}},
{"type":"Feature","geometry":{"type":"Polygon","coordinates":[[[8.77687,63.55004],[8.77522,63.55008],[8.76995,63.54964],[8.76549,63.54892],[8.7572,63.5467],[8.75193,63.52788],[8.74003,63.52038],[8.74585,63.49705],[8.77114,63.49223],[8.81197,63.49991],[8.81782,63.50661],[8.81778,63.50738],[8.81746,63.51316],[8.81705,63.51661],[8.81798,63.51811],[8.81855,63.51972],[8.8186,63.51985],[8.81827,63.52004],[8.81785,63.52028],[8.81517,63.52111],[8.81258,63.52149],[8.81387,63.5238],[8.81491,63.52727],[8.81549,63.52788],[8.81516,63.52801],[8.81388,63.52849],[8.81237,63.52845],[8.80735,63.52737],[8.79671,63.52215],[8.79595,63.522],[8.79543,63.52214],[8.79522,63.52219],[8.79469,63.52361],[8.79522,63.52491],[8.79674,63.527],[8.7991,63.52845],[8.80051,63.53061],[8.80051,63.53062],[8.80053,63.53066],[8.80057,63.53079],[8.80073,63.5313],[8.80041,63.5315],[8.8002,63.53165],[8.80008,63.53172],[8.79753,63.53193],[8.79667,63.53219],[8.79503,63.53268],[8.79436,63.53294],[8.79327,63.53368],[8.79343,63.53406],[8.79513,63.53585],[8.79527,63.53587],[8.79689,63.53609],[8.79813,63.53682],[8.79818,63.53684],[8.80053,63.53694],[8.80029,63.53671],[8.79979,63.53619],[8.80049,63.53594],[8.80172,63.53598],[8.8046,63.53608],[8.80705,63.53665],[8.80931,63.54123],[8.80116,63.54467],[8.78795,63.54953],[8.78193,63.54994],[8.77687,63.55004]]]},"properties":{"_zoneType":"NO_INFRA_NVE","type":"NO_INFRA_NVE","name":"Hitra 2 vindkraftverk","authority":"NVE (Norges vassdrags- og energidirektorat)"}},
{"type":"Feature","geometry":{"type":"Polygon","coordinates":[[[6.63092,58.15493],[6.62861,58.14902],[6.66952,58.14363],[6.68466,58.14426],[6.69087,58.15258],[6.72049,58.14546],[6.73728,58.1462],[6.73361,58.16606],[6.69422,58.17156],[6.65534,58.1574],[6.64539,58.17349],[6.62699,58.16877],[6.63092,58.15493]]]},"properties":{"_zoneType":"NO_INFRA_NVE","type":"NO_INFRA_NVE","name":"Lista vindkraftverk","authority":"NVE (Norges vassdrags- og energidirektorat)"}},
{"type":"Feature","geometry":{"type":"Polygon","coordinates":[[[10.41921,64.16756],[10.39723,64.17111],[10.36718,64.13675],[10.33483,64.13159],[10.31938,64.14978],[10.3031,64.1328],[10.31804,64.11873],[10.35078,64.11571],[10.44725,64.1625],[10.41921,64.16756]]]},"properties":{"_zoneType":"NO_INFRA_NVE","type":"NO_INFRA_NVE","name":"Roan vindkraftverk","authority":"NVE (Norges vassdrags- og energidirektorat)"}},
{"type":"Feature","geometry":{"type":"Polygon","coordinates":[[[5.80211,58.65282],[5.7967,58.65835],[5.77601,58.66055],[5.77705,58.64934],[5.76265,58.64299],[5.75099,58.65138],[5.72843,58.64852],[5.73818,58.63929],[5.77338,58.63867],[5.80211,58.65282]]]},"properties":{"_zoneType":"NO_INFRA_NVE","type":"NO_INFRA_NVE","name":"Høg-Jæren vindkraftverk","authority":"NVE (Norges vassdrags- og energidirektorat)"}},
{"type":"Feature","geometry":{"type":"Polygon","coordinates":[[[6.76005,58.56762],[6.77153,58.57342],[6.7726,58.58445],[6.73253,58.58082],[6.73338,58.56031],[6.74605,58.54093],[6.76861,58.54116],[6.75832,58.53211],[6.76578,58.51554],[6.78093,58.50295],[6.80948,58.50436],[6.82583,58.49762],[6.82826,58.5075],[6.82109,58.53539],[6.82116,58.55259],[6.80516,58.56344],[6.7844,58.55147],[6.75238,58.54969],[6.74639,58.55885],[6.76005,58.56762]]]},"properties":{"_zoneType":"NO_INFRA_NVE","type":"NO_INFRA_NVE","name":"Tonstad vindkraftverk","authority":"NVE (Norges vassdrags- og energidirektorat)"}},
{"type":"Feature","geometry":{"type":"Polygon","coordinates":[[[10.10724,64.08913],[10.07569,64.09791],[10.07479,64.08752],[10.05856,64.08821],[10.06481,64.07188],[10.04593,64.06846],[10.05576,64.06067],[10.10645,64.0661],[10.09444,64.0785],[10.11961,64.07322],[10.12885,64.07934],[10.10724,64.08913]]]},"properties":{"_zoneType":"NO_INFRA_NVE","type":"NO_INFRA_NVE","name":"Harbaksfjellet vindkraftverk","authority":"NVE (Norges vassdrags- og energidirektorat)"}},
{"type":"Feature","geometry":{"type":"Polygon","coordinates":[[[11.33496,64.75285],[11.37304,64.7534],[11.40209,64.76384],[11.36764,64.76352],[11.36554,64.75541],[11.33496,64.75285]]]},"properties":{"_zoneType":"NO_INFRA_NVE","type":"NO_INFRA_NVE","name":"Hundhammerfjellet vindkraftverk","authority":"NVE (Norges vassdrags- og energidirektorat)"}},
{"type":"Feature","geometry":{"type":"Polygon","coordinates":[[[15.25569,68.72998],[15.22173,68.72441],[15.2139,68.71426],[15.25353,68.71337],[15.26543,68.71855],[15.3037,68.7137],[15.31876,68.72049],[15.29313,68.72305],[15.27645,68.73132],[15.25569,68.72998]]]},"properties":{"_zoneType":"NO_INFRA_NVE","type":"NO_INFRA_NVE","name":"Ånstadblåheia vindkraftverk","authority":"NVE (Norges vassdrags- og energidirektorat)"}},
{"type":"Feature","geometry":{"type":"Polygon","coordinates":[[[9.6329,63.81873],[9.62312,63.81834],[9.6155,63.81462],[9.62412,63.81749],[9.6329,63.81873]]]},"properties":{"_zoneType":"NO_INFRA_NVE","type":"NO_INFRA_NVE","name":"Valsneset vindkraftverk","authority":"NVE (Norges vassdrags- og energidirektorat)"}},
{"type":"Feature","geometry":{"type":"Polygon","coordinates":[[[5.8841,58.5728],[5.88328,58.57197],[5.88309,58.5714],[5.88154,58.57014],[5.88046,58.56859],[5.87611,58.56759],[5.87436,58.56228],[5.9141,58.54394],[5.93064,58.54785],[5.92875,58.55905],[5.93696,58.57056],[5.93574,58.57223],[5.9305,58.57208],[5.918,58.57408],[5.9146,58.57385],[5.91123,58.57386],[5.90572,58.57359],[5.89999,58.5746],[5.89355,58.57527],[5.89327,58.57552],[5.893,58.57556],[5.8922,58.57599],[5.89138,58.57643],[5.88735,58.57438],[5.88647,58.57318],[5.88418,58.57288],[5.8841,58.5728]]]},"properties":{"_zoneType":"NO_INFRA_NVE","type":"NO_INFRA_NVE","name":"Gravdal vindkraftverk","authority":"NVE (Norges vassdrags- og energidirektorat)"}}
]}