{"type":"FeatureCollection", "features": [
{"type":"Feature","geometry":{"type":"Polygon","coordinates":[[[7.99423,58.07425],[7.99355,58.07343],[7.99378,58.07258],[7.99643,58.07119],[7.99786,58.07192],[7.99812,58.07242],[7.99778,58.07386],[7.99618,58.07431],[7.99423,58.07425]]]},"properties":{"_zoneType":"NO_NSM_SENSOR","type":"NO_NSM_SENSOR","name":"Høyfjell","identifier":"NSM:0077","lowerLimit":"GND","authority":"Nasjonal sikkerhetsmyndighet (NSM)"}},
{"type":"Feature","geometry":{"type":"Polygon","coordinates":[[[9.70132,59.23632],[9.70143,59.23689],[9.70041,59.23777],[9.69828,59.23798],[9.69702,59.23758],[9.69639,59.23661],[9.69707,59.23583],[9.69872,59.23543],[9.70075,59.23583],[9.70132,59.23632]]]},"properties":{"_zoneType":"NO_NSM_SENSOR","type":"NO_NSM_SENSOR","name":"Vealøs Vestre","identifier":"NSM:0220","lowerLimit":"GND","authority":"Nasjonal sikkerhetsmyndighet (NSM)"}},
{"type":"Feature","geometry":{"type":"Polygon","coordinates":[[[9.002,59.4942],[9.00312,59.49526],[9.00326,59.4962],[9.00229,59.49744],[9.00046,59.49821],[8.99814,59.49847],[8.99683,59.49837],[8.99539,59.49802],[8.99381,59.49712],[8.99334,59.49649],[8.99336,59.49529],[8.99413,59.49443],[8.99592,59.49364],[8.99822,59.49335],[9.00004,59.49351],[9.002,59.4942]]]},"properties":{"_zoneType":"NO_NSM_SENSOR","type":"NO_NSM_SENSOR","name":"Jønnbu/Slåråfjellet","identifier":"NSM:0084","lowerLimit":"GND","authority":"Nasjonal sikkerhetsmyndighet (NSM)"}},
{"type":"Feature","geometry":{"type":"Polygon","coordinates":[[[10.75274,59.38734],[10.75545,59.38534],[10.75845,59.38374],[10.76547,59.38039],[10.78353,59.37506],[10.79427,59.37286],[10.80505,59.37039],[10.81381,59.36882],[10.8152,59.37084],[10.81825,59.37322],[10.82348,59.3777],[10.82502,59.38101],[10.82463,59.38454],[10.82152,59.38763],[10.81894,59.39384],[10.80708,59.39606],[10.80222,59.39451],[10.79763,59.39208],[10.79604,59.3877],[10.79655,59.38462],[10.79802,59.38228],[10.79727,59.38119],[10.79192,59.38104],[10.78552,59.38245],[10.78149,59.38286],[10.78011,59.38441],[10.76883,59.38922],[10.76523,59.38885],[10.75592,59.3884],[10.75274,59.38734]]]},"properties":{"_zoneType":"NO_NSM_SENSOR","type":"NO_NSM_SENSOR","name":"Rygge flystasjon","identifier":"NSM:0155","lowerLimit":"GND","authority":"Nasjonal sikkerhetsmyndighet (NSM)"}},
{"type":"Feature","geometry":{"type":"Polygon","coordinates":[[[10.66153,59.33659],[10.66169,59.33714],[10.66102,59.3379],[10.65957,59.33827],[10.6583,59.33818],[10.65703,59.33754],[10.65683,59.33698],[10.65744,59.33621],[10.65868,59.33583],[10.66013,59.33588],[10.66153,59.33659]]]},"properties":{"_zoneType":"NO_NSM_SENSOR","type":"NO_NSM_SENSOR","name":"Larkollen 1","identifier":"NSM:0105#32","lowerLimit":"GND","authority":"Nasjonal sikkerhetsmyndighet (NSM)"}},
{"type":"Feature","geometry":{"type":"Polygon","coordinates":[[[10.66482,59.33876],[10.66583,59.33903],[10.66592,59.33984],[10.66533,59.33987],[10.66482,59.33876]]]},"properties":{"_zoneType":"NO_NSM_SENSOR","type":"NO_NSM_SENSOR","name":"Larkollen 2","identifier":"NSM:0105#33","lowerLimit":"GND","authority":"Nasjonal sikkerhetsmyndighet (NSM)"}},
{"type":"Feature","geometry":{"type":"Polygon","coordinates":[[[10.69853,59.25192],[10.69884,59.24918],[10.6977,59.24891],[10.69331,59.24866],[10.69164,59.24694],[10.68888,59.24662],[10.68613,59.24415],[10.68575,59.24128],[10.68472,59.23802],[10.68479,59.2354],[10.68223,59.2333],[10.68237,59.22793],[10.68573,59.22493],[10.68618,59.22303],[10.68886,59.21989],[10.6931,59.21739],[10.69619,59.21474],[10.70234,59.21181],[10.70729,59.21124],[10.70914,59.21345],[10.71046,59.21623],[10.70676,59.21803],[10.70251,59.22065],[10.69899,59.2209],[10.69733,59.22324],[10.70216,59.22589],[10.70648,59.22888],[10.70555,59.23088],[10.70807,59.23334],[10.70684,59.23605],[10.70413,59.23943],[10.70178,59.24163],[10.70514,59.24495],[10.70375,59.24694],[10.7062,59.24797],[10.70739,59.24979],[10.70618,59.25226],[10.70694,59.25384],[10.70325,59.25552],[10.70219,59.25465],[10.70105,59.25235],[10.69853,59.25192]]]},"properties":{"_zoneType":"NO_NSM_SENSOR","type":"NO_NSM_SENSOR","name":"Rauøy","identifier":"NSM:0147","lowerLimit":"GND","authority":"Nasjonal sikkerhetsmyndighet (NSM)"}},
{"type":"Feature","geometry":{"type":"Polygon","coordinates":[[[11.23871,60.15429],[11.23284,60.15541],[11.22985,60.15578],[11.22844,60.15475],[11.23149,60.15309],[11.23434,60.15271],[11.23837,60.15295],[11.23871,60.15429]]]},"properties":{"_zoneType":"NO_NSM_SENSOR","type":"NO_NSM_SENSOR","name":"Brenni","identifier":"NSM:0016","lowerLimit":"GND","authority":"Nasjonal sikkerhetsmyndighet (NSM)"}},
{"type":"Feature","geometry":{"type":"Polygon","coordinates":[[[10.4264,59.78392],[10.42794,59.78508],[10.42823,59.78583],[10.42946,59.78631],[10.42809,59.78648],[10.42508,59.78515],[10.42492,59.78416],[10.4264,59.78392]]]},"properties":{"_zoneType":"NO_NSM_SENSOR","type":"NO_NSM_SENSOR","name":"Heggedal","identifier":"NSM:0054","lowerLimit":"GND","authority":"Nasjonal sikkerhetsmyndighet (NSM)"}},
{"type":"Feature","geometry":{"type":"Polygon","coordinates":[[[10.50091,59.91867],[10.50088,59.91707],[10.50178,59.91683],[10.50272,59.9159],[10.50351,59.91562],[10.50612,59.91543],[10.5092,59.91481],[10.50892,59.91598],[10.50836,59.91636],[10.50907,59.91682],[10.51114,59.91758],[10.51169,59.91844],[10.50966,59.91993],[10.50737,59.92012],[10.50622,59.92004],[10.50575,59.91947],[10.50261,59.9193],[10.50091,59.91867]]]},"properties":{"_zoneType":"NO_NSM_SENSOR","type":"NO_NSM_SENSOR","name":"Kolsås","identifier":"NSM:0097","lowerLimit":"GND","authority":"Nasjonal sikkerhetsmyndighet (NSM)"}},
{"type":"Feature","geometry":{"type":"Polygon","coordinates":[[[10.87202,59.92423],[10.87535,59.92107],[10.87727,59.92041],[10.88048,59.92052],[10.88078,59.923],[10.87871,59.92456],[10.8742,59.92589],[10.87202,59.92423]]]},"properties":{"_zoneType":"NO_NSM_SENSOR","type":"NO_NSM_SENSOR","name":"Lutvann","identifier":"NSM:0115","lowerLimit":"GND","authority":"Nasjonal sikkerhetsmyndighet (NSM)"}},
{"type":"Feature","geometry":{"type":"Polygon","coordinates":[[[11.99259,60.21447],[11.99022,60.21544],[11.98833,60.2159],[11.98678,60.21612],[11.98472,60.21616],[11.982,60.21566],[11.98056,60.21487],[11.97976,60.21344],[11.97993,60.21248],[11.98084,60.21121],[11.98288,60.20979],[11.98565,60.20874],[11.98835,60.20825],[11.98987,60.20817],[11.99214,60.20837],[11.99318,60.20864],[11.99449,60.20927],[11.99543,60.21036],[11.99542,60.21177],[11.99492,60.21265],[11.99357,60.21387],[11.99259,60.21447]]]},"properties":{"_zoneType":"NO_NSM_SENSOR","type":"NO_NSM_SENSOR","name":"Gullbekkåsen","identifier":"NSM:0219","lowerLimit":"GND","authority":"Nasjonal sikkerhetsmyndighet (NSM)"}},
{"type":"Feature","geometry":{"type":"Polygon","coordinates":[[[11.40992,60.88246],[11.4103,60.87711],[11.42557,60.87542],[11.4306,60.88097],[11.43179,60.88236],[11.41747,60.88644],[11.40979,60.8852],[11.40992,60.88246]]]},"properties":{"_zoneType":"NO_NSM_SENSOR","type":"NO_NSM_SENSOR","name":"Brennholsåtten","identifier":"NSM:0234","lowerLimit":"GND","authority":"Nasjonal sikkerhetsmyndighet (NSM)"}},
{"type":"Feature","geometry":{"type":"Polygon","coordinates":[[[10.59968,60.99075],[10.59981,60.98982],[10.60075,60.98893],[10.6049,60.9877],[10.61073,60.9867],[10.61516,60.98573],[10.617,60.98584],[10.61858,60.98675],[10.6178,60.98765],[10.60906,60.98893],[10.60501,60.99081],[10.60164,60.99114],[10.59968,60.99075]]]},"properties":{"_zoneType":"NO_NSM_SENSOR","type":"NO_NSM_SENSOR","name":"Brøttum","identifier":"NSM:0019","lowerLimit":"GND","authority":"Nasjonal sikkerhetsmyndighet (NSM)"}},
{"type":"Feature","geometry":{"type":"Polygon","coordinates":[[[10.40377,60.70539],[10.40212,60.70467],[10.40238,60.70337],[10.40217,60.69932],[10.40307,60.69512],[10.40588,60.69471],[10.40721,60.69593],[10.407,60.69827],[10.40781,60.70128],[10.40995,60.70553],[10.4052,60.70566],[10.40377,60.70539]]]},"properties":{"_zoneType":"NO_NSM_SENSOR","type":"NO_NSM_SENSOR","name":"Trevatn","identifier":"NSM:0206","lowerLimit":"GND","authority":"Nasjonal sikkerhetsmyndighet (NSM)"}},
{"type":"Feature","geometry":{"type":"Polygon","coordinates":[[[10.28408,60.22827],[10.28063,60.22424],[10.29452,60.21686],[10.31694,60.2209],[10.28408,60.22827]]]},"properties":{"_zoneType":"NO_NSM_SENSOR","type":"NO_NSM_SENSOR","name":"Eggemoen","identifier":"NSM:0030","lowerLimit":"GND","authority":"Nasjonal sikkerhetsmyndighet (NSM)"}},
{"type":"Feature","geometry":{"type":"Polygon","coordinates":[[[5.71589,58.90802],[5.7157,58.90699],[5.71654,58.90584],[5.72282,58.90628],[5.72442,58.90753],[5.72356,58.90854],[5.72237,58.9089],[5.7209,58.9091],[5.71895,58.90905],[5.7166,58.9088],[5.71589,58.90802]]]},"properties":{"_zoneType":"NO_NSM_SENSOR","type":"NO_NSM_SENSOR","name":"Jåttanuten","identifier":"NSM:0086","lowerLimit":"GND","authority":"Nasjonal sikkerhetsmyndighet (NSM)"}},
{"type":"Feature","geometry":{"type":"Polygon","coordinates":[[[6.32828,58.62635],[6.32977,58.62773],[6.33005,58.62868],[6.32976,58.62978],[6.32883,58.63079],[6.32686,58.63178],[6.32577,58.63207],[6.32369,58.63233],[6.32127,58.6322],[6.31861,58.63143],[6.31725,58.63057],[6.31636,58.62922],[6.31663,58.62764],[6.31779,58.62652],[6.31936,58.62577],[6.32189,58.62523],[6.32372,58.62518],[6.32608,58.6255],[6.32828,58.62635]]]},"properties":{"_zoneType":"NO_NSM_SENSOR","type":"NO_NSM_SENSOR","name":"Store Skykula","identifier":"NSM:0188","lowerLimit":"GND","authority":"Nasjonal sikkerhetsmyndighet (NSM)"}},
{"type":"Feature","geometry":{"type":"Polygon","coordinates":[[[5.69473,59.04168],[5.69509,59.04274],[5.69414,59.0437],[5.69328,59.04402],[5.69142,59.04418],[5.6904,59.04403],[5.68899,59.04338],[5.68858,59.04288],[5.68856,59.04212],[5.68919,59.04143],[5.69015,59.041],[5.69156,59.04078],[5.69341,59.04098],[5.69473,59.04168]]]},"properties":{"_zoneType":"NO_NSM_SENSOR","type":"NO_NSM_SENSOR","name":"Vestre Åmøy","identifier":"NSM:0222","lowerLimit":"GND","authority":"Nasjonal sikkerhetsmyndighet (NSM)"}},
{"type":"Feature","geometry":{"type":"Polygon","coordinates":[[[5.51067,59.72444],[5.50532,59.72403],[5.50408,59.72248],[5.50626,59.72123],[5.50905,59.72036],[5.51125,59.72004],[5.51363,59.72114],[5.51424,59.72229],[5.51356,59.72384],[5.51067,59.72444]]]},"properties":{"_zoneType":"NO_NSM_SENSOR","type":"NO_NSM_SENSOR","name":"Tittelsnes","identifier":"NSM:0203","lowerLimit":"GND","authority":"Nasjonal sikkerhetsmyndighet (NSM)"}},
{"type":"Feature","geometry":{"type":"Polygon","coordinates":[[[5.23166,60.34787],[5.22624,60.34707],[5.22195,60.34444],[5.2203,60.34099],[5.21944,60.33938],[5.21771,60.33706],[5.21727,60.33316],[5.21038,60.32916],[5.21882,60.32654],[5.22646,60.32583],[5.23344,60.32688],[5.2392,60.32909],[5.24215,60.33751],[5.24118,60.3412],[5.23622,60.34723],[5.23166,60.34787]]]},"properties":{"_zoneType":"NO_NSM_SENSOR","type":"NO_NSM_SENSOR","name":"Haakonsvern","identifier":"NSM:0048","lowerLimit":"GND","authority":"Nasjonal sikkerhetsmyndighet (NSM)"}},
{"type":"Feature","geometry":{"type":"Polygon","coordinates":[[[5.24991,60.32897],[5.24963,60.32787],[5.25083,60.32509],[5.25262,60.32438],[5.25366,60.32213],[5.2565,60.32021],[5.25817,60.32028],[5.25767,60.32621],[5.25654,60.32737],[5.25643,60.32879],[5.25504,60.32914],[5.24991,60.32897]]]},"properties":{"_zoneType":"NO_NSM_SENSOR","type":"NO_NSM_SENSOR","name":"Knappen","identifier":"NSM:0096","lowerLimit":"GND","authority":"Nasjonal sikkerhetsmyndighet (NSM)"}},
{"type":"Feature","geometry":{"type":"Polygon","coordinates":[[[5.2509,60.30661],[5.2514,60.30748],[5.2504,60.30835],[5.24844,60.30856],[5.24728,60.30828],[5.24652,60.30765],[5.24648,60.30718],[5.24711,60.30652],[5.24914,60.30613],[5.2509,60.30661]]]},"properties":{"_zoneType":"NO_NSM_SENSOR","type":"NO_NSM_SENSOR","name":"Storrinden","identifier":"NSM:0189","lowerLimit":"GND","authority":"Nasjonal sikkerhetsmyndighet (NSM)"}},
{"type":"Feature","geometry":{"type":"Polygon","coordinates":[[[6.70907,60.77673],[6.71084,60.78151],[6.7026,60.78182],[6.69854,60.78063],[6.69608,60.77692],[6.70907,60.77673]]]},"properties":{"_zoneType":"NO_NSM_SENSOR","type":"NO_NSM_SENSOR","name":"Brandset","identifier":"NSM:0014","lowerLimit":"GND","authority":"Nasjonal sikkerhetsmyndighet (NSM)"}},
{"type":"Feature","geometry":{"type":"Polygon","coordinates":[[[6.44147,60.6424],[6.44253,60.63962],[6.44459,60.63814],[6.44247,60.63701],[6.44193,60.63627],[6.44488,60.63556],[6.44622,60.63552],[6.45009,60.63641],[6.45116,60.64159],[6.45063,60.64407],[6.44664,60.64448],[6.44332,60.6441],[6.44147,60.6424]]]},"properties":{"_zoneType":"NO_NSM_SENSOR","type":"NO_NSM_SENSOR","name":"Tvildeåsen","identifier":"NSM:0212","lowerLimit":"GND","authority":"Nasjonal sikkerhetsmyndighet (NSM)"}},
{"type":"Feature","geometry":{"type":"Polygon","coordinates":[[[5.26664,60.21807],[5.2498,60.21681],[5.24698,60.21376],[5.24314,60.21003],[5.24684,60.2071],[5.24909,60.20637],[5.25673,60.20542],[5.25816,60.20423],[5.26773,60.20226],[5.27251,60.20463],[5.27303,60.20711],[5.27252,60.20986],[5.27091,60.21314],[5.26923,60.2171],[5.26664,60.21807]]]},"properties":{"_zoneType":"NO_NSM_SENSOR","type":"NO_NSM_SENSOR","name":"Visterøy Fort/Korsnes","identifier":"NSM:0225","lowerLimit":"GND","authority":"Nasjonal sikkerhetsmyndighet (NSM)"}},
{"type":"Feature","geometry":{"type":"Polygon","coordinates":[[[5.05827,61.99714],[5.05889,61.99835],[5.05885,61.99898],[5.05804,62.00017],[5.05588,62.00135],[5.05443,62.00173],[5.05151,62.00202],[5.04953,62.00189],[5.04715,62.00134],[5.04593,62.00081],[5.04448,61.99958],[5.04414,61.9985],[5.04465,61.99728],[5.04583,61.99633],[5.04703,61.99579],[5.04908,61.99527],[5.0517,61.99508],[5.0546,61.99539],[5.05701,61.99622],[5.05827,61.99714]]]},"properties":{"_zoneType":"NO_NSM_SENSOR","type":"NO_NSM_SENSOR","name":"Heia","identifier":"NSM:0056","lowerLimit":"GND","authority":"Nasjonal sikkerhetsmyndighet (NSM)"}},
{"type":"Feature","geometry":{"type":"Polygon","coordinates":[[[6.90522,62.78471],[6.90574,62.78541],[6.90571,62.78616],[6.90468,62.78716],[6.90344,62.78764],[6.90139,62.78794],[6.89951,62.78784],[6.89729,62.78715],[6.89639,62.78639],[6.89621,62.78553],[6.8969,62.78459],[6.89915,62.78372],[6.90127,62.78355],[6.9031,62.78377],[6.90522,62.78471]]]},"properties":{"_zoneType":"NO_NSM_SENSOR","type":"NO_NSM_SENSOR","name":"Gossen Syd","identifier":"NSM:0042","lowerLimit":"GND","authority":"Nasjonal sikkerhetsmyndighet (NSM)"}},
{"type":"Feature","geometry":{"type":"Polygon","coordinates":[[[6.78171,62.84391],[6.79355,62.83854],[6.8048,62.84149],[6.79842,62.84547],[6.7922,62.84714],[6.78215,62.84573],[6.78171,62.84391]]]},"properties":{"_zoneType":"NO_NSM_SENSOR","type":"NO_NSM_SENSOR","name":"Gossen Vest","identifier":"NSM:0043","lowerLimit":"GND","authority":"Nasjonal sikkerhetsmyndighet (NSM)"}},
{"type":"Feature","geometry":{"type":"Polygon","coordinates":[[[11.153,63.06699],[11.1323,63.06584],[11.1303,63.06402],[11.13441,63.06123],[11.15169,63.06147],[11.153,63.06699]]]},"properties":{"_zoneType":"NO_NSM_SENSOR","type":"NO_NSM_SENSOR","name":"Bringen","identifier":"NSM:0017","lowerLimit":"GND","authority":"Nasjonal sikkerhetsmyndighet (NSM)"}},
{"type":"Feature","geometry":{"type":"Polygon","coordinates":[[[9.80967,63.75827],[9.8108,63.75712],[9.81227,63.75597],[9.81395,63.75501],[9.81617,63.75547],[9.81676,63.75661],[9.81589,63.75735],[9.81269,63.75882],[9.81083,63.75889],[9.80956,63.75866],[9.80967,63.75827]]]},"properties":{"_zoneType":"NO_NSM_SENSOR","type":"NO_NSM_SENSOR","name":"Botngård","identifier":"NSM:0013","lowerLimit":"GND","authority":"Nasjonal sikkerhetsmyndighet (NSM)"}},
{"type":"Feature","geometry":{"type":"Polygon","coordinates":[[[9.78396,63.72904],[9.78587,63.72794],[9.7877,63.72656],[9.78893,63.72422],[9.79174,63.72251],[9.79505,63.72255],[9.79794,63.72373],[9.79606,63.72572],[9.79483,63.72722],[9.79304,63.72903],[9.79011,63.73143],[9.78657,63.7328],[9.78362,63.73243],[9.78207,63.73119],[9.78396,63.72904]]]},"properties":{"_zoneType":"NO_NSM_SENSOR","type":"NO_NSM_SENSOR","name":"Kalvå","identifier":"NSM:0087","lowerLimit":"GND","authority":"Nasjonal sikkerhetsmyndighet (NSM)"}},
{"type":"Feature","geometry":{"type":"Polygon","coordinates":[[[10.25547,63.41883],[10.25685,63.41958],[10.25762,63.4209],[10.25711,63.42198],[10.25632,63.42257],[10.2547,63.42321],[10.25298,63.42352],[10.25052,63.42354],[10.24878,63.42327],[10.2469,63.42256],[10.24589,63.42171],[10.24564,63.42061],[10.24639,63.41957],[10.24755,63.41892],[10.24908,63.41846],[10.25178,63.41821],[10.25331,63.41831],[10.25547,63.41883]]]},"properties":{"_zoneType":"NO_NSM_SENSOR","type":"NO_NSM_SENSOR","name":"Gråkallen","identifier":"NSM:0045","lowerLimit":"GND","authority":"Nasjonal sikkerhetsmyndighet (NSM)"}},
{"type":"Feature","geometry":{"type":"Polygon","coordinates":[[[9.61615,63.68366],[9.63106,63.68516],[9.63665,63.68619],[9.6435,63.68804],[9.65319,63.69091],[9.65145,63.69177],[9.64951,63.69343],[9.64773,63.69455],[9.64273,63.69534],[9.64044,63.69636],[9.63972,63.697],[9.63932,63.69865],[9.63837,63.70089],[9.63452,63.70522],[9.63298,63.70682],[9.63008,63.70863],[9.62933,63.70927],[9.62894,63.71149],[9.62718,63.71559],[9.6265,63.71596],[9.62089,63.71802],[9.60739,63.72288],[9.60476,63.72501],[9.59989,63.72565],[9.58339,63.72101],[9.57395,63.72054],[9.61524,63.68406],[9.61615,63.68366]]]},"properties":{"_zoneType":"NO_NSM_SENSOR","type":"NO_NSM_SENSOR","name":"Ørland flystasjon","identifier":"NSM:0231","lowerLimit":"GND","authority":"Nasjonal sikkerhetsmyndighet (NSM)"}},
{"type":"Feature","geometry":{"type":"Polygon","coordinates":[[[9.66798,63.72118],[9.66608,63.72105],[9.66398,63.72072],[9.66202,63.72014],[9.66099,63.71957],[9.66047,63.71883],[9.66057,63.71832],[9.66157,63.71753],[9.66304,63.71703],[9.66567,63.7166],[9.66755,63.71651],[9.66987,63.71658],[9.67304,63.71705],[9.67556,63.71802],[9.67622,63.71881],[9.67565,63.71986],[9.67395,63.72059],[9.67066,63.72112],[9.66798,63.72118]]]},"properties":{"_zoneType":"NO_NSM_SENSOR","type":"NO_NSM_SENSOR","name":"Lørbern/Lerberen","identifier":"NSM:0107","lowerLimit":"GND","authority":"Nasjonal sikkerhetsmyndighet (NSM)"}},
{"type":"Feature","geometry":{"type":"Polygon","coordinates":[[[9.54685,63.64861],[9.54421,63.64824],[9.54256,63.64747],[9.5423,63.64693],[9.5433,63.64601],[9.54493,63.6456],[9.54747,63.64548],[9.54909,63.64563],[9.55065,63.64601],[9.55168,63.64654],[9.55196,63.64738],[9.5513,63.64795],[9.55019,63.64833],[9.54851,63.64858],[9.54685,63.64861]]]},"properties":{"_zoneType":"NO_NSM_SENSOR","type":"NO_NSM_SENSOR","name":"Garten","identifier":"NSM:0041","lowerLimit":"GND","authority":"Nasjonal sikkerhetsmyndighet (NSM)"}},
{"type":"Feature","geometry":{"type":"Polygon","coordinates":[[[9.58339,63.70873],[9.58,63.70942],[9.57421,63.70905],[9.57019,63.70781],[9.56957,63.70707],[9.56577,63.70528],[9.56765,63.70313],[9.57075,63.7018],[9.57545,63.70202],[9.58234,63.70248],[9.58678,63.70346],[9.58889,63.70533],[9.58339,63.70873]]]},"properties":{"_zoneType":"NO_NSM_SENSOR","type":"NO_NSM_SENSOR","name":"Djupdalen","identifier":"NSM:0026","lowerLimit":"GND","authority":"Nasjonal sikkerhetsmyndighet (NSM)"}},
{"type":"Feature","geometry":{"type":"Polygon","coordinates":[[[9.74117,63.80501],[9.7423,63.80577],[9.7427,63.8068],[9.74243,63.80744],[9.74142,63.80823],[9.74032,63.80867],[9.73842,63.80903],[9.73578,63.80899],[9.73443,63.80872],[9.73309,63.80821],[9.73232,63.80765],[9.73185,63.80677],[9.73218,63.80587],[9.73388,63.80481],[9.73515,63.80448],[9.73716,63.80428],[9.73974,63.80454],[9.74117,63.80501]]]},"properties":{"_zoneType":"NO_NSM_SENSOR","type":"NO_NSM_SENSOR","name":"Kopparen","identifier":"NSM:0098","lowerLimit":"GND","authority":"Nasjonal sikkerhetsmyndighet (NSM)"}},
{"type":"Feature","geometry":{"type":"Polygon","coordinates":[[[10.89205,63.46897],[10.89272,63.46965],[10.89264,63.47039],[10.89148,63.47119],[10.88976,63.47154],[10.88811,63.47149],[10.88621,63.47088],[10.88559,63.47019],[10.88601,63.46916],[10.88713,63.46861],[10.88963,63.46834],[10.89119,63.46861],[10.89205,63.46897]]]},"properties":{"_zoneType":"NO_NSM_SENSOR","type":"NO_NSM_SENSOR","name":"Sutterøen/Sutterøya","identifier":"NSM:0191","lowerLimit":"GND","authority":"Nasjonal sikkerhetsmyndighet (NSM)"}},
{"type":"Feature","geometry":{"type":"Polygon","coordinates":[[[11.80619,64.4557],[11.80596,64.45396],[11.81272,64.4537],[11.81388,64.45401],[11.81421,64.45479],[11.81299,64.45542],[11.80619,64.4557]]]},"properties":{"_zoneType":"NO_NSM_SENSOR","type":"NO_NSM_SENSOR","name":"Skage","identifier":"NSM:0168","lowerLimit":"GND","authority":"Nasjonal sikkerhetsmyndighet (NSM)"}},
{"type":"Feature","geometry":{"type":"Polygon","coordinates":[[[11.53925,63.9915],[11.54043,63.99219],[11.54125,63.99357],[11.54088,63.99456],[11.54033,63.99508],[11.5386,63.99594],[11.53657,63.9964],[11.53365,63.99651],[11.53177,63.99626],[11.52989,63.99569],[11.52887,63.99513],[11.52797,63.99406],[11.52815,63.99277],[11.5298,63.99154],[11.53257,63.9908],[11.53548,63.99069],[11.53706,63.99088],[11.53925,63.9915]]]},"properties":{"_zoneType":"NO_NSM_SENSOR","type":"NO_NSM_SENSOR","name":"Steinkjer/Offenåsen","identifier":"NSM:0187","lowerLimit":"GND","authority":"Nasjonal sikkerhetsmyndighet (NSM)"}},
{"type":"Feature","geometry":{"type":"Polygon","coordinates":[[[11.27808,64.35829],[11.27135,64.35802],[11.26481,64.35621],[11.26463,64.35241],[11.26593,64.3507],[11.27139,64.34627],[11.2737,64.34446],[11.27682,64.34437],[11.27765,64.34657],[11.2815,64.35184],[11.28139,64.35579],[11.27808,64.35829]]]},"properties":{"_zoneType":"NO_NSM_SENSOR","type":"NO_NSM_SENSOR","name":"Hammernesodden","identifier":"NSM:0052","lowerLimit":"GND","authority":"Nasjonal sikkerhetsmyndighet (NSM)"}},
{"type":"Feature","geometry":{"type":"Polygon","coordinates":[[[10.94534,63.5441],[10.94766,63.5425],[10.95096,63.54224],[10.95564,63.54278],[10.96229,63.54501],[10.96795,63.54741],[10.97092,63.54878],[10.96879,63.54938],[10.96822,63.55034],[10.96732,63.55092],[10.96091,63.54984],[10.95571,63.54882],[10.94667,63.54525],[10.94534,63.5441]]]},"properties":{"_zoneType":"NO_NSM_SENSOR","type":"NO_NSM_SENSOR","name":"Hammerkammen","identifier":"NSM:0051","lowerLimit":"GND","authority":"Nasjonal sikkerhetsmyndighet (NSM)"}},
{"type":"Feature","geometry":{"type":"Polygon","coordinates":[[[10.92712,63.40129],[10.9257,63.39832],[10.9286,63.39734],[10.93841,63.39792],[10.93858,63.401],[10.92712,63.40129]]]},"properties":{"_zoneType":"NO_NSM_SENSOR","type":"NO_NSM_SENSOR","name":"Frigård","identifier":"NSM:0039","lowerLimit":"GND","authority":"Nasjonal sikkerhetsmyndighet (NSM)"}},
{"type":"Feature","geometry":{"type":"Polygon","coordinates":[[[11.58813,63.73678],[11.58673,63.73529],[11.58772,63.73429],[11.59171,63.73431],[11.59393,63.73636],[11.59063,63.73681],[11.58813,63.73678]]]},"properties":{"_zoneType":"NO_NSM_SENSOR","type":"NO_NSM_SENSOR","name":"Tromsdalen 1","identifier":"NSM:0208#111","lowerLimit":"GND","authority":"Nasjonal sikkerhetsmyndighet (NSM)"}},
{"type":"Feature","geometry":{"type":"Polygon","coordinates":[[[11.59993,63.72804],[11.60275,63.72849],[11.60559,63.72987],[11.60954,63.73078],[11.61043,63.73124],[11.60988,63.73198],[11.60806,63.73264],[11.59916,63.73093],[11.59555,63.73016],[11.59623,63.72869],[11.59993,63.72804]]]},"properties":{"_zoneType":"NO_NSM_SENSOR","type":"NO_NSM_SENSOR","name":"Tromsdalen 2","identifier":"NSM:0208#112","lowerLimit":"GND","authority":"Nasjonal sikkerhetsmyndighet (NSM)"}},
{"type":"Feature","geometry":{"type":"Polygon","coordinates":[[[13.74492,66.20567],[13.74709,66.20661],[13.74822,66.20764],[13.7485,66.20828],[13.7483,66.2094],[13.74764,66.21017],[13.74659,66.21085],[13.74386,66.21179],[13.7424,66.21205],[13.73965,66.21225],[13.73688,66.21209],[13.73469,66.2117],[13.73312,66.2112],[13.73186,66.21057],[13.73084,66.20969],[13.73043,66.20874],[13.73065,66.20778],[13.73131,66.20701],[13.73317,66.20597],[13.73474,66.20547],[13.73771,66.205],[13.7397,66.20493],[13.74245,66.20514],[13.74492,66.20567]]]},"properties":{"_zoneType":"NO_NSM_SENSOR","type":"NO_NSM_SENSOR","name":"Hemnes/Veten","identifier":"NSM:0235","lowerLimit":"GND","authority":"Nasjonal sikkerhetsmyndighet (NSM)"}},
{"type":"Feature","geometry":{"type":"Polygon","coordinates":[[[13.88472,66.99285],[13.83841,66.9775],[13.86092,66.97457],[13.90363,66.98778],[13.88472,66.99285]]]},"properties":{"_zoneType":"NO_NSM_SENSOR","type":"NO_NSM_SENSOR","name":"Høgnakken/Novik","identifier":"NSM:0074","lowerLimit":"GND","authority":"Nasjonal sikkerhetsmyndighet (NSM)"}},
{"type":"Feature","geometry":{"type":"Polygon","coordinates":[[[15.30313,67.23459],[15.30385,67.23542],[15.30383,67.23605],[15.30304,67.23688],[15.3015,67.23752],[15.30007,67.23782],[15.29782,67.23795],[15.29532,67.23769],[15.29319,67.23692],[15.29242,67.23623],[15.29239,67.23523],[15.29295,67.23463],[15.2952,67.23374],[15.29768,67.23345],[15.29962,67.23353],[15.3019,67.234],[15.30313,67.23459]]]},"properties":{"_zoneType":"NO_NSM_SENSOR","type":"NO_NSM_SENSOR","name":"Fauske/Veten","identifier":"NSM:0059","lowerLimit":"GND","authority":"Nasjonal sikkerhetsmyndighet (NSM)"}},
{"type":"Feature","geometry":{"type":"Polygon","coordinates":[[[14.36915,67.20498],[14.35882,67.20555],[14.35501,67.20639],[14.3536,67.20597],[14.35427,67.20365],[14.35779,67.20176],[14.35745,67.19973],[14.35831,67.19883],[14.37019,67.19925],[14.37173,67.20118],[14.36781,67.20391],[14.36915,67.20498]]]},"properties":{"_zoneType":"NO_NSM_SENSOR","type":"NO_NSM_SENSOR","name":"Seines","identifier":"NSM:0162","lowerLimit":"GND","authority":"Nasjonal sikkerhetsmyndighet (NSM)"}},
{"type":"Feature","geometry":{"type":"Polygon","coordinates":[[[14.30392,67.26694],[14.29402,67.25919],[14.29955,67.25518],[14.31583,67.25263],[14.33952,67.25335],[14.3894,67.26228],[14.41698,67.26921],[14.42167,67.27186],[14.41597,67.27512],[14.30392,67.26694]]]},"properties":{"_zoneType":"NO_NSM_SENSOR","type":"NO_NSM_SENSOR","name":"Bodø flystasjon","identifier":"NSM:0011","lowerLimit":"GND","authority":"Nasjonal sikkerhetsmyndighet (NSM)"}},
{"type":"Feature","geometry":{"type":"Polygon","coordinates":[[[14.38358,67.29339],[14.38483,67.29255],[14.38847,67.29255],[14.39043,67.29475],[14.38842,67.29543],[14.38663,67.2953],[14.38576,67.29495],[14.38358,67.29339]]]},"properties":{"_zoneType":"NO_NSM_SENSOR","type":"NO_NSM_SENSOR","name":"Burøya","identifier":"NSM:0022","lowerLimit":"GND","authority":"Nasjonal sikkerhetsmyndighet (NSM)"}},
{"type":"Feature","geometry":{"type":"Polygon","coordinates":[[[14.39655,67.30142],[14.39572,67.30064],[14.39569,67.29987],[14.39645,67.2994],[14.39766,67.29955],[14.39806,67.30092],[14.39776,67.30139],[14.39655,67.30142]]]},"properties":{"_zoneType":"NO_NSM_SENSOR","type":"NO_NSM_SENSOR","name":"Mælen","identifier":"NSM:0128","lowerLimit":"GND","authority":"Nasjonal sikkerhetsmyndighet (NSM)"}},
{"type":"Feature","geometry":{"type":"Polygon","coordinates":[[[14.45764,67.28463],[14.45225,67.28249],[14.44461,67.28066],[14.44449,67.27976],[14.44589,67.27951],[14.4505,67.27946],[14.45457,67.27954],[14.45893,67.2802],[14.46706,67.28194],[14.46384,67.28262],[14.4608,67.28348],[14.45764,67.28463]]]},"properties":{"_zoneType":"NO_NSM_SENSOR","type":"NO_NSM_SENSOR","name":"Bodin leir","identifier":"NSM:0010","lowerLimit":"GND","authority":"Nasjonal sikkerhetsmyndighet (NSM)"}},
{"type":"Feature","geometry":{"type":"Polygon","coordinates":[[[14.8524,67.29833],[14.85416,67.29839],[14.86142,67.29925],[14.86802,67.29933],[14.87579,67.29886],[14.88135,67.29837],[14.88897,67.2981],[14.8802,67.30559],[14.87374,67.30529],[14.86816,67.30454],[14.86251,67.30367],[14.85912,67.30274],[14.85198,67.3004],[14.85102,67.2993],[14.8524,67.29833]]]},"properties":{"_zoneType":"NO_NSM_SENSOR","type":"NO_NSM_SENSOR","name":"Reitan","identifier":"NSM:0148","lowerLimit":"GND","authority":"Nasjonal sikkerhetsmyndighet (NSM)"}},
{"type":"Feature","geometry":{"type":"Polygon","coordinates":[[[13.57674,68.21892],[13.57887,68.22002],[13.57934,68.22095],[13.57901,68.22176],[13.57756,68.22271],[13.57555,68.22329],[13.57199,68.22359],[13.56915,68.22333],[13.56661,68.22256],[13.56527,68.22144],[13.56516,68.2209],[13.56583,68.21984],[13.56732,68.21907],[13.56847,68.21873],[13.57122,68.21835],[13.57449,68.21846],[13.57674,68.21892]]]},"properties":{"_zoneType":"NO_NSM_SENSOR","type":"NO_NSM_SENSOR","name":"Vestvågøy stasjon","identifier":"NSM:0065#138","lowerLimit":"GND","authority":"Nasjonal sikkerhetsmyndighet (NSM)"}},
{"type":"Feature","geometry":{"type":"Polygon","coordinates":[[[13.58066,68.20867],[13.58359,68.20699],[13.58863,68.20693],[13.59085,68.20839],[13.59251,68.20972],[13.59221,68.21405],[13.594,68.21508],[13.58946,68.21684],[13.58387,68.21664],[13.58199,68.21501],[13.58401,68.21069],[13.58314,68.20949],[13.58066,68.20867]]]},"properties":{"_zoneType":"NO_NSM_SENSOR","type":"NO_NSM_SENSOR","name":"Vestvågøy stasjon","identifier":"NSM:0065#139","lowerLimit":"GND","authority":"Nasjonal sikkerhetsmyndighet (NSM)"}},
{"type":"Feature","geometry":{"type":"Polygon","coordinates":[[[16.34825,68.58353],[16.38122,68.58319],[16.38188,68.59186],[16.3489,68.59219],[16.34825,68.58353]]]},"properties":{"_zoneType":"NO_NSM_SENSOR","type":"NO_NSM_SENSOR","name":"Sætertind","identifier":"NSM:0194","lowerLimit":"GND","authority":"Nasjonal sikkerhetsmyndighet (NSM)"}},
{"type":"Feature","geometry":{"type":"Polygon","coordinates":[[[12.04884,66.50012],[12.04938,66.50131],[12.04873,66.50213],[12.04681,66.50292],[12.04386,66.50322],[12.04178,66.50302],[12.03986,66.50241],[12.03889,66.50165],[12.03887,66.50055],[12.03982,66.49978],[12.04144,66.49922],[12.04287,66.499],[12.04562,66.49904],[12.04773,66.49953],[12.04884,66.50012]]]},"properties":{"_zoneType":"NO_NSM_SENSOR","type":"NO_NSM_SENSOR","name":"Træna 1","identifier":"NSM:0210#151","lowerLimit":"GND","authority":"Nasjonal sikkerhetsmyndighet (NSM)"}},
{"type":"Feature","geometry":{"type":"Polygon","coordinates":[[[12.06001,66.50441],[12.06051,66.50525],[12.05895,66.50607],[12.05678,66.5061],[12.05532,66.50557],[12.05535,66.50454],[12.05748,66.50397],[12.05879,66.50404],[12.06001,66.50441]]]},"properties":{"_zoneType":"NO_NSM_SENSOR","type":"NO_NSM_SENSOR","name":"Træna 2","identifier":"NSM:0210#152","lowerLimit":"GND","authority":"Nasjonal sikkerhetsmyndighet (NSM)"}},
{"type":"Feature","geometry":{"type":"Polygon","coordinates":[[[16.5475,68.53831],[16.55797,68.52988],[16.57028,68.51648],[16.57722,68.51724],[16.5751,68.53061],[16.56394,68.53989],[16.5475,68.53831]]]},"properties":{"_zoneType":"NO_NSM_SENSOR","type":"NO_NSM_SENSOR","name":"Klubban","identifier":"NSM:0095","lowerLimit":"GND","authority":"Nasjonal sikkerhetsmyndighet (NSM)"}},
{"type":"Feature","geometry":{"type":"Polygon","coordinates":[[[15.64059,69.13102],[15.63027,69.12797],[15.6403,69.12179],[15.65711,69.12791],[15.64059,69.13102]]]},"properties":{"_zoneType":"NO_NSM_SENSOR","type":"NO_NSM_SENSOR","name":"Nordmela","identifier":"NSM:0135","lowerLimit":"GND","authority":"Nasjonal sikkerhetsmyndighet (NSM)"}},
{"type":"Feature","geometry":{"type":"Polygon","coordinates":[[[16.03472,69.29308],[16.04498,69.29232],[16.04671,69.29774],[16.04324,69.29775],[16.03602,69.29681],[16.03472,69.29308]]]},"properties":{"_zoneType":"NO_NSM_SENSOR","type":"NO_NSM_SENSOR","name":"Andhue","identifier":"NSM:0001","lowerLimit":"GND","authority":"Nasjonal sikkerhetsmyndighet (NSM)"}},
{"type":"Feature","geometry":{"type":"Polygon","coordinates":[[[16.09695,69.30505],[16.08623,69.30491],[16.08452,69.30222],[16.09266,69.30141],[16.07889,69.29265],[16.12618,69.26741],[16.14147,69.26535],[16.16206,69.26738],[16.35789,69.27056],[16.35688,69.28916],[16.34789,69.31384],[16.3033,69.33947],[16.24519,69.35653],[16.12904,69.31195],[16.12549,69.31184],[16.11803,69.31205],[16.11128,69.31118],[16.1066,69.30997],[16.09963,69.30771],[16.09695,69.30505]]]},"properties":{"_zoneType":"NO_NSM_SENSOR","type":"NO_NSM_SENSOR","name":"Andøya flystasjon","identifier":"NSM:0003","lowerLimit":"GND","authority":"Nasjonal sikkerhetsmyndighet (NSM)"}},
{"type":"Feature","geometry":{"type":"Polygon","coordinates":[[[18.4309,69.07671],[18.42609,69.07657],[18.42328,69.07612],[18.42162,69.07549],[18.42121,69.07454],[18.42218,69.07385],[18.42346,69.0734],[18.42716,69.07276],[18.43072,69.07256],[18.43295,69.07259],[18.43649,69.07296],[18.4391,69.07379],[18.43959,69.07449],[18.43915,69.0751],[18.43726,69.07589],[18.43313,69.07657],[18.4309,69.07671]]]},"properties":{"_zoneType":"NO_NSM_SENSOR","type":"NO_NSM_SENSOR","name":"Trolldalen","identifier":"NSM:0207","lowerLimit":"GND","authority":"Nasjonal sikkerhetsmyndighet (NSM)"}},
{"type":"Feature","geometry":{"type":"Polygon","coordinates":[[[18.4945,69.06123],[18.49297,69.06072],[18.4886,69.05188],[18.48951,69.05021],[18.49196,69.04963],[18.52921,69.04857],[18.54182,69.05109],[18.55166,69.04719],[18.57045,69.04407],[18.57813,69.04375],[18.5847,69.04316],[18.59034,69.04337],[18.5935,69.04673],[18.58773,69.0493],[18.58677,69.05169],[18.57847,69.0577],[18.57494,69.05783],[18.5695,69.05863],[18.56566,69.05986],[18.55584,69.06177],[18.54718,69.06379],[18.54036,69.06399],[18.52991,69.06455],[18.52381,69.06451],[18.51121,69.06371],[18.50763,69.06361],[18.50409,69.06229],[18.4945,69.06123]]]},"properties":{"_zoneType":"NO_NSM_SENSOR","type":"NO_NSM_SENSOR","name":"Bardufoss flystasjon","identifier":"NSM:0005","lowerLimit":"GND","authority":"Nasjonal sikkerhetsmyndighet (NSM)"}},
{"type":"Feature","geometry":{"type":"Polygon","coordinates":[[[18.1227,69.15975],[18.12036,69.1596],[18.119,69.15933],[18.11746,69.15864],[18.11713,69.15779],[18.11807,69.15699],[18.11984,69.15647],[18.12134,69.15628],[18.12425,69.15632],[18.1259,69.15659],[18.12782,69.15751],[18.12789,69.15836],[18.12718,69.15892],[18.12572,69.15942],[18.1227,69.15975]]]},"properties":{"_zoneType":"NO_NSM_SENSOR","type":"NO_NSM_SENSOR","name":"Djupvågen m/NATO kai","identifier":"NSM:0027#171","lowerLimit":"GND","authority":"Nasjonal sikkerhetsmyndighet (NSM)"}},
{"type":"Feature","geometry":{"type":"Polygon","coordinates":[[[18.11725,69.16018],[18.11824,69.16075],[18.11807,69.16169],[18.11689,69.1622],[18.11541,69.16243],[18.11354,69.16239],[18.11179,69.16196],[18.11104,69.16134],[18.11145,69.16051],[18.11347,69.1599],[18.11507,69.15983],[18.11725,69.16018]]]},"properties":{"_zoneType":"NO_NSM_SENSOR","type":"NO_NSM_SENSOR","name":"Djupvågen m/NATO kai","identifier":"NSM:0027#172","lowerLimit":"GND","authority":"Nasjonal sikkerhetsmyndighet (NSM)"}},
{"type":"Feature","geometry":{"type":"Polygon","coordinates":[[[17.58064,69.41959],[17.57805,69.42023],[17.57612,69.42042],[17.57431,69.42032],[17.57316,69.41983],[17.57303,69.41932],[17.57373,69.41856],[17.57486,69.41797],[17.57732,69.41723],[17.57929,69.41695],[17.58163,69.41698],[17.58262,69.41726],[17.58308,69.418],[17.5825,69.41868],[17.58064,69.41959]]]},"properties":{"_zoneType":"NO_NSM_SENSOR","type":"NO_NSM_SENSOR","name":"Innhesten","identifier":"NSM:0078","lowerLimit":"GND","authority":"Nasjonal sikkerhetsmyndighet (NSM)"}},
{"type":"Feature","geometry":{"type":"Polygon","coordinates":[[[19.47939,68.74908],[19.47861,68.74839],[19.4795,68.74801],[19.48298,68.74776],[19.48674,68.7478],[19.48895,68.74807],[19.49139,68.74938],[19.49186,68.74995],[19.4915,68.75051],[19.49041,68.7509],[19.48776,68.75117],[19.4858,68.75078],[19.48409,68.74964],[19.47939,68.74908]]]},"properties":{"_zoneType":"NO_NSM_SENSOR","type":"NO_NSM_SENSOR","name":"Njunis","identifier":"NSM:0132","lowerLimit":"GND","authority":"Nasjonal sikkerhetsmyndighet (NSM)"}},
{"type":"Feature","geometry":{"type":"Polygon","coordinates":[[[19.2799,69.05579],[19.2608,69.05466],[19.26328,69.05131],[19.26744,69.05013],[19.28382,69.05043],[19.2799,69.05579]]]},"properties":{"_zoneType":"NO_NSM_SENSOR","type":"NO_NSM_SENSOR","name":"Mauken","identifier":"NSM:0122","lowerLimit":"GND","authority":"Nasjonal sikkerhetsmyndighet (NSM)"}},
{"type":"Feature","geometry":{"type":"Polygon","coordinates":[[[17.23391,68.5651],[17.2335,68.56557],[17.23083,68.56549],[17.22774,68.56676],[17.22026,68.57006],[17.21888,68.57109],[17.21833,68.57237],[17.21592,68.57452],[17.2089,68.57485],[17.20123,68.57361],[17.19835,68.57175],[17.19946,68.57034],[17.20875,68.56765],[17.21229,68.56629],[17.21515,68.56497],[17.22353,68.56348],[17.22797,68.56282],[17.23052,68.56291],[17.23188,68.56365],[17.23391,68.5651]]]},"properties":{"_zoneType":"NO_NSM_SENSOR","type":"NO_NSM_SENSOR","name":"Skoddeberg II","identifier":"NSM:0174","lowerLimit":"GND","authority":"Nasjonal sikkerhetsmyndighet (NSM)"}},
{"type":"Feature","geometry":{"type":"Polygon","coordinates":[[[19.73782,69.19393],[19.73413,69.19368],[19.73205,69.19327],[19.73052,69.19265],[19.73014,69.19222],[19.73094,69.19128],[19.73253,69.19079],[19.73548,69.1904],[19.73736,69.19032],[19.74078,69.19046],[19.74338,69.19085],[19.7448,69.19127],[19.74572,69.19186],[19.74546,69.19273],[19.7442,69.19327],[19.74189,69.19372],[19.73782,69.19393]]]},"properties":{"_zoneType":"NO_NSM_SENSOR","type":"NO_NSM_SENSOR","name":"Øvergård A","identifier":"NSM:0232#179","lowerLimit":"GND","authority":"Nasjonal sikkerhetsmyndighet (NSM)"}},
{"type":"Feature","geometry":{"type":"Polygon","coordinates":[[[19.7751,69.19531],[19.77035,69.19533],[19.76733,69.19515],[19.76298,69.19454],[19.76059,69.19391],[19.75899,69.19324],[19.75773,69.1922],[19.75763,69.19109],[19.75842,69.19019],[19.7611,69.1889],[19.76363,69.1882],[19.76811,69.18747],[19.77197,69.18715],[19.77515,69.18708],[19.77789,69.18715],[19.78122,69.18741],[19.78562,69.18817],[19.78794,69.18894],[19.78919,69.18966],[19.78979,69.19034],[19.78973,69.19155],[19.78811,69.19283],[19.78586,69.19371],[19.78289,69.19444],[19.7786,69.19506],[19.7751,69.19531]]]},"properties":{"_zoneType":"NO_NSM_SENSOR","type":"NO_NSM_SENSOR","name":"Øvergård B","identifier":"NSM:0232#180","lowerLimit":"GND","authority":"Nasjonal sikkerhetsmyndighet (NSM)"}},
{"type":"Feature","geometry":{"type":"Polygon","coordinates":[[[19.77169,69.18548],[19.76833,69.18559],[19.76632,69.18532],[19.76551,69.18499],[19.76541,69.18439],[19.76675,69.18371],[19.76998,69.18312],[19.77308,69.18304],[19.77509,69.1833],[19.77603,69.18374],[19.77586,69.18436],[19.77467,69.18491],[19.77169,69.18548]]]},"properties":{"_zoneType":"NO_NSM_SENSOR","type":"NO_NSM_SENSOR","name":"Øvergård C","identifier":"NSM:0232#181","lowerLimit":"GND","authority":"Nasjonal sikkerhetsmyndighet (NSM)"}},
{"type":"Feature","geometry":{"type":"Polygon","coordinates":[[[19.78546,69.18393],[19.78219,69.18447],[19.78041,69.18454],[19.77775,69.18422],[19.77647,69.18335],[19.77678,69.1826],[19.7778,69.18193],[19.77992,69.18119],[19.78288,69.18068],[19.78496,69.18058],[19.78797,69.18101],[19.78888,69.18168],[19.78876,69.18233],[19.78718,69.18337],[19.78546,69.18393]]]},"properties":{"_zoneType":"NO_NSM_SENSOR","type":"NO_NSM_SENSOR","name":"Øvergård D","identifier":"NSM:0232#182","lowerLimit":"GND","authority":"Nasjonal sikkerhetsmyndighet (NSM)"}},
{"type":"Feature","geometry":{"type":"Polygon","coordinates":[[[16.59601,68.79675],[16.59479,68.7961],[16.59389,68.79516],[16.59409,68.79408],[16.59529,68.79345],[16.59667,68.79318],[16.59896,68.79313],[16.60171,68.79352],[16.6034,68.79399],[16.60536,68.79494],[16.60626,68.79588],[16.60606,68.79696],[16.60506,68.79753],[16.60348,68.79786],[16.6012,68.7979],[16.59875,68.79758],[16.59601,68.79675]]]},"properties":{"_zoneType":"NO_NSM_SENSOR","type":"NO_NSM_SENSOR","name":"Stangnes","identifier":"NSM:0186","lowerLimit":"GND","authority":"Nasjonal sikkerhetsmyndighet (NSM)"}},
{"type":"Feature","geometry":{"type":"Polygon","coordinates":[[[18.40421,68.90592],[18.40086,68.91096],[18.39781,68.91187],[18.3936,68.91179],[18.3921,68.91102],[18.39214,68.90954],[18.3959,68.90764],[18.40065,68.90581],[18.40421,68.90592]]]},"properties":{"_zoneType":"NO_NSM_SENSOR","type":"NO_NSM_SENSOR","name":"Kjølmoen","identifier":"NSM:0094","lowerLimit":"GND","authority":"Nasjonal sikkerhetsmyndighet (NSM)"}},
{"type":"Feature","geometry":{"type":"Polygon","coordinates":[[[19.44977,69.05994],[19.4544,69.06191],[19.45722,69.06236],[19.46055,69.06259],[19.46427,69.06252],[19.4677,69.06214],[19.47075,69.06161],[19.47312,69.06158],[19.47374,69.06233],[19.47151,69.06402],[19.46762,69.06534],[19.46265,69.06641],[19.45613,69.06713],[19.44649,69.06708],[19.44076,69.06522],[19.4403,69.06264],[19.44421,69.06087],[19.44977,69.05994]]]},"properties":{"_zoneType":"NO_NSM_SENSOR","type":"NO_NSM_SENSOR","name":"Solli","identifier":"NSM:0181","lowerLimit":"GND","authority":"Nasjonal sikkerhetsmyndighet (NSM)"}},
{"type":"Feature","geometry":{"type":"Polygon","coordinates":[[[18.35128,68.85953],[18.35595,68.85621],[18.35945,68.85482],[18.36359,68.85426],[18.36569,68.85386],[18.37115,68.85189],[18.36635,68.84912],[18.37502,68.84747],[18.37921,68.84954],[18.38362,68.84657],[18.39117,68.84291],[18.39382,68.8415],[18.3986,68.83782],[18.40624,68.84044],[18.40805,68.84239],[18.4052,68.84473],[18.4012,68.84703],[18.39685,68.84837],[18.39591,68.84957],[18.39571,68.85178],[18.39365,68.85314],[18.3884,68.8547],[18.38681,68.85629],[18.38587,68.85929],[18.38373,68.86141],[18.37885,68.86313],[18.37249,68.86426],[18.36706,68.86427],[18.35877,68.86404],[18.35583,68.86387],[18.35766,68.86135],[18.35128,68.85953]]]},"properties":{"_zoneType":"NO_NSM_SENSOR","type":"NO_NSM_SENSOR","name":"Setermoen","identifier":"NSM:0166","lowerLimit":"GND","authority":"Nasjonal sikkerhetsmyndighet (NSM)"}},
{"type":"Feature","geometry":{"type":"Polygon","coordinates":[[[18.24418,68.82011],[18.24058,68.81948],[18.23889,68.81987],[18.23672,68.81967],[18.23397,68.81896],[18.2336,68.81787],[18.23248,68.81702],[18.23384,68.81579],[18.24559,68.81392],[18.2498,68.81351],[18.256,68.81566],[18.25646,68.81671],[18.25468,68.8171],[18.24777,68.81887],[18.24634,68.8196],[18.24418,68.82011]]]},"properties":{"_zoneType":"NO_NSM_SENSOR","type":"NO_NSM_SENSOR","name":"Sørskogen","identifier":"NSM:0196","lowerLimit":"GND","authority":"Nasjonal sikkerhetsmyndighet (NSM)"}},
{"type":"Feature","geometry":{"type":"Polygon","coordinates":[[[18.49235,69.05074],[18.49295,69.04962],[18.49661,69.04852],[18.50099,69.04757],[18.50459,69.04736],[18.51069,69.04714],[18.5107,69.05036],[18.49235,69.05074]]]},"properties":{"_zoneType":"NO_NSM_SENSOR","type":"NO_NSM_SENSOR","name":"Rusta","identifier":"NSM:0153","lowerLimit":"GND","authority":"Nasjonal sikkerhetsmyndighet (NSM)"}},
{"type":"Feature","geometry":{"type":"Polygon","coordinates":[[[25.76665,71.1565],[25.76887,71.15725],[25.77038,71.15848],[25.77035,71.15951],[25.76968,71.16021],[25.76791,71.16107],[25.76494,71.16176],[25.76231,71.162],[25.75823,71.1619],[25.75538,71.16143],[25.75249,71.1603],[25.75156,71.15916],[25.75203,71.158],[25.75354,71.15709],[25.75668,71.15624],[25.75928,71.15596],[25.76336,71.156],[25.76665,71.1565]]]},"properties":{"_zoneType":"NO_NSM_SENSOR","type":"NO_NSM_SENSOR","name":"Nordkapp","identifier":"NSM:0134","lowerLimit":"GND","authority":"Nasjonal sikkerhetsmyndighet (NSM)"}},
{"type":"Feature","geometry":{"type":"Polygon","coordinates":[[[30.31908,70.22228],[30.32126,70.22342],[30.32181,70.22416],[30.3218,70.22506],[30.32085,70.22607],[30.31989,70.22658],[30.31761,70.22731],[30.31476,70.22774],[30.31076,70.22781],[30.30902,70.22766],[30.30561,70.22695],[30.30354,70.22597],[30.30264,70.2245],[30.30358,70.22318],[30.30507,70.22242],[30.30674,70.22192],[30.31043,70.22139],[30.31355,70.22136],[30.31613,70.2216],[30.31908,70.22228]]]},"properties":{"_zoneType":"NO_NSM_SENSOR","type":"NO_NSM_SENSOR","name":"Holmfjell","identifier":"NSM:0069","lowerLimit":"GND","authority":"Nasjonal sikkerhetsmyndighet (NSM)"}},
{"type":"Feature","geometry":{"type":"Polygon","coordinates":[[[25.36848,69.29931],[25.3642,69.29922],[25.36094,69.2989],[25.3591,69.29853],[25.35717,69.29764],[25.35737,69.29681],[25.35904,69.29607],[25.36264,69.29539],[25.36621,69.2951],[25.36947,69.29504],[25.37211,69.29513],[25.37538,69.29546],[25.37752,69.2959],[25.37925,69.29691],[25.37844,69.29785],[25.37695,69.29837],[25.37368,69.29896],[25.36848,69.29931]]]},"properties":{"_zoneType":"NO_NSM_SENSOR","type":"NO_NSM_SENSOR","name":"Iskuras","identifier":"NSM:0079","lowerLimit":"GND","authority":"Nasjonal sikkerhetsmyndighet (NSM)"}},
{"type":"Feature","geometry":{"type":"Polygon","coordinates":[[[31.1191,70.36557],[31.11997,70.36407],[31.12217,70.36347],[31.12561,70.36305],[31.12805,70.36336],[31.13094,70.36446],[31.13213,70.36545],[31.13309,70.36696],[31.13318,70.36803],[31.13286,70.36992],[31.13203,70.37181],[31.13015,70.37253],[31.12749,70.37303],[31.1252,70.3715],[31.12297,70.37092],[31.12142,70.36933],[31.1191,70.36557]]]},"properties":{"_zoneType":"NO_NSM_SENSOR","type":"NO_NSM_SENSOR","name":"Vardø/Vårberget","identifier":"NSM:0216","lowerLimit":"GND","authority":"Nasjonal sikkerhetsmyndighet (NSM)"}},
{"type":"Feature","geometry":{"type":"Polygon","coordinates":[[[24.92788,70.08226],[24.92707,70.07957],[24.9393,70.07542],[24.94415,70.0737],[24.94592,70.07188],[24.94629,70.06892],[24.94449,70.06767],[24.94168,70.06648],[24.94137,70.06586],[24.94725,70.06504],[24.95155,70.06407],[24.95299,70.06232],[24.95243,70.06052],[24.94636,70.05512],[24.95324,70.05443],[24.95349,70.05382],[24.96823,70.05285],[24.97312,70.05288],[24.97339,70.05161],[24.98124,70.05146],[24.98626,70.065],[24.99339,70.06583],[24.9937,70.06706],[24.99834,70.06959],[24.99303,70.07355],[24.99543,70.07528],[24.98138,70.07704],[24.97607,70.0786],[24.9741,70.08195],[24.97134,70.08252],[24.96766,70.08128],[24.96709,70.07955],[24.94616,70.08161],[24.93617,70.08116],[24.92788,70.08226]]]},"properties":{"_zoneType":"NO_NSM_SENSOR","type":"NO_NSM_SENSOR","name":"Banak flystasjon","identifier":"NSM:0004","lowerLimit":"GND","authority":"Nasjonal sikkerhetsmyndighet (NSM)"}},
{"type":"Feature","geometry":{"type":"Polygon","coordinates":[[[25.8912,70.99076],[25.88774,70.98817],[25.88416,70.98382],[25.8848,70.98127],[25.89339,70.9805],[25.90556,70.98171],[25.90773,70.98468],[25.90295,70.98708],[25.90408,70.98903],[25.9023,70.99116],[25.8912,70.99076]]]},"properties":{"_zoneType":"NO_NSM_SENSOR","type":"NO_NSM_SENSOR","name":"Honningsvågfjellet","identifier":"NSM:0070","lowerLimit":"GND","authority":"Nasjonal sikkerhetsmyndighet (NSM)"}},
{"type":"Feature","geometry":{"type":"Polygon","coordinates":[[[29.91263,69.72642],[29.90247,69.72475],[29.90214,69.72421],[29.9023,69.72229],[29.90708,69.72022],[29.91893,69.72224],[29.92087,69.72485],[29.91416,69.72625],[29.91263,69.72642]]]},"properties":{"_zoneType":"NO_NSM_SENSOR","type":"NO_NSM_SENSOR","name":"Høybuktmoen","identifier":"NSM:0075","lowerLimit":"GND","authority":"Nasjonal sikkerhetsmyndighet (NSM)"}},
{"type":"Feature","geometry":{"type":"Polygon","coordinates":[[[30.82064,69.63119],[30.81695,69.63112],[30.81453,69.63084],[30.81148,69.63013],[30.80937,69.6292],[30.80802,69.62792],[30.80785,69.62704],[30.8085,69.62589],[30.80947,69.62518],[30.81121,69.6244],[30.81444,69.62361],[30.81658,69.62334],[30.82026,69.62322],[30.82332,69.62344],[30.82587,69.62387],[30.82892,69.62489],[30.83037,69.62584],[30.83106,69.62708],[30.83095,69.62777],[30.82997,69.6289],[30.82881,69.62957],[30.82595,69.63052],[30.82394,69.63089],[30.82064,69.63119]]]},"properties":{"_zoneType":"NO_NSM_SENSOR","type":"NO_NSM_SENSOR","name":"Viksjøhøgda","identifier":"NSM:0224","lowerLimit":"GND","authority":"Nasjonal sikkerhetsmyndighet (NSM)"}},
{"type":"Feature","geometry":{"type":"Polygon","coordinates":[[[29.81061,69.74117],[29.81768,69.73777],[29.82436,69.73621],[29.82918,69.73543],[29.83519,69.73556],[29.83993,69.73797],[29.85159,69.73796],[29.8603,69.74033],[29.85024,69.74297],[29.84415,69.74297],[29.83394,69.74423],[29.82559,69.74401],[29.81477,69.74304],[29.81061,69.74117]]]},"properties":{"_zoneType":"NO_NSM_SENSOR","type":"NO_NSM_SENSOR","name":"Torvgamsletta","identifier":"NSM:0204","lowerLimit":"GND","authority":"Nasjonal sikkerhetsmyndighet (NSM)"}},
{"type":"Feature","geometry":{"type":"Polygon","coordinates":[[[19.29641,69.0245],[19.29487,69.02706],[19.29627,69.02893],[19.29198,69.03278],[19.27191,69.0321],[19.26667,69.02345],[19.2794,69.02257],[19.28578,69.02105],[19.29641,69.0245]]]},"properties":{"_zoneType":"NO_NSM_SENSOR","type":"NO_NSM_SENSOR","name":"Skjold","identifier":"NSM:0236","lowerLimit":"GND","authority":"Nasjonal sikkerhetsmyndighet (NSM)"}},
{"type":"Feature","geometry":{"type":"Polygon","coordinates":[[[11.38574,61.14164],[11.39748,61.14479],[11.41274,61.15758],[11.38709,61.16249],[11.37723,61.157],[11.38574,61.14164]]]},"properties":{"_zoneType":"NO_NSM_SENSOR","type":"NO_NSM_SENSOR","name":"Rena","identifier":"NSM:0149","lowerLimit":"GND","authority":"Nasjonal sikkerhetsmyndighet (NSM)"}},
{"type":"Feature","geometry":{"type":"Polygon","coordinates":[[[10.65115,59.9456],[10.64941,59.9443],[10.65432,59.93792],[10.66641,59.93967],[10.66719,59.94153],[10.66127,59.94364],[10.65683,59.94486],[10.65115,59.9456]]]},"properties":{"_zoneType":"NO_NSM_SENSOR","type":"NO_NSM_SENSOR","name":"Huseby","identifier":"NSM:0072","lowerLimit":"GND","authority":"Nasjonal sikkerhetsmyndighet (NSM)"}},
{"type":"Feature","geometry":{"type":"Polygon","coordinates":[[[11.54694,60.88115],[11.52736,60.88433],[11.51792,60.87319],[11.53722,60.87335],[11.54169,60.87733],[11.54494,60.87797],[11.54707,60.87923],[11.54694,60.88115]]]},"properties":{"_zoneType":"NO_NSM_SENSOR","type":"NO_NSM_SENSOR","name":"Terningmoen","identifier":"NSM:0201","lowerLimit":"GND","authority":"Nasjonal sikkerhetsmyndighet (NSM)"}},
{"type":"Feature","geometry":{"type":"Polygon","coordinates":[[[10.74294,59.90936],[10.74218,59.90856],[10.74402,59.90811],[10.74481,59.90891],[10.74294,59.90936]]]},"properties":{"_zoneType":"NO_NSM_SENSOR","type":"NO_NSM_SENSOR","name":"Norges Bank","identifier":"NSM:0238","lowerLimit":"GND","authority":"Nasjonal sikkerhetsmyndighet (NSM)"}},
{"type":"Feature","geometry":{"type":"Polygon","coordinates":[[[10.37166,61.14981],[10.37783,61.14699],[10.38268,61.14497],[10.38466,61.1456],[10.38608,61.14835],[10.38916,61.15007],[10.39059,61.1521],[10.38889,61.15292],[10.38625,61.15312],[10.38283,61.15276],[10.38082,61.15223],[10.37608,61.15186],[10.37158,61.15123],[10.37166,61.14981]]]},"properties":{"_zoneType":"NO_NSM_SENSOR","type":"NO_NSM_SENSOR","name":"Jørstadmoen","identifier":"NSM:0085","lowerLimit":"GND","authority":"Nasjonal sikkerhetsmyndighet (NSM)"}},
{"type":"Feature","geometry":{"type":"Polygon","coordinates":[[[10.4353,63.43146],[10.4339,63.43061],[10.43334,63.4297],[10.43501,63.42885],[10.43685,63.42926],[10.4378,63.43004],[10.43752,63.43141],[10.4353,63.43146]]]},"properties":{"_zoneType":"NO_NSM_SENSOR","type":"NO_NSM_SENSOR","name":"Luftkrigsskolen","identifier":"NSM:0114","lowerLimit":"GND","authority":"Nasjonal sikkerhetsmyndighet (NSM)"}},
{"type":"Feature","geometry":{"type":"Polygon","coordinates":[[[8.08277,58.20971],[8.08151,58.20943],[8.07931,58.20847],[8.07472,58.20715],[8.07533,58.20443],[8.07848,58.20524],[8.08128,58.20542],[8.08302,58.20569],[8.08673,58.20742],[8.08846,58.20862],[8.08769,58.20883],[8.08277,58.20971]]]},"properties":{"_zoneType":"NO_NSM_SENSOR","type":"NO_NSM_SENSOR","name":"Luftforsvarets skoler Kjevik","identifier":"NSM:0113","lowerLimit":"GND","authority":"Nasjonal sikkerhetsmyndighet (NSM)"}},
{"type":"Feature","geometry":{"type":"Polygon","coordinates":[[[5.66408,58.95191],[5.66183,58.95053],[5.6622,58.94941],[5.66194,58.94857],[5.66223,58.94745],[5.66375,58.94588],[5.6665,58.9441],[5.66889,58.94374],[5.66971,58.94396],[5.66995,58.94639],[5.67284,58.95235],[5.67235,58.95302],[5.67094,58.95296],[5.66722,58.95233],[5.66408,58.95191]]]},"properties":{"_zoneType":"NO_NSM_SENSOR","type":"NO_NSM_SENSOR","name":"Madla","identifier":"NSM:0120","lowerLimit":"GND","authority":"Nasjonal sikkerhetsmyndighet (NSM)"}},
{"type":"Feature","geometry":{"type":"Polygon","coordinates":[[[15.41564,68.70435],[15.41548,68.70201],[15.41934,68.70197],[15.4195,68.70431],[15.41564,68.70435]]]},"properties":{"_zoneType":"NO_NSM_SENSOR","type":"NO_NSM_SENSOR","name":"Sortland","identifier":"NSM:0182","lowerLimit":"GND","authority":"Nasjonal sikkerhetsmyndighet (NSM)"}},
{"type":"Feature","geometry":{"type":"Polygon","coordinates":[[[7.21057,62.98283],[7.20944,62.98419],[7.20744,62.98534],[7.20584,62.98589],[7.20366,62.98635],[7.20009,62.98658],[7.1981,62.98646],[7.19547,62.98601],[7.1935,62.98538],[7.1919,62.98456],[7.19039,62.98307],[7.19005,62.98199],[7.19058,62.98036],[7.19206,62.97907],[7.1937,62.97827],[7.195,62.97784],[7.19757,62.97732],[7.20075,62.97715],[7.20313,62.97731],[7.2064,62.978],[7.20894,62.97917],[7.21007,62.98013],[7.21062,62.98101],[7.21057,62.98283]]]},"properties":{"_zoneType":"NO_NSM_SENSOR","type":"NO_NSM_SENSOR","name":"Farstad/Stemhesten","identifier":"NSM:0036","lowerLimit":"GND","authority":"Nasjonal sikkerhetsmyndighet (NSM)"}},
{"type":"Feature","geometry":{"type":"Polygon","coordinates":[[[5.09673,60.524],[5.09707,60.52449],[5.09687,60.52531],[5.09567,60.52601],[5.09449,60.52623],[5.09263,60.5261],[5.09178,60.52579],[5.09098,60.52507],[5.09092,60.52455],[5.09156,60.52379],[5.09291,60.5233],[5.09498,60.52328],[5.09673,60.524]]]},"properties":{"_zoneType":"NO_NSM_SENSOR","type":"NO_NSM_SENSOR","name":"Heggerneset","identifier":"NSM:0055","lowerLimit":"GND","authority":"Nasjonal sikkerhetsmyndighet (NSM)"}},
{"type":"Feature","geometry":{"type":"Polygon","coordinates":[[[4.95181,60.57321],[4.95252,60.57295],[4.9535,60.57315],[4.95216,60.57543],[4.95106,60.57583],[4.94959,60.57727],[4.94666,60.57825],[4.94543,60.57879],[4.943,60.57783],[4.94147,60.57706],[4.94153,60.57576],[4.94205,60.57398],[4.94295,60.57264],[4.9451,60.57298],[4.94666,60.57455],[4.9491,60.57303],[4.94957,60.57318],[4.95181,60.57321]]]},"properties":{"_zoneType":"NO_NSM_SENSOR","type":"NO_NSM_SENSOR","name":"Herdla","identifier":"NSM:0061","lowerLimit":"GND","authority":"Nasjonal sikkerhetsmyndighet (NSM)"}},
{"type":"Feature","geometry":{"type":"Polygon","coordinates":[[[21.96951,70.65348],[21.97131,70.65423],[21.97224,70.65555],[21.97129,70.65673],[21.96917,70.65756],[21.967,70.65795],[21.96458,70.65811],[21.96096,70.65787],[21.95891,70.65742],[21.957,70.65653],[21.95637,70.65519],[21.95739,70.65416],[21.95893,70.65352],[21.96216,70.65293],[21.96544,70.65286],[21.96816,70.65317],[21.96951,70.65348]]]},"properties":{"_zoneType":"NO_NSM_SENSOR","type":"NO_NSM_SENSOR","name":"Sørvær","identifier":"NSM:0198","lowerLimit":"GND","authority":"Nasjonal sikkerhetsmyndighet (NSM)"}},
{"type":"Feature","geometry":{"type":"Polygon","coordinates":[[[5.70378,59.04391],[5.70449,59.04499],[5.70437,59.04575],[5.70332,59.04675],[5.70193,59.04727],[5.70075,59.04746],[5.69903,59.04744],[5.69787,59.04722],[5.69625,59.04645],[5.69556,59.0455],[5.6956,59.04473],[5.69671,59.04361],[5.69809,59.04308],[5.69927,59.04289],[5.70147,59.04299],[5.70257,59.04327],[5.70378,59.04391]]]},"properties":{"_zoneType":"NO_NSM_SENSOR","type":"NO_NSM_SENSOR","name":"Åmøy","identifier":"NSM:0233","lowerLimit":"GND","authority":"Nasjonal sikkerhetsmyndighet (NSM)"}},
{"type":"Feature","geometry":{"type":"Polygon","coordinates":[[[5.26684,60.39281],[5.26762,60.39323],[5.26795,60.3941],[5.26722,60.3948],[5.2651,60.39548],[5.26371,60.39447],[5.26421,60.39368],[5.26193,60.39293],[5.26303,60.39199],[5.26412,60.39197],[5.26434,60.39158],[5.26537,60.39111],[5.2662,60.39121],[5.26578,60.39243],[5.26684,60.39281]]]},"properties":{"_zoneType":"NO_NSM_SENSOR","type":"NO_NSM_SENSOR","name":"Wallemsviken/Sjøkrigsskolen","identifier":"NSM:0229","lowerLimit":"GND","authority":"Nasjonal sikkerhetsmyndighet (NSM)"}},
{"type":"Feature","geometry":{"type":"Polygon","coordinates":[[[16.59665,68.78579],[16.59367,68.78568],[16.58965,68.78501],[16.58755,68.78418],[16.58639,68.78324],[16.58607,68.78254],[16.58627,68.78158],[16.58722,68.7806],[16.58909,68.77975],[16.59158,68.77912],[16.59407,68.77883],[16.59605,68.77879],[16.59911,68.77892],[16.60262,68.77966],[16.60483,68.78068],[16.60585,68.78174],[16.60566,68.78309],[16.60445,68.78414],[16.60298,68.78475],[16.60021,68.78547],[16.59665,68.78579]]]},"properties":{"_zoneType":"NO_NSM_SENSOR","type":"NO_NSM_SENSOR","name":"Stangnesterminalen","identifier":"NSM:0245","lowerLimit":"GND","authority":"Nasjonal sikkerhetsmyndighet (NSM)"}},
{"type":"Feature","geometry":{"type":"Polygon","coordinates":[[[10.84641,59.79747],[10.84408,59.81613],[10.82947,59.81567],[10.83181,59.797],[10.84641,59.79747]]]},"properties":{"_zoneType":"NO_NSM_SENSOR","type":"NO_NSM_SENSOR","name":"Taraldrud","identifier":"NSM:0248","lowerLimit":"GND","authority":"Nasjonal sikkerhetsmyndighet (NSM)"}},
{"type":"Feature","geometry":{"type":"Polygon","coordinates":[[[10.76461,59.95264],[10.76347,59.95254],[10.76348,59.95179],[10.76485,59.95122],[10.76555,59.95117],[10.76461,59.95264]]]},"properties":{"_zoneType":"NO_NSM_SENSOR","type":"NO_NSM_SENSOR","name":"Nydalen","identifier":"NSM:0249","lowerLimit":"GND","authority":"Nasjonal sikkerhetsmyndighet (NSM)"}},
{"type":"Feature","geometry":{"type":"Polygon","coordinates":[[[10.45583,59.44738],[10.45517,59.44687],[10.45144,59.44222],[10.45255,59.44027],[10.45409,59.43932],[10.47573,59.43728],[10.48145,59.4368],[10.48269,59.43608],[10.48439,59.42853],[10.4856,59.42729],[10.48728,59.42689],[10.48956,59.42696],[10.49469,59.42755],[10.49621,59.42805],[10.50262,59.43232],[10.50266,59.43335],[10.50201,59.44219],[10.50081,59.44391],[10.49842,59.44531],[10.48424,59.45098],[10.48206,59.4514],[10.47419,59.45081],[10.4601,59.44852],[10.45583,59.44738]]]},"properties":{"_zoneType":"NO_NSM_SENSOR","type":"NO_NSM_SENSOR","name":"Karljohansvern","identifier":"NSM:0261","lowerLimit":"GND","authority":"Nasjonal sikkerhetsmyndighet (NSM)"}},
{"type":"Feature","geometry":{"type":"Polygon","coordinates":[[[16.55218,68.8257],[16.56828,68.82256],[16.57805,68.82544],[16.58274,68.82596],[16.58683,68.82543],[16.59519,68.82631],[16.59554,68.82714],[16.59359,68.83112],[16.59615,68.83626],[16.59478,68.83783],[16.59127,68.83878],[16.58724,68.83891],[16.56321,68.83795],[16.54486,68.83245],[16.54589,68.83036],[16.54725,68.82886],[16.55238,68.82872],[16.55218,68.8257]]]},"properties":{"_zoneType":"NO_NSM_SENSOR","type":"NO_NSM_SENSOR","name":"Trondenes","identifier":"NSM:0273","lowerLimit":"GND","authority":"Nasjonal sikkerhetsmyndighet (NSM)"}},
{"type":"Feature","geometry":{"type":"Polygon","coordinates":[[[16.66817,68.52735],[16.56695,68.50335],[16.56562,68.45396],[16.70796,68.45257],[16.74722,68.4594],[16.75463,68.46655],[16.80836,68.47694],[16.79146,68.51743],[16.66817,68.52735]]]},"properties":{"_zoneType":"NO_NSM_SENSOR","type":"NO_NSM_SENSOR","name":"Evenes","identifier":"NSM:0034","lowerLimit":"GND","authority":"Nasjonal sikkerhetsmyndighet (NSM)"}},
{"type":"Feature","geometry":{"type":"Polygon","coordinates":[[[16.41551,68.50765],[16.42246,68.48043],[16.46185,68.44156],[16.55711,68.44725],[16.5906,68.4787],[16.56718,68.50369],[16.54471,68.50769],[16.49484,68.51025],[16.41551,68.50765]]]},"properties":{"_zoneType":"NO_NSM_SENSOR","type":"NO_NSM_SENSOR","name":"Ramsund","identifier":"NSM:0272","lowerLimit":"GND","authority":"Nasjonal sikkerhetsmyndighet (NSM)"}},
{"type":"Feature","geometry":{"type":"Polygon","coordinates":[[[10.72247,59.91806],[10.72373,59.91758],[10.72432,59.91801],[10.72304,59.91839],[10.72247,59.91806]]]},"properties":{"_zoneType":"NO_NSM_SENSOR","type":"NO_NSM_SENSOR","name":"Regjeringens representasjonsanlegg","identifier":"NSM:0275","lowerLimit":"GND","authority":"Nasjonal sikkerhetsmyndighet (NSM)"}},
{"type":"Feature","geometry":{"type":"Polygon","coordinates":[[[10.72899,59.91513],[10.72722,59.91411],[10.72721,59.91326],[10.72998,59.91466],[10.72899,59.91513]]]},"properties":{"_zoneType":"NO_NSM_SENSOR","type":"NO_NSM_SENSOR","name":"Victoria Terrasse","identifier":"NSM:0276","lowerLimit":"GND","authority":"Nasjonal sikkerhetsmyndighet (NSM)"}},
{"type":"Feature","geometry":{"type":"Polygon","coordinates":[[[10.74337,59.91163],[10.74403,59.91146],[10.74423,59.91169],[10.74357,59.91184],[10.74337,59.91163]]]},"properties":{"_zoneType":"NO_NSM_SENSOR","type":"NO_NSM_SENSOR","name":"Kongensgate 20","identifier":"NSM:0277","lowerLimit":"GND","authority":"Nasjonal sikkerhetsmyndighet (NSM)"}},
{"type":"Feature","geometry":{"type":"Polygon","coordinates":[[[10.7419,59.91011],[10.74263,59.90993],[10.74289,59.91019],[10.74217,59.91038],[10.7419,59.91011]]]},"properties":{"_zoneType":"NO_NSM_SENSOR","type":"NO_NSM_SENSOR","name":"Kongensgate 8","identifier":"NSM:0278","lowerLimit":"GND","authority":"Nasjonal sikkerhetsmyndighet (NSM)"}},
{"type":"Feature","geometry":{"type":"Polygon","coordinates":[[[10.74392,59.91039],[10.74361,59.91005],[10.74454,59.90985],[10.74487,59.91021],[10.74392,59.91039]]]},"properties":{"_zoneType":"NO_NSM_SENSOR","type":"NO_NSM_SENSOR","name":"Kirkegata 18","identifier":"NSM:0279","lowerLimit":"GND","authority":"Nasjonal sikkerhetsmyndighet (NSM)"}},
{"type":"Feature","geometry":{"type":"Polygon","coordinates":[[[10.74437,59.91774],[10.74452,59.91716],[10.74565,59.91746],[10.74437,59.91774]]]},"properties":{"_zoneType":"NO_NSM_SENSOR","type":"NO_NSM_SENSOR","name":"Akersgata 64-68","identifier":"NSM:0280","lowerLimit":"GND","authority":"Nasjonal sikkerhetsmyndighet (NSM)"}},
{"type":"Feature","geometry":{"type":"Polygon","coordinates":[[[10.74199,59.91665],[10.74264,59.91572],[10.74402,59.91533],[10.74366,59.91502],[10.74473,59.91433],[10.74494,59.91381],[10.74642,59.91441],[10.74815,59.91558],[10.74713,59.91592],[10.7474,59.91645],[10.74537,59.91648],[10.74346,59.91614],[10.743,59.91683],[10.74199,59.91665]]]},"properties":{"_zoneType":"NO_NSM_SENSOR","type":"NO_NSM_SENSOR","name":"Regjeringskvartalet","identifier":"NSM:0281","lowerLimit":"GND","authority":"Nasjonal sikkerhetsmyndighet (NSM)"}},
{"type":"Feature","geometry":{"type":"Polygon","coordinates":[[[29.6784,70.08246],[29.67886,70.08304],[29.67813,70.0838],[29.67688,70.08417],[29.67542,70.08416],[29.67186,70.08524],[29.6716,70.08665],[29.65511,70.08877],[29.65035,70.08931],[29.64558,70.08687],[29.6502,70.08594],[29.65346,70.08457],[29.66133,70.08287],[29.66598,70.08228],[29.66931,70.08173],[29.67492,70.08195],[29.6784,70.08246]]]},"properties":{"_zoneType":"NO_NSM_SENSOR","type":"NO_NSM_SENSOR","name":"Vadsø","identifier":"NSM:0283","lowerLimit":"GND","authority":"Nasjonal sikkerhetsmyndighet (NSM)"}},
{"type":"Feature","geometry":{"type":"Polygon","coordinates":[[[11.39929,59.12625],[11.40552,59.12643],[11.40536,59.12772],[11.40063,59.12757],[11.39929,59.12625]]]},"properties":{"_zoneType":"NO_NSM_SENSOR","type":"NO_NSM_SENSOR","name":"Halden","identifier":"NSM:0285","lowerLimit":"GND","authority":"Nasjonal sikkerhetsmyndighet (NSM)"}},
{"type":"Feature","geometry":{"type":"Polygon","coordinates":[[[11.05038,59.97627],[11.04975,59.97505],[11.04899,59.97508],[11.0489,59.97451],[11.04843,59.97453],[11.04826,59.97448],[11.04795,59.9741],[11.04888,59.9726],[11.05439,59.97204],[11.05522,59.97338],[11.05479,59.97646],[11.05398,59.97694],[11.05283,59.97665],[11.05156,59.97642],[11.05101,59.97634],[11.05038,59.97627]]]},"properties":{"_zoneType":"NO_NSM_SENSOR","type":"NO_NSM_SENSOR","name":"Kjeller A","identifier":"NSM:0284","lowerLimit":"GND","authority":"Nasjonal sikkerhetsmyndighet (NSM)"}},
{"type":"Feature","geometry":{"type":"Polygon","coordinates":[[[11.04681,59.97678],[11.04699,59.9762],[11.0456,59.97601],[11.04633,59.97468],[11.04824,59.97449],[11.04939,59.97444],[11.05039,59.97592],[11.05039,59.9763],[11.04681,59.97678]]]},"properties":{"_zoneType":"NO_NSM_SENSOR","type":"NO_NSM_SENSOR","name":"Kjeller B","identifier":"NSM:0286","lowerLimit":"GND","authority":"Nasjonal sikkerhetsmyndighet (NSM)"}},
{"type":"Feature","geometry":{"type":"Polygon","coordinates":[[[11.03257,59.97833],[11.03346,59.97849],[11.03322,59.97962],[11.03571,59.97954],[11.03616,59.98052],[11.03176,59.98145],[11.02942,59.97935],[11.03141,59.97889],[11.03257,59.97833]]]},"properties":{"_zoneType":"NO_NSM_SENSOR","type":"NO_NSM_SENSOR","name":"Dompa","identifier":"NSM:0289","lowerLimit":"GND","authority":"Nasjonal sikkerhetsmyndighet (NSM)"}},
{"type":"Feature","geometry":{"type":"Polygon","coordinates":[[[10.39112,60.09389],[10.39141,60.09462],[10.39129,60.09608],[10.39076,60.09696],[10.38947,60.09807],[10.38793,60.09886],[10.38572,60.09952],[10.38397,60.0998],[10.38104,60.09989],[10.37786,60.09944],[10.37599,60.09885],[10.37468,60.09821],[10.37331,60.09712],[10.37272,60.09625],[10.37246,60.09516],[10.37264,60.09424],[10.37384,60.09271],[10.37545,60.09171],[10.3766,60.09125],[10.3796,60.09057],[10.38216,60.09042],[10.3854,60.09074],[10.38704,60.09115],[10.38901,60.09198],[10.39011,60.09271],[10.39112,60.09389]]]},"properties":{"_zoneType":"NO_NSM_SENSOR","type":"NO_NSM_SENSOR","name":"Gyrihaugen","identifier":"NSM:0290","lowerLimit":"GND","authority":"Nasjonal sikkerhetsmyndighet (NSM)"}},
{"type":"Feature","geometry":{"type":"Polygon","coordinates":[[[30.8806,70.35342],[30.88419,70.35475],[30.88667,70.35634],[30.88745,70.3572],[30.88796,70.35831],[30.88799,70.35921],[30.88723,70.36076],[30.88607,70.36182],[30.88324,70.36334],[30.88093,70.36416],[30.87827,70.36484],[30.87532,70.36537],[30.87151,70.36579],[30.8682,70.36595],[30.86353,70.36588],[30.86028,70.36562],[30.8566,70.36508],[30.85228,70.36402],[30.84925,70.36283],[30.84733,70.36164],[30.84598,70.36014],[30.84567,70.35834],[30.84632,70.35701],[30.84717,70.35616],[30.84939,70.35478],[30.85198,70.35374],[30.85509,70.35289],[30.85801,70.35235],[30.8618,70.35191],[30.8671,70.3517],[30.87043,70.35181],[30.87554,70.35234],[30.8806,70.35342]]]},"properties":{"_zoneType":"NO_NSM_SENSOR","type":"NO_NSM_SENSOR","name":"Grøhøgda","identifier":"NSM:0291","lowerLimit":"GND","authority":"Nasjonal sikkerhetsmyndighet (NSM)"}},
{"type":"Feature","geometry":{"type":"Polygon","coordinates":[[[11.09198,64.2786],[11.09244,64.27965],[11.09204,64.28124],[11.09085,64.28238],[11.08986,64.28294],[11.08768,64.28375],[11.08585,64.28415],[11.08387,64.28439],[11.0806,64.2844],[11.07823,64.28412],[11.07512,64.28326],[11.0731,64.28214],[11.07218,64.28115],[11.07187,64.28045],[11.07196,64.27921],[11.07301,64.27786],[11.07415,64.27712],[11.07592,64.27638],[11.07921,64.27566],[11.08163,64.27548],[11.08408,64.27556],[11.08751,64.27613],[11.08915,64.27667],[11.09051,64.27733],[11.09198,64.2786]]]},"properties":{"_zoneType":"NO_NSM_SENSOR","type":"NO_NSM_SENSOR","name":"Øyenskavlen","identifier":"NSM:0292","lowerLimit":"GND","authority":"Nasjonal sikkerhetsmyndighet (NSM)"}},
{"type":"Feature","geometry":{"type":"Polygon","coordinates":[[[18.0063,69.0574],[18.01025,69.0671],[17.95393,69.08319],[17.93504,69.07541],[17.94773,69.06197],[17.9891,69.05686],[18.0063,69.0574]]]},"properties":{"_zoneType":"NO_NSM_SENSOR","type":"NO_NSM_SENSOR","name":"CRC Sørreisa","identifier":"NSM:0293","lowerLimit":"GND","authority":"Nasjonal sikkerhetsmyndighet (NSM)"}},
{"type":"Feature","geometry":{"type":"Polygon","coordinates":[[[9.68934,63.51655],[9.69089,63.51818],[9.69096,63.51978],[9.69057,63.52047],[9.68933,63.52158],[9.68712,63.5226],[9.68542,63.52306],[9.68315,63.52339],[9.68157,63.52348],[9.67919,63.52339],[9.67766,63.52319],[9.67522,63.52259],[9.67376,63.52199],[9.67223,63.52095],[9.67157,63.52011],[9.67129,63.51888],[9.67193,63.51749],[9.67283,63.51669],[9.67494,63.51563],[9.67769,63.51492],[9.6804,63.51465],[9.68318,63.51473],[9.68471,63.51493],[9.68714,63.51553],[9.68934,63.51655]]]},"properties":{"_zoneType":"NO_NSM_SENSOR","type":"NO_NSM_SENSOR","name":"Hestgrovheia","identifier":"NSM:0294","lowerLimit":"GND","authority":"Nasjonal sikkerhetsmyndighet (NSM)"}},
{"type":"Feature","geometry":{"type":"Polygon","coordinates":[[[10.73502,59.9098],[10.73533,59.9087],[10.73512,59.90786],[10.73593,59.90598],[10.73646,59.90558],[10.73838,59.90501],[10.73886,59.90426],[10.7398,59.904],[10.74153,59.90417],[10.74445,59.90727],[10.73996,59.90838],[10.73962,59.90802],[10.73734,59.90873],[10.73671,59.90926],[10.73654,59.90995],[10.73502,59.9098]]]},"properties":{"_zoneType":"NO_NSM_SENSOR","type":"NO_NSM_SENSOR","name":"Akershus festning","identifier":"NSM:0296","lowerLimit":"GND","authority":"Nasjonal sikkerhetsmyndighet (NSM)"}},
{"type":"Feature","geometry":{"type":"Polygon","coordinates":[[[5.6379,58.89538],[5.639,58.87662],[5.63309,58.87604],[5.62572,58.87717],[5.61962,58.87465],[5.61976,58.87229],[5.62448,58.87242],[5.62567,58.87062],[5.62908,58.86884],[5.63186,58.86798],[5.64155,58.86816],[5.64933,58.87027],[5.65318,58.87292],[5.64852,58.87756],[5.65018,58.87944],[5.64518,58.88178],[5.64594,58.88239],[5.64555,58.88305],[5.64609,58.88369],[5.64511,58.88401],[5.64449,58.88632],[5.64459,58.88681],[5.6428,58.88739],[5.64428,58.88874],[5.64465,58.8893],[5.64349,58.89035],[5.64211,58.8909],[5.64146,58.89219],[5.64306,58.89277],[5.64367,58.89321],[5.63966,58.89548],[5.6379,58.89538]]]},"properties":{"_zoneType":"NO_NSM_SENSOR","type":"NO_NSM_SENSOR","name":"Sola Flystasjon","identifier":"NSM:0295","lowerLimit":"GND","authority":"Nasjonal sikkerhetsmyndighet (NSM)"}},
{"type":"Feature","geometry":{"type":"Polygon","coordinates":[[[11.38461,61.16121],[11.38705,61.16253],[11.41275,61.15757],[11.41986,61.16161],[11.39779,61.18577],[11.36506,61.19431],[11.35527,61.19144],[11.38461,61.16121]]]},"properties":{"_zoneType":"NO_NSM_SENSOR","type":"NO_NSM_SENSOR","name":"Rena flyplass - Landsørkje","identifier":"NSM:0297","lowerLimit":"GND","authority":"Nasjonal sikkerhetsmyndighet (NSM)"}},
{"type":"Feature","geometry":{"type":"Polygon","coordinates":[[[9.65202,59.58923],[9.65399,59.59024],[9.65525,59.59071],[9.65622,59.59137],[9.65829,59.59235],[9.65965,59.59267],[9.66115,59.59276],[9.66161,59.5932],[9.66275,59.59365],[9.6653,59.59288],[9.66641,59.59318],[9.66831,59.59448],[9.67156,59.5947],[9.67226,59.59505],[9.67155,59.59594],[9.67167,59.59676],[9.67106,59.59759],[9.66891,59.59851],[9.66453,59.59852],[9.66347,59.59845],[9.66158,59.59804],[9.66031,59.59755],[9.65921,59.59672],[9.65927,59.59603],[9.65639,59.5959],[9.65489,59.59557],[9.65317,59.5948],[9.65258,59.5942],[9.65338,59.59371],[9.65556,59.59324],[9.65434,59.593],[9.65144,59.59083],[9.6502,59.59017],[9.64998,59.58949],[9.65078,59.58921],[9.65202,59.58923]]]},"properties":{"_zoneType":"NO_NSM_SENSOR","type":"NO_NSM_SENSOR","name":"Heistadmoen","identifier":"NSM:0298","lowerLimit":"GND","authority":"Nasjonal sikkerhetsmyndighet (NSM)"}},
{"type":"Feature","geometry":{"type":"Polygon","coordinates":[[[5.79173,58.86019],[5.79092,58.85864],[5.79099,58.85792],[5.79301,58.85747],[5.79573,58.85731],[5.79776,58.85744],[5.79838,58.85784],[5.80111,58.86001],[5.80102,58.8607],[5.80022,58.86128],[5.79878,58.86121],[5.79714,58.86143],[5.79634,58.8613],[5.79395,58.86058],[5.79293,58.86054],[5.79173,58.86019]]]},"properties":{"_zoneType":"NO_NSM_SENSOR","type":"NO_NSM_SENSOR","name":"Vatneleiren","identifier":"NSM:0299","lowerLimit":"GND","authority":"Nasjonal sikkerhetsmyndighet (NSM)"}},
{"type":"Feature","geometry":{"type":"Polygon","coordinates":[[[5.31543,60.40113],[5.31632,60.40054],[5.31691,60.39957],[5.31838,60.39882],[5.31967,60.39881],[5.32022,60.39954],[5.32147,60.39925],[5.32238,60.40078],[5.3213,60.40156],[5.3189,60.40198],[5.31703,60.40128],[5.31543,60.40113]]]},"properties":{"_zoneType":"NO_NSM_SENSOR","type":"NO_NSM_SENSOR","name":"Bergenhus Festning","identifier":"NSM:0300","lowerLimit":"GND","authority":"Nasjonal sikkerhetsmyndighet (NSM)"}},
{"type":"Feature","geometry":{"type":"Polygon","coordinates":[[[7.67995,62.55151],[7.67828,62.55097],[7.67736,62.55037],[7.67814,62.54948],[7.67868,62.54823],[7.68461,62.54593],[7.68652,62.5446],[7.68691,62.54279],[7.68643,62.54086],[7.68512,62.53881],[7.68645,62.53778],[7.68628,62.5371],[7.68668,62.53641],[7.6895,62.53643],[7.6905,62.53669],[7.6928,62.53882],[7.69619,62.54023],[7.69595,62.54118],[7.6968,62.54185],[7.69917,62.54416],[7.70149,62.54624],[7.70434,62.54929],[7.70455,62.55021],[7.70386,62.55052],[7.70031,62.55068],[7.69757,62.55108],[7.69721,62.55212],[7.69393,62.55324],[7.6929,62.55273],[7.69137,62.55249],[7.68873,62.55365],[7.68764,62.55499],[7.68497,62.55556],[7.68443,62.55538],[7.68373,62.55429],[7.67995,62.55151]]]},"properties":{"_zoneType":"NO_NSM_SENSOR","type":"NO_NSM_SENSOR","name":"Setnesmoen Leir","identifier":"NSM:0301","lowerLimit":"GND","authority":"Nasjonal sikkerhetsmyndighet (NSM)"}},
{"type":"Feature","geometry":{"type":"Polygon","coordinates":[[[10.91405,63.4583],[10.94764,63.45802],[10.9471,63.45867],[10.94604,63.45927],[10.94405,63.45998],[10.94347,63.46071],[10.94288,63.46291],[10.94199,63.46362],[10.93892,63.46522],[10.93588,63.4662],[10.93373,63.46659],[10.92794,63.46642],[10.92513,63.46618],[10.91827,63.46578],[10.91729,63.46534],[10.91638,63.46437],[10.91591,63.46194],[10.91625,63.46081],[10.91458,63.4599],[10.91399,63.45913],[10.91405,63.4583]]]},"properties":{"_zoneType":"NO_NSM_SENSOR","type":"NO_NSM_SENSOR","name":"Værnes Garnison","identifier":"NSM:0302","lowerLimit":"GND","authority":"Nasjonal sikkerhetsmyndighet (NSM)"}},
{"type":"Feature","geometry":{"type":"Polygon","coordinates":[[[13.28695,65.99303],[13.28288,65.99153],[13.28038,65.98875],[13.27808,65.98738],[13.27173,65.98553],[13.27039,65.98474],[13.2706,65.98312],[13.27302,65.98116],[13.27728,65.98012],[13.28207,65.9798],[13.28806,65.97955],[13.29148,65.98052],[13.29284,65.9811],[13.29714,65.9891],[13.34625,65.98742],[13.35045,65.98903],[13.35113,65.99082],[13.34803,65.99265],[13.33689,65.99504],[13.32713,65.997],[13.31955,65.99926],[13.31868,65.99936],[13.3164,65.99916],[13.3148,65.99882],[13.31256,65.99754],[13.312,65.99745],[13.29679,65.99711],[13.29312,65.99648],[13.29162,65.99574],[13.28695,65.99303]]]},"properties":{"_zoneType":"NO_NSM_SENSOR","type":"NO_NSM_SENSOR","name":"Drevjamoen","identifier":"NSM:0303","lowerLimit":"GND","authority":"Nasjonal sikkerhetsmyndighet (NSM)"}},
{"type":"Feature","geometry":{"type":"Polygon","coordinates":[[[17.57507,68.5476],[17.57454,68.54672],[17.5762,68.54387],[17.58146,68.54275],[17.58148,68.54181],[17.5766,68.54131],[17.5752,68.5408],[17.57465,68.53972],[17.57499,68.53837],[17.57674,68.53778],[17.58176,68.53727],[17.58702,68.5376],[17.59311,68.53776],[17.60536,68.53826],[17.62314,68.53969],[17.62599,68.54034],[17.62651,68.54102],[17.62702,68.54549],[17.62494,68.54708],[17.62132,68.54828],[17.61608,68.54899],[17.6124,68.54902],[17.599,68.5485],[17.59747,68.54808],[17.59465,68.54768],[17.57507,68.5476]]]},"properties":{"_zoneType":"NO_NSM_SENSOR","type":"NO_NSM_SENSOR","name":"Bjerkvik Garnison","identifier":"NSM:0304","lowerLimit":"GND","authority":"Nasjonal sikkerhetsmyndighet (NSM)"}},
{"type":"Feature","geometry":{"type":"Polygon","coordinates":[[[24.97182,69.9378],[24.97523,69.93325],[24.94138,69.92998],[24.95058,69.91882],[24.94172,69.86256],[24.98166,69.84752],[25.0403,69.84759],[25.14451,69.83755],[25.23658,69.84339],[25.46443,69.88118],[25.45907,69.96681],[25.20319,69.93841],[25.02917,69.94408],[24.97182,69.9378]]]},"properties":{"_zoneType":"NO_NSM_SENSOR","type":"NO_NSM_SENSOR","name":"Porsangmoen skyte- og øvingsfelt","identifier":"NSM:0305","lowerLimit":"GND","authority":"Nasjonal sikkerhetsmyndighet (NSM)"}},
{"type":"Feature","geometry":{"type":"Polygon","coordinates":[[[-8.4678,71.01736],[-8.50559,71.00675],[-8.53436,70.99577],[-8.5748,70.99015],[-8.67435,70.9846],[-8.70649,70.98107],[-8.70179,70.9741],[-8.70763,70.96299],[-8.75056,70.95553],[-8.77609,70.9488],[-8.78698,70.94336],[-8.78864,70.9355],[-8.77564,70.92835],[-8.75777,70.92145],[-8.71797,70.91667],[-8.69741,70.91989],[-8.67219,70.92967],[-8.61794,70.94471],[-8.56157,70.95665],[-8.5217,70.96391],[-8.46804,70.96948],[-8.4334,70.97168],[-8.41599,70.96641],[-8.3908,70.96354],[-8.35532,70.96637],[-8.2526,70.97921],[-8.24694,70.98267],[-8.25817,70.98768],[-8.29404,70.99511],[-8.3317,71.00163],[-8.38845,71.01233],[-8.43682,71.01647],[-8.4678,71.01736]]]},"properties":{"_zoneType":"NO_NSM_SENSOR","type":"NO_NSM_SENSOR","name":"Jan Mayen","identifier":"NSM:0287","lowerLimit":"GND","authority":"Nasjonal sikkerhetsmyndighet (NSM)"}},
{"type":"Feature","geometry":{"type":"Polygon","coordinates":[[[11.19524,60.18772],[11.19676,60.1875],[11.19659,60.18713],[11.22774,60.18251],[11.23287,60.18653],[11.23312,60.18721],[11.23272,60.18786],[11.22992,60.1904],[11.23049,60.19128],[11.22944,60.19169],[11.22627,60.19081],[11.22531,60.19039],[11.22484,60.19096],[11.22392,60.19131],[11.2227,60.19101],[11.22043,60.19286],[11.22316,60.19464],[11.22318,60.19524],[11.21503,60.19713],[11.21442,60.197],[11.20602,60.19036],[11.20317,60.19039],[11.20062,60.19023],[11.19805,60.18975],[11.19584,60.18898],[11.19526,60.18831],[11.19524,60.18772]]]},"properties":{"_zoneType":"NO_NSM_SENSOR","type":"NO_NSM_SENSOR","name":"Hauerseter","identifier":"NSM:0307","lowerLimit":"GND","authority":"Nasjonal sikkerhetsmyndighet (NSM)"}},
{"type":"Feature","geometry":{"type":"Polygon","coordinates":[[[11.26478,60.18545],[11.26464,60.18324],[11.26701,60.18295],[11.26636,60.18249],[11.26793,60.1812],[11.26772,60.18046],[11.26887,60.18025],[11.27029,60.18036],[11.27026,60.181],[11.27214,60.18119],[11.27307,60.18191],[11.27152,60.18233],[11.26989,60.18376],[11.2683,60.18416],[11.2674,60.18471],[11.26681,60.18598],[11.26543,60.18589],[11.26478,60.18545]]]},"properties":{"_zoneType":"NO_NSM_SENSOR","type":"NO_NSM_SENSOR","name":"Nordkisa","identifier":"NSM:0308","lowerLimit":"GND","authority":"Nasjonal sikkerhetsmyndighet (NSM)"}},
{"type":"Feature","geometry":{"type":"Polygon","coordinates":[[[11.11063,60.22676],[11.11337,60.22671],[11.11499,60.22648],[11.11605,60.22586],[11.11564,60.22468],[11.11322,60.22384],[11.11233,60.22303],[11.11205,60.2222],[11.11086,60.21653],[11.12064,60.21439],[11.12174,60.212],[11.12281,60.2117],[11.12757,60.21225],[11.12746,60.21266],[11.12978,60.21294],[11.12886,60.21564],[11.12915,60.21597],[11.1311,60.21614],[11.13077,60.21662],[11.12959,60.21738],[11.12993,60.21864],[11.12925,60.2193],[11.13012,60.21982],[11.13181,60.21986],[11.13201,60.22142],[11.13102,60.22296],[11.13129,60.22358],[11.13096,60.2244],[11.13525,60.22604],[11.14082,60.22895],[11.14234,60.23211],[11.14626,60.23369],[11.14791,60.2337],[11.14973,60.23246],[11.15203,60.23199],[11.15117,60.23308],[11.15085,60.23399],[11.15061,60.23634],[11.14825,60.23821],[11.14598,60.23757],[11.14425,60.23945],[11.14361,60.24043],[11.14265,60.24111],[11.14199,60.24198],[11.14204,60.24362],[11.14501,60.2455],[11.14569,60.24623],[11.13206,60.24654],[11.12929,60.24678],[11.11298,60.23838],[11.11183,60.23581],[11.11104,60.23339],[11.11045,60.23052],[11.11063,60.22676]]]},"properties":{"_zoneType":"NO_NSM_SENSOR","type":"NO_NSM_SENSOR","name":"Sessvollmoen/Trandum","identifier":"NSM:0309","lowerLimit":"GND","authority":"Nasjonal sikkerhetsmyndighet (NSM)"}},
{"type":"Feature","geometry":{"type":"Polygon","coordinates":[[[11.09171,60.20584],[11.10303,60.20427],[11.10515,60.20794],[11.10889,60.20737],[11.11088,60.20837],[11.10922,60.21069],[11.10704,60.211],[11.10922,60.21499],[11.10997,60.21767],[11.11028,60.22067],[11.10999,60.22651],[11.10516,60.22664],[11.09961,60.22573],[11.09964,60.22524],[11.10058,60.22516],[11.09875,60.22124],[11.10075,60.22097],[11.09171,60.20584]]]},"properties":{"_zoneType":"NO_NSM_SENSOR","type":"NO_NSM_SENSOR","name":"Nye Gardermoen","identifier":"NSM:0137","lowerLimit":"GND","authority":"Nasjonal sikkerhetsmyndighet (NSM)"}},
{"type":"Feature","geometry":{"type":"Polygon","coordinates":[[[10.54344,59.68143],[10.54323,59.68105],[10.54492,59.6799],[10.5431,59.679],[10.54461,59.67798],[10.54504,59.67748],[10.54763,59.67536],[10.54935,59.67452],[10.55061,59.67413],[10.55186,59.67401],[10.55577,59.67468],[10.55755,59.67407],[10.55857,59.67645],[10.55557,59.67765],[10.55379,59.67765],[10.55332,59.67727],[10.552,59.67762],[10.55176,59.6787],[10.55066,59.67909],[10.54963,59.68014],[10.54931,59.68105],[10.54884,59.68145],[10.5464,59.6822],[10.54498,59.68131],[10.54344,59.68143]]]},"properties":{"_zoneType":"NO_NSM_SENSOR","type":"NO_NSM_SENSOR","name":"Engene","identifier":"NSM:0313","lowerLimit":"GND","authority":"Nasjonal sikkerhetsmyndighet (NSM)"}},
{"type":"Feature","geometry":{"type":"Polygon","coordinates":[[[10.62642,59.89793],[10.62624,59.89632],[10.62874,59.89641],[10.6296,59.89669],[10.62971,59.898],[10.62642,59.89793]]]},"properties":{"_zoneType":"NO_NSM_SENSOR","type":"NO_NSM_SENSOR","name":"Fornebu","identifier":"NSM:0314","lowerLimit":"GND","authority":"Nasjonal sikkerhetsmyndighet (NSM)"}},
{"type":"Feature","geometry":{"type":"Polygon","coordinates":[[[9.64973,59.65964],[9.64729,59.65903],[9.64586,59.6575],[9.64541,59.65727],[9.64309,59.65698],[9.64087,59.65596],[9.64268,59.65252],[9.64276,59.65203],[9.64162,59.65126],[9.64167,59.6504],[9.6435,59.65007],[9.64561,59.65057],[9.6509,59.65042],[9.65238,59.65146],[9.65255,59.65226],[9.65069,59.65463],[9.64889,59.65718],[9.65096,59.65855],[9.65102,59.65928],[9.64973,59.65964]]]},"properties":{"_zoneType":"NO_NSM_SENSOR","type":"NO_NSM_SENSOR","name":"Kongsberg Teknologipark","identifier":"NSM:0316","lowerLimit":"GND","authority":"Nasjonal sikkerhetsmyndighet (NSM)"}},
{"type":"Feature","geometry":{"type":"Polygon","coordinates":[[[9.63998,59.63168],[9.63837,59.63116],[9.63621,59.62998],[9.63485,59.62841],[9.63363,59.62647],[9.63385,59.62614],[9.64394,59.62565],[9.64456,59.62629],[9.64205,59.62869],[9.64128,59.63117],[9.63998,59.63168]]]},"properties":{"_zoneType":"NO_NSM_SENSOR","type":"NO_NSM_SENSOR","name":"Arsenalet","identifier":"NSM:0317","lowerLimit":"GND","authority":"Nasjonal sikkerhetsmyndighet (NSM)"}},
{"type":"Feature","geometry":{"type":"Polygon","coordinates":[[[10.5454,60.72417],[10.54406,60.72433],[10.53775,60.72373],[10.52738,60.72289],[10.52644,60.71928],[10.54523,60.69701],[10.56377,60.69985],[10.56304,60.70655],[10.56392,60.7069],[10.56255,60.70771],[10.56069,60.70849],[10.55902,60.71004],[10.5582,60.71052],[10.55987,60.71368],[10.55953,60.71415],[10.56049,60.71443],[10.56031,60.71501],[10.55921,60.71508],[10.55804,60.71844],[10.55396,60.71876],[10.55265,60.71818],[10.54973,60.71933],[10.54779,60.71955],[10.54644,60.71938],[10.54482,60.7194],[10.54477,60.72049],[10.54549,60.72146],[10.5458,60.72366],[10.5454,60.72417]]]},"properties":{"_zoneType":"NO_NSM_SENSOR","type":"NO_NSM_SENSOR","name":"Brandalsmyra","identifier":"NSM:322","lowerLimit":"GND","authority":"Nasjonal sikkerhetsmyndighet (NSM)"}},
{"type":"Feature","geometry":{"type":"Polygon","coordinates":[[[10.61989,60.75042],[10.61775,60.75057],[10.61643,60.75047],[10.61292,60.74961],[10.61133,60.74937],[10.61031,60.74786],[10.60872,60.74801],[10.59724,60.74617],[10.59256,60.74396],[10.59157,60.7439],[10.58974,60.74225],[10.5857,60.73982],[10.58254,60.739],[10.5816,60.73583],[10.58905,60.73147],[10.59198,60.72953],[10.5966,60.72954],[10.60472,60.72989],[10.60545,60.73076],[10.60637,60.73083],[10.60701,60.72843],[10.60692,60.72792],[10.60943,60.72752],[10.61141,60.72751],[10.61196,60.72776],[10.61229,60.72897],[10.61281,60.72939],[10.61524,60.73013],[10.61432,60.73108],[10.61418,60.73179],[10.6125,60.7352],[10.61989,60.75042]]]},"properties":{"_zoneType":"NO_NSM_SENSOR","type":"NO_NSM_SENSOR","name":"Raufoss Industripark","identifier":"NSM:323","lowerLimit":"GND","authority":"Nasjonal sikkerhetsmyndighet (NSM)"}},
{"type":"Feature","geometry":{"type":"Polygon","coordinates":[[[18.94139,69.66095],[18.94439,69.66282],[18.94089,69.66327],[18.93784,69.66319],[18.9372,69.66295],[18.93635,69.66168],[18.94038,69.66155],[18.94139,69.66095]]]},"properties":{"_zoneType":"NO_NSM_SENSOR","type":"NO_NSM_SENSOR","name":"KSAT HQ","identifier":"NSM:0332","lowerLimit":"GND","authority":"Nasjonal sikkerhetsmyndighet (NSM)"}},
{"type":"Feature","geometry":{"type":"Polygon","coordinates":[[[10.76796,59.94746],[10.76729,59.94734],[10.76652,59.94653],[10.76692,59.94639],[10.7684,59.94685],[10.76796,59.94746]]]},"properties":{"_zoneType":"NO_NSM_SENSOR","type":"NO_NSM_SENSOR","name":"Nydalen Allé 35","identifier":"NSM:0333","lowerLimit":"GND","authority":"Nasjonal sikkerhetsmyndighet (NSM)"}},
{"type":"Feature","geometry":{"type":"Polygon","coordinates":[[[10.70611,59.93223],[10.70801,59.93176],[10.70824,59.93202],[10.70611,59.93223]]]},"properties":{"_zoneType":"NO_NSM_SENSOR","type":"NO_NSM_SENSOR","name":"Sørkedalsveien 27","identifier":"NSM:0334","lowerLimit":"GND","authority":"Nasjonal sikkerhetsmyndighet (NSM)"}},
{"type":"Feature","geometry":{"type":"Polygon","coordinates":[[[10.35273,60.0798],[10.33903,60.08601],[10.33525,60.0811],[10.34968,60.07582],[10.35308,60.07911],[10.35273,60.0798]]]},"properties":{"_zoneType":"NO_NSM_SENSOR","type":"NO_NSM_SENSOR","name":"Haga","identifier":"NSM:0336","lowerLimit":"GND","authority":"Nasjonal sikkerhetsmyndighet (NSM)"}}
]}