{"type":"FeatureCollection","features":[{"type":"Feature","geometry":{"type":"Polygon","coordinates":[[[18.83111,48.74705],[18.83087,48.74705],[18.83064,48.74704],[18.8304,48.74704],[18.83016,48.74703],[18.82993,48.74701],[18.82969,48.747],[18.82945,48.74698],[18.82922,48.74696],[18.82898,48.74694],[18.82875,48.74691],[18.82852,48.74688],[18.82828,48.74685],[18.82805,48.74682],[18.82782,48.74678],[18.82759,48.74674],[18.82736,48.7467],[18.82714,48.74665],[18.82691,48.74661],[18.82668,48.74656],[18.82646,48.74651],[18.82624,48.74645],[18.82602,48.74639],[18.8258,48.74633],[18.82558,48.74627],[18.82536,48.74621],[18.82515,48.74614],[18.82494,48.74607],[18.82473,48.746],[18.82452,48.74592],[18.82431,48.74584],[18.82411,48.74576],[18.82391,48.74568],[18.82371,48.7456],[18.82351,48.74551],[18.82331,48.74542],[18.82312,48.74533],[18.82293,48.74524],[18.82274,48.74514],[18.82255,48.74504],[18.82237,48.74494],[18.82219,48.74484],[18.82201,48.74474],[18.82184,48.74463],[18.82167,48.74452],[18.8215,48.74441],[18.82133,48.7443],[18.82117,48.74419],[18.82101,48.74407],[18.82085,48.74395],[18.8207,48.74384],[18.82054,48.74371],[18.8204,48.74359],[18.82025,48.74347],[18.82011,48.74334],[18.81997,48.74321],[18.81984,48.74308],[18.81971,48.74295],[18.81958,48.74282],[18.81946,48.74269],[18.81934,48.74255],[18.81922,48.74241],[18.81911,48.74228],[18.819,48.74214],[18.81889,48.742],[18.81879,48.74186],[18.81869,48.74171],[18.8186,48.74157],[18.8185,48.74142],[18.81842,48.74128],[18.81833,48.74113],[18.81826,48.74098],[18.81818,48.74083],[18.81811,48.74068],[18.81804,48.74053],[18.81798,48.74038],[18.81792,48.74023],[18.81786,48.74008],[18.81781,48.73992],[18.81777,48.73977],[18.81772,48.73962],[18.81768,48.73946],[18.81765,48.73931],[18.81762,48.73915],[18.81759,48.73899],[18.81757,48.73884],[18.81755,48.73868],[18.81753,48.73853],[18.81752,48.73837],[18.81752,48.73821],[18.81752,48.73805],[18.81752,48.7379],[18.81752,48.73774],[18.81753,48.73758],[18.81755,48.73743],[18.81757,48.73727],[18.81759,48.73711],[18.81762,48.73696],[18.81765,48.7368],[18.81768,48.73665],[18.81772,48.73649],[18.81777,48.73634],[18.81781,48.73619],[18.81786,48.73603],[18.81792,48.73588],[18.81798,48.73573],[18.81804,48.73558],[18.81811,48.73543],[18.81818,48.73528],[18.81826,48.73513],[18.81834,48.73498],[18.81842,48.73483],[18.81851,48.73469],[18.8186,48.73454],[18.81869,48.7344],[18.81879,48.73425],[18.81889,48.73411],[18.819,48.73397],[18.81911,48.73383],[18.81922,48.7337],[18.81934,48.73356],[18.81946,48.73342],[18.81958,48.73329],[18.81971,48.73316],[18.81984,48.73303],[18.81998,48.7329],[18.82011,48.73277],[18.82025,48.73264],[18.8204,48.73252],[18.82055,48.7324],[18.8207,48.73227],[18.82085,48.73216],[18.82101,48.73204],[18.82117,48.73192],[18.82133,48.73181],[18.8215,48.7317],[18.82167,48.73159],[18.82184,48.73148],[18.82202,48.73137],[18.82219,48.73127],[18.82237,48.73117],[18.82256,48.73107],[18.82274,48.73097],[18.82293,48.73087],[18.82312,48.73078],[18.82331,48.73069],[18.82351,48.7306],[18.82371,48.73051],[18.82391,48.73043],[18.82411,48.73035],[18.82431,48.73027],[18.82452,48.73019],[18.82473,48.73012],[18.82494,48.73004],[18.82515,48.72997],[18.82537,48.72991],[18.82558,48.72984],[18.8258,48.72978],[18.82602,48.72972],[18.82624,48.72966],[18.82646,48.72961],[18.82669,48.72955],[18.82691,48.7295],[18.82714,48.72946],[18.82736,48.72941],[18.82759,48.72937],[18.82782,48.72933],[18.82805,48.72929],[18.82828,48.72926],[18.82852,48.72923],[18.82875,48.7292],[18.82898,48.72917],[18.82922,48.72915],[18.82945,48.72913],[18.82969,48.72911],[18.82993,48.7291],[18.83016,48.72909],[18.8304,48.72908],[18.83064,48.72907],[18.83087,48.72906],[18.83111,48.72906],[18.83135,48.72906],[18.83159,48.72907],[18.83182,48.72908],[18.83206,48.72909],[18.8323,48.7291],[18.83253,48.72911],[18.83277,48.72913],[18.833,48.72915],[18.83324,48.72917],[18.83347,48.7292],[18.8337,48.72923],[18.83394,48.72926],[18.83417,48.72929],[18.8344,48.72933],[18.83463,48.72937],[18.83486,48.72941],[18.83509,48.72946],[18.83531,48.7295],[18.83554,48.72955],[18.83576,48.72961],[18.83598,48.72966],[18.8362,48.72972],[18.83642,48.72978],[18.83664,48.72984],[18.83686,48.72991],[18.83707,48.72997],[18.83728,48.73004],[18.83749,48.73012],[18.8377,48.73019],[18.83791,48.73027],[18.83811,48.73035],[18.83831,48.73043],[18.83851,48.73051],[18.83871,48.7306],[18.83891,48.73069],[18.8391,48.73078],[18.83929,48.73087],[18.83948,48.73097],[18.83967,48.73107],[18.83985,48.73117],[18.84003,48.73127],[18.84021,48.73137],[18.84038,48.73148],[18.84055,48.73159],[18.84072,48.7317],[18.84089,48.73181],[18.84105,48.73192],[18.84121,48.73204],[18.84137,48.73216],[18.84152,48.73227],[18.84168,48.7324],[18.84182,48.73252],[18.84197,48.73264],[18.84211,48.73277],[18.84225,48.7329],[18.84238,48.73303],[18.84251,48.73316],[18.84264,48.73329],[18.84276,48.73342],[18.84288,48.73356],[18.843,48.7337],[18.84311,48.73383],[18.84322,48.73397],[18.84333,48.73411],[18.84343,48.73425],[18.84353,48.7344],[18.84362,48.73454],[18.84372,48.73469],[18.8438,48.73483],[18.84389,48.73498],[18.84396,48.73513],[18.84404,48.73528],[18.84411,48.73543],[18.84418,48.73558],[18.84424,48.73573],[18.8443,48.73588],[18.84436,48.73603],[18.84441,48.73619],[18.84446,48.73634],[18.8445,48.73649],[18.84454,48.73665],[18.84457,48.7368],[18.8446,48.73696],[18.84463,48.73711],[18.84465,48.73727],[18.84467,48.73743],[18.84469,48.73758],[18.8447,48.73774],[18.8447,48.7379],[18.84471,48.73805],[18.8447,48.73821],[18.8447,48.73837],[18.84469,48.73853],[18.84467,48.73868],[18.84465,48.73884],[18.84463,48.73899],[18.84461,48.73915],[18.84457,48.73931],[18.84454,48.73946],[18.8445,48.73962],[18.84446,48.73977],[18.84441,48.73992],[18.84436,48.74008],[18.8443,48.74023],[18.84424,48.74038],[18.84418,48.74053],[18.84411,48.74068],[18.84404,48.74083],[18.84397,48.74098],[18.84389,48.74113],[18.8438,48.74128],[18.84372,48.74142],[18.84363,48.74157],[18.84353,48.74171],[18.84343,48.74186],[18.84333,48.742],[18.84323,48.74214],[18.84312,48.74228],[18.843,48.74241],[18.84289,48.74255],[18.84277,48.74269],[18.84264,48.74282],[18.84251,48.74295],[18.84238,48.74308],[18.84225,48.74321],[18.84211,48.74334],[18.84197,48.74347],[18.84183,48.74359],[18.84168,48.74371],[18.84153,48.74384],[18.84137,48.74395],[18.84122,48.74407],[18.84106,48.74419],[18.84089,48.7443],[18.84073,48.74441],[18.84056,48.74452],[18.84038,48.74463],[18.84021,48.74474],[18.84003,48.74484],[18.83985,48.74494],[18.83967,48.74504],[18.83948,48.74514],[18.83929,48.74524],[18.8391,48.74533],[18.83891,48.74542],[18.83871,48.74551],[18.83852,48.7456],[18.83832,48.74568],[18.83811,48.74576],[18.83791,48.74584],[18.8377,48.74592],[18.83749,48.746],[18.83728,48.74607],[18.83707,48.74614],[18.83686,48.74621],[18.83664,48.74627],[18.83642,48.74633],[18.8362,48.74639],[18.83598,48.74645],[18.83576,48.74651],[18.83554,48.74656],[18.83531,48.74661],[18.83509,48.74665],[18.83486,48.7467],[18.83463,48.74674],[18.8344,48.74678],[18.83417,48.74682],[18.83394,48.74685],[18.83371,48.74688],[18.83347,48.74691],[18.83324,48.74694],[18.833,48.74696],[18.83277,48.74698],[18.83253,48.747],[18.8323,48.74701],[18.83206,48.74703],[18.83182,48.74704],[18.83159,48.74704],[18.83135,48.74705],[18.83111,48.74705]]]},"properties":{"_zoneType":"D","name":"Sklené","identifier":"LZD1","lowerLimit":"GND","upperLimit":"6500","message":"Aktivovaný:\nMON-THU:\n0500-1100 (0400-1000)\n1200-1700 (1100-1600)\nFRI:\n0500-1100 (0400-1000)\n1200-1300 (1100-1200)\nEXC HOL\nLikvidácia vojenskej nevybuchnutej munície.\nOdporúčané opatrenie: vyhnúť sa\nActive:\nMON-THU:\n0500-1100 (0400-1000)\n1200-1700 (1100-1600)\nFRI:\n0500-1100 (0400-","authority":"LPS SR, š. p."}},{"type":"Feature","geometry":{"type":"Polygon","coordinates":[[[17.19389,48.11075],[17.19382,48.11075],[17.19375,48.11075],[17.19368,48.11075],[17.19361,48.11075],[17.19354,48.11074],[17.19347,48.11074],[17.1934,48.11073],[17.19333,48.11073],[17.19326,48.11072],[17.19319,48.11071],[17.19312,48.1107],[17.19305,48.11069],[17.19298,48.11068],[17.19291,48.11067],[17.19285,48.11066],[17.19278,48.11065],[17.19271,48.11064],[17.19264,48.11062],[17.19258,48.11061],[17.19251,48.11059],[17.19245,48.11057],[17.19238,48.11056],[17.19231,48.11054],[17.19225,48.11052],[17.19219,48.1105],[17.19212,48.11048],[17.19206,48.11046],[17.192,48.11044],[17.19194,48.11042],[17.19187,48.11039],[17.19181,48.11037],[17.19175,48.11034],[17.19169,48.11032],[17.19164,48.11029],[17.19158,48.11027],[17.19152,48.11024],[17.19146,48.11021],[17.19141,48.11018],[17.19135,48.11015],[17.1913,48.11012],[17.19125,48.11009],[17.19119,48.11006],[17.19114,48.11003],[17.19109,48.11],[17.19104,48.10996],[17.19099,48.10993],[17.19094,48.1099],[17.1909,48.10986],[17.19085,48.10983],[17.1908,48.10979],[17.19076,48.10975],[17.19071,48.10972],[17.19067,48.10968],[17.19063,48.10964],[17.19059,48.1096],[17.19055,48.10956],[17.19051,48.10952],[17.19047,48.10949],[17.19044,48.10945],[17.1904,48.1094],[17.19037,48.10936],[17.19033,48.10932],[17.1903,48.10928],[17.19027,48.10924],[17.19024,48.1092],[17.19021,48.10915],[17.19018,48.10911],[17.19015,48.10907],[17.19013,48.10902],[17.1901,48.10898],[17.19008,48.10893],[17.19006,48.10889],[17.19004,48.10884],[17.19002,48.1088],[17.19,48.10875],[17.18998,48.10871],[17.18996,48.10866],[17.18995,48.10862],[17.18993,48.10857],[17.18992,48.10852],[17.18991,48.10848],[17.1899,48.10843],[17.18989,48.10838],[17.18988,48.10834],[17.18988,48.10829],[17.18987,48.10824],[17.18987,48.1082],[17.18986,48.10815],[17.18986,48.1081],[17.18986,48.10806],[17.18986,48.10801],[17.18986,48.10796],[17.18987,48.10791],[17.18987,48.10787],[17.18988,48.10782],[17.18988,48.10777],[17.18989,48.10773],[17.1899,48.10768],[17.18991,48.10763],[17.18992,48.10759],[17.18993,48.10754],[17.18995,48.10749],[17.18996,48.10745],[17.18998,48.1074],[17.19,48.10736],[17.19002,48.10731],[17.19004,48.10727],[17.19006,48.10722],[17.19008,48.10718],[17.1901,48.10713],[17.19013,48.10709],[17.19015,48.10704],[17.19018,48.107],[17.19021,48.10696],[17.19024,48.10692],[17.19027,48.10687],[17.1903,48.10683],[17.19033,48.10679],[17.19037,48.10675],[17.1904,48.10671],[17.19044,48.10667],[17.19047,48.10663],[17.19051,48.10659],[17.19055,48.10655],[17.19059,48.10651],[17.19063,48.10647],[17.19067,48.10643],[17.19071,48.10639],[17.19076,48.10636],[17.1908,48.10632],[17.19085,48.10629],[17.1909,48.10625],[17.19094,48.10622],[17.19099,48.10618],[17.19104,48.10615],[17.19109,48.10611],[17.19114,48.10608],[17.19119,48.10605],[17.19125,48.10602],[17.1913,48.10599],[17.19135,48.10596],[17.19141,48.10593],[17.19146,48.1059],[17.19152,48.10587],[17.19158,48.10585],[17.19164,48.10582],[17.19169,48.10579],[17.19175,48.10577],[17.19181,48.10574],[17.19187,48.10572],[17.19194,48.1057],[17.192,48.10567],[17.19206,48.10565],[17.19212,48.10563],[17.19219,48.10561],[17.19225,48.10559],[17.19231,48.10557],[17.19238,48.10555],[17.19245,48.10554],[17.19251,48.10552],[17.19258,48.1055],[17.19264,48.10549],[17.19271,48.10548],[17.19278,48.10546],[17.19285,48.10545],[17.19291,48.10544],[17.19298,48.10543],[17.19305,48.10542],[17.19312,48.10541],[17.19319,48.1054],[17.19326,48.10539],[17.19333,48.10538],[17.1934,48.10538],[17.19347,48.10537],[17.19354,48.10537],[17.19361,48.10536],[17.19368,48.10536],[17.19375,48.10536],[17.19382,48.10536],[17.19389,48.10536],[17.19396,48.10536],[17.19403,48.10536],[17.1941,48.10536],[17.19417,48.10536],[17.19424,48.10537],[17.19431,48.10537],[17.19438,48.10538],[17.19445,48.10538],[17.19452,48.10539],[17.19459,48.1054],[17.19466,48.10541],[17.19473,48.10542],[17.1948,48.10543],[17.19486,48.10544],[17.19493,48.10545],[17.195,48.10546],[17.19507,48.10548],[17.19513,48.10549],[17.1952,48.1055],[17.19527,48.10552],[17.19533,48.10554],[17.1954,48.10555],[17.19546,48.10557],[17.19553,48.10559],[17.19559,48.10561],[17.19565,48.10563],[17.19572,48.10565],[17.19578,48.10567],[17.19584,48.1057],[17.1959,48.10572],[17.19596,48.10574],[17.19602,48.10577],[17.19608,48.10579],[17.19614,48.10582],[17.1962,48.10585],[17.19626,48.10587],[17.19631,48.1059],[17.19637,48.10593],[17.19642,48.10596],[17.19648,48.10599],[17.19653,48.10602],[17.19658,48.10605],[17.19664,48.10608],[17.19669,48.10611],[17.19674,48.10615],[17.19679,48.10618],[17.19684,48.10622],[17.19688,48.10625],[17.19693,48.10629],[17.19697,48.10632],[17.19702,48.10636],[17.19706,48.10639],[17.19711,48.10643],[17.19715,48.10647],[17.19719,48.10651],[17.19723,48.10655],[17.19727,48.10659],[17.19731,48.10663],[17.19734,48.10667],[17.19738,48.10671],[17.19741,48.10675],[17.19745,48.10679],[17.19748,48.10683],[17.19751,48.10687],[17.19754,48.10692],[17.19757,48.10696],[17.1976,48.107],[17.19762,48.10704],[17.19765,48.10709],[17.19767,48.10713],[17.1977,48.10718],[17.19772,48.10722],[17.19774,48.10727],[17.19776,48.10731],[17.19778,48.10736],[17.1978,48.1074],[17.19781,48.10745],[17.19783,48.10749],[17.19784,48.10754],[17.19786,48.10759],[17.19787,48.10763],[17.19788,48.10768],[17.19789,48.10773],[17.1979,48.10777],[17.1979,48.10782],[17.19791,48.10787],[17.19791,48.10791],[17.19791,48.10796],[17.19792,48.10801],[17.19792,48.10806],[17.19792,48.1081],[17.19791,48.10815],[17.19791,48.1082],[17.19791,48.10824],[17.1979,48.10829],[17.1979,48.10834],[17.19789,48.10838],[17.19788,48.10843],[17.19787,48.10848],[17.19786,48.10852],[17.19784,48.10857],[17.19783,48.10862],[17.19781,48.10866],[17.1978,48.10871],[17.19778,48.10875],[17.19776,48.1088],[17.19774,48.10884],[17.19772,48.10889],[17.1977,48.10893],[17.19767,48.10898],[17.19765,48.10902],[17.19762,48.10907],[17.1976,48.10911],[17.19757,48.10915],[17.19754,48.1092],[17.19751,48.10924],[17.19748,48.10928],[17.19745,48.10932],[17.19741,48.10936],[17.19738,48.1094],[17.19734,48.10945],[17.19731,48.10949],[17.19727,48.10952],[17.19723,48.10956],[17.19719,48.1096],[17.19715,48.10964],[17.19711,48.10968],[17.19706,48.10972],[17.19702,48.10975],[17.19698,48.10979],[17.19693,48.10983],[17.19688,48.10986],[17.19684,48.1099],[17.19679,48.10993],[17.19674,48.10996],[17.19669,48.11],[17.19664,48.11003],[17.19658,48.11006],[17.19653,48.11009],[17.19648,48.11012],[17.19642,48.11015],[17.19637,48.11018],[17.19631,48.11021],[17.19626,48.11024],[17.1962,48.11027],[17.19614,48.11029],[17.19608,48.11032],[17.19602,48.11034],[17.19596,48.11037],[17.1959,48.11039],[17.19584,48.11042],[17.19578,48.11044],[17.19572,48.11046],[17.19565,48.11048],[17.19559,48.1105],[17.19553,48.11052],[17.19546,48.11054],[17.1954,48.11056],[17.19533,48.11057],[17.19527,48.11059],[17.1952,48.11061],[17.19513,48.11062],[17.19507,48.11064],[17.195,48.11065],[17.19493,48.11066],[17.19486,48.11067],[17.1948,48.11068],[17.19473,48.11069],[17.19466,48.1107],[17.19459,48.11071],[17.19452,48.11072],[17.19445,48.11073],[17.19438,48.11073],[17.19431,48.11074],[17.19424,48.11074],[17.19417,48.11075],[17.1941,48.11075],[17.19403,48.11075],[17.19396,48.11075],[17.19389,48.11075]]]},"properties":{"_zoneType":"D","name":"Slovnaft","identifier":"LZD2","lowerLimit":"GND","upperLimit":"1500","message":"Aktivovaný: H24\nRopná rafinéria. Vypúšťanie plynov. Nebezpečenstvo výbuchu.\nKvôli vyhnutiu sa nebezpečnému priestoru sa všetkým štandardným prístrojovým odletom z RWY 22 AD LZIB odporúča dodržiavať nominálnu trať.\nActive: H24\nPetroleum refinery. Gas releasing. Risk of explosion.\n","authority":"LPS SR, š. p."}},{"type":"Feature","geometry":{"type":"Polygon","coordinates":[[[17.17417,48.33417],[17.16055,48.33012],[17.14693,48.32608],[17.13332,48.32203],[17.11971,48.31799],[17.1061,48.31394],[17.09249,48.30989],[17.07889,48.30583],[17.08972,48.28944],[17.10337,48.2935],[17.11701,48.29755],[17.13066,48.3016],[17.14431,48.30564],[17.15797,48.30969],[17.17162,48.31374],[17.18528,48.31778],[17.17417,48.33417]]]},"properties":{"_zoneType":"RSTA","name":"Turecký Vrch Viktor","identifier":"LZR223","lowerLimit":"GND","upperLimit":"FL 215","message":"AMC spravovaný priestor\nPublikovaná doba činnosti: MON-FRI (EXC HOL) 0400-2300 (0300-2200)\nPlánovaná doba činnosti AVBL v správe AUP/UUP.\nSkutočná doba činnosti AVBL od príslušného stanovišťa ATS.\nStreľby.\nAMC-manageable area\nPublished time of activity: MON-FRI (EXC HOL) 0400-230","authority":"LPS SR, š. p."}},{"type":"Feature","geometry":{"type":"Polygon","coordinates":[[[19.13528,48.80833],[19.12417,48.80292],[19.11306,48.79752],[19.10195,48.7921],[19.09085,48.78669],[19.07974,48.78128],[19.06864,48.77587],[19.05755,48.77045],[19.04645,48.76503],[19.03536,48.75962],[19.02427,48.7542],[19.01318,48.74878],[19.0021,48.74336],[18.99101,48.73794],[18.97993,48.73252],[18.96885,48.72709],[18.95778,48.72167],[18.95732,48.71232],[18.95687,48.70298],[18.95641,48.69364],[18.95596,48.68429],[18.9555,48.67495],[18.95505,48.66561],[18.95459,48.65626],[18.95414,48.64692],[18.95369,48.63758],[18.95323,48.62823],[18.95278,48.61889],[18.96161,48.61169],[18.97044,48.6045],[18.97927,48.5973],[18.9881,48.5901],[18.99692,48.58291],[19.00574,48.57571],[19.01456,48.56851],[19.02337,48.56131],[19.03219,48.55411],[19.041,48.5469],[19.04981,48.5397],[19.05861,48.5325],[19.05797,48.52333],[19.05733,48.51417],[19.05669,48.505],[19.05605,48.49583],[19.05541,48.48667],[19.05478,48.4775],[19.05414,48.46833],[19.0535,48.45917],[19.05286,48.45],[19.05222,48.44083],[19.06592,48.44052],[19.07962,48.44021],[19.09331,48.4399],[19.10701,48.43958],[19.12071,48.43926],[19.13441,48.43894],[19.1481,48.43862],[19.1618,48.4383],[19.17549,48.43798],[19.18919,48.43765],[19.20289,48.43733],[19.21658,48.437],[19.23028,48.43667],[19.23075,48.44586],[19.23122,48.45506],[19.23169,48.46425],[19.23216,48.47344],[19.23264,48.48264],[19.23311,48.49183],[19.23358,48.50103],[19.23405,48.51022],[19.23453,48.51942],[19.235,48.52861],[19.24463,48.53548],[19.25427,48.54236],[19.26391,48.54923],[19.27355,48.5561],[19.28319,48.56297],[19.29284,48.56984],[19.30249,48.5767],[19.31214,48.58357],[19.32179,48.59044],[19.33145,48.5973],[19.34111,48.60417],[19.3416,48.61322],[19.34209,48.62227],[19.34258,48.63133],[19.34307,48.64038],[19.34357,48.64943],[19.34406,48.65849],[19.34455,48.66754],[19.34504,48.67659],[19.34553,48.68564],[19.34602,48.6947],[19.34652,48.70375],[19.34701,48.7128],[19.3475,48.72186],[19.348,48.73091],[19.34849,48.73996],[19.34898,48.74902],[19.34947,48.75807],[19.34997,48.76712],[19.35046,48.77617],[19.35096,48.78523],[19.35145,48.79428],[19.35194,48.80333],[19.3375,48.80368],[19.32306,48.80402],[19.30861,48.80437],[19.29417,48.80471],[19.27973,48.80505],[19.26528,48.80538],[19.25084,48.80572],[19.23639,48.80605],[19.22195,48.80638],[19.2075,48.80671],[19.19306,48.80704],[19.17861,48.80737],[19.16417,48.80769],[19.14972,48.80801],[19.13528,48.80833]]]},"properties":{"_zoneType":"RSTA","name":"R225","identifier":"LZR225","lowerLimit":"GND","upperLimit":"8000","message":"Aktívny: H24\nVstup len so súhlasom stanovišťa MIL TWR Sliač. Súhlas musí byť získaný minimálne 3 minúty vopred na SLIAČ VEŽA FREQ 122,905.\nTrieda vzdušného priestoru: G\nStanovište poskytujúce ATS: FIC Bratislava\nVýcvik vojenského letectva.\nActive: H24\nEntry only after approval fr","authority":"LPS SR, š. p."}},{"type":"Feature","geometry":{"type":"Polygon","coordinates":[[[22.06,48.96],[22.05134,48.95214],[22.04268,48.94429],[22.03403,48.93643],[22.02538,48.92858],[22.01673,48.92072],[22.00809,48.91286],[21.99944,48.905],[22.01389,48.9033],[22.02834,48.90161],[22.04279,48.89991],[22.05723,48.89821],[22.07167,48.89651],[22.08612,48.8948],[22.10056,48.8931],[22.115,48.89139],[22.12158,48.89929],[22.12816,48.90718],[22.13475,48.91508],[22.14134,48.92298],[22.14793,48.93087],[22.15452,48.93877],[22.16111,48.94667],[22.14667,48.94858],[22.13223,48.95049],[22.11778,48.95239],[22.10334,48.9543],[22.08889,48.9562],[22.07445,48.9581],[22.06,48.96]]]},"properties":{"_zoneType":"RSTA","name":"R28","identifier":"LZR28","lowerLimit":"GND","upperLimit":"FL 135","message":"AMC spravovaný priestor\nPublikovaná doba činnosti: MON-FRI (EXC HOL) 0400-2259 (0300-2159)\nPlánovaná doba činnosti AVBL v správe AUP/UUP.\nSkutočná doba činnosti AVBL od príslušného stanovišťa ATS.\nStreľby.\nAMC-manageable area\nPublished time of activity: MON-FRI (EXC HOL) 0400-225","authority":"LPS SR, š. p."}},{"type":"Feature","geometry":{"type":"Polygon","coordinates":[[[17.13194,48.58834],[17.12778,48.57845],[17.12361,48.56857],[17.11944,48.55869],[17.11527,48.54881],[17.1111,48.53893],[17.10694,48.52905],[17.10278,48.51917],[17.10277,48.51924],[17.10162,48.51917],[17.09857,48.51895],[17.09553,48.51871],[17.09249,48.51842],[17.08947,48.5181],[17.08645,48.51774],[17.08344,48.51735],[17.08045,48.51692],[17.07746,48.51646],[17.07449,48.51597],[17.07153,48.51544],[17.06858,48.51487],[17.06565,48.51427],[17.06274,48.51364],[17.05984,48.51298],[17.05697,48.51228],[17.05411,48.51154],[17.05127,48.51078],[17.04845,48.50998],[17.04565,48.50915],[17.04288,48.50828],[17.04013,48.50739],[17.0374,48.50646],[17.0347,48.5055],[17.03202,48.50451],[17.02937,48.50348],[17.02675,48.50243],[17.02415,48.50135],[17.02159,48.50024],[17.01905,48.49909],[17.01655,48.49792],[17.01407,48.49673],[17.01163,48.49549],[17.00922,48.49424],[17.00684,48.49295],[17.0045,48.49164],[17.0022,48.4903],[16.99992,48.48894],[16.99769,48.48754],[16.99549,48.48612],[16.99333,48.48468],[16.99121,48.48321],[16.98913,48.48172],[16.98708,48.4802],[16.98508,48.47866],[16.98312,48.4771],[16.9812,48.47551],[16.97932,48.47391],[16.97748,48.47228],[16.97569,48.47062],[16.97394,48.46895],[16.97223,48.46726],[16.97058,48.46555],[16.96896,48.46382],[16.96739,48.46207],[16.96587,48.46031],[16.96439,48.45852],[16.96296,48.45672],[16.96158,48.4549],[16.96025,48.45307],[16.95896,48.45123],[16.95772,48.44936],[16.95654,48.44748],[16.9554,48.4456],[16.95431,48.44369],[16.95328,48.44178],[16.95229,48.43985],[16.95135,48.43791],[16.95046,48.43596],[16.94963,48.434],[16.94885,48.43204],[16.94812,48.43006],[16.94744,48.42807],[16.94681,48.42608],[16.94624,48.42408],[16.94571,48.42208],[16.94525,48.42006],[16.94483,48.41804],[16.94447,48.41602],[16.94416,48.414],[16.9439,48.41197],[16.9437,48.40994],[16.94355,48.4079],[16.94345,48.40587],[16.94341,48.40383],[16.94342,48.4018],[16.94348,48.39976],[16.9436,48.39773],[16.94377,48.39569],[16.94399,48.39366],[16.94427,48.39163],[16.9446,48.38961],[16.94498,48.38759],[16.94541,48.38557],[16.9459,48.38356],[16.94644,48.38156],[16.94703,48.37956],[16.94768,48.37757],[16.94838,48.37559],[16.94913,48.37362],[16.94993,48.37165],[16.95078,48.3697],[16.95168,48.36775],[16.95263,48.36582],[16.95363,48.36389],[16.95469,48.36198],[16.95579,48.36008],[16.95695,48.3582],[16.95815,48.35633],[16.9594,48.35447],[16.9607,48.35262],[16.96205,48.3508],[16.96344,48.34899],[16.96488,48.34719],[16.96637,48.34541],[16.96791,48.34365],[16.96949,48.34191],[16.97111,48.34019],[16.97278,48.33848],[16.9745,48.3368],[16.97626,48.33513],[16.97806,48.33349],[16.97991,48.33187],[16.98179,48.33026],[16.98372,48.32868],[16.98569,48.32713],[16.9877,48.3256],[16.98975,48.32409],[16.99183,48.3226],[16.99396,48.32114],[16.99613,48.3197],[16.99833,48.31829],[17.00056,48.31691],[17.00284,48.31555],[17.00515,48.31422],[17.00749,48.31291],[17.00987,48.31164],[17.01228,48.31038],[17.01472,48.30917],[17.02954,48.30686],[17.04436,48.30454],[17.05917,48.30222],[17.07329,48.30309],[17.0874,48.30395],[17.10152,48.30482],[17.11564,48.30568],[17.12976,48.30654],[17.14388,48.30739],[17.158,48.30825],[17.17212,48.3091],[17.18624,48.30995],[17.20037,48.3108],[17.21449,48.31166],[17.22861,48.3125],[17.22876,48.31238],[17.22987,48.31299],[17.23221,48.31429],[17.23452,48.31563],[17.23679,48.31699],[17.23903,48.31838],[17.24123,48.31979],[17.24339,48.32123],[17.24551,48.32269],[17.2476,48.32417],[17.24965,48.32569],[17.25165,48.32722],[17.25362,48.32878],[17.25554,48.33036],[17.25743,48.33196],[17.25927,48.33359],[17.26107,48.33523],[17.26283,48.3369],[17.26454,48.33858],[17.26621,48.34029],[17.26783,48.34201],[17.26941,48.34376],[17.27094,48.34552],[17.27242,48.3473],[17.27387,48.34909],[17.27526,48.3509],[17.2766,48.35273],[17.2779,48.35457],[17.27915,48.35644],[17.28035,48.3583],[17.2815,48.36019],[17.2826,48.36209],[17.28365,48.364],[17.28465,48.36593],[17.2856,48.36786],[17.2865,48.36981],[17.28735,48.37177],[17.28815,48.37373],[17.28889,48.37571],[17.28958,48.37769],[17.29023,48.37968],[17.29082,48.38168],[17.29135,48.38368],[17.29184,48.38569],[17.29227,48.38771],[17.29265,48.38973],[17.29297,48.39175],[17.29325,48.39378],[17.29347,48.39581],[17.29363,48.39784],[17.29375,48.39988],[17.29381,48.40191],[17.29382,48.40395],[17.29377,48.40599],[17.29367,48.40802],[17.29352,48.41006],[17.29331,48.41209],[17.29305,48.41412],[17.29274,48.41614],[17.29237,48.41816],[17.29195,48.42018],[17.29148,48.42219],[17.29095,48.4242],[17.29038,48.4262],[17.28975,48.42819],[17.28906,48.43017],[17.28833,48.43215],[17.28755,48.43412],[17.28671,48.43608],[17.28582,48.43802],[17.28488,48.43996],[17.28389,48.44189],[17.28285,48.4438],[17.28176,48.44571],[17.28062,48.4476],[17.27943,48.44947],[17.27819,48.45133],[17.2769,48.45318],[17.27556,48.45501],[17.27418,48.45683],[17.27275,48.45863],[17.27127,48.46041],[17.26974,48.46218],[17.26817,48.46392],[17.26655,48.46565],[17.26489,48.46736],[17.26318,48.46905],[17.26143,48.47072],[17.25964,48.47237],[17.2578,48.474],[17.25592,48.47561],[17.25399,48.47719],[17.25203,48.47875],[17.25002,48.48029],[17.24955,48.48065],[17.2475,48.48216],[17.24541,48.48364],[17.24327,48.4851],[17.2411,48.48654],[17.23889,48.48795],[17.23665,48.48933],[17.23436,48.49069],[17.23205,48.49203],[17.23195,48.49195],[17.236,48.50059],[17.24006,48.50924],[17.24412,48.51789],[17.24819,48.52653],[17.25225,48.53518],[17.25631,48.54382],[17.26038,48.55247],[17.26444,48.56111],[17.2512,48.56384],[17.23796,48.56657],[17.22471,48.5693],[17.21146,48.57202],[17.19821,48.57474],[17.18496,48.57746],[17.17171,48.58018],[17.15846,48.5829],[17.1452,48.58562],[17.13194,48.58834]]]},"properties":{"_zoneType":"RSTA","name":"R314","identifier":"LZR314","lowerLimit":"GND","upperLimit":"5000","message":"Aktívny: H24\nVstup len so súhlasom stanovišťa MIL TWR Malacky.\nSúhlas musí byť získaný minimálne 3 minúty vopred na MALACKY VEŽA FREQ 129,580.\nPovinné vybavenie odpovedačom SSR.\nTrieda vzdušného priestoru: G\nStanovište poskytujúce ATS: FIC Bratislava\nVýcvik vojenského letectva.\nA","authority":"LPS SR, š. p."}},{"type":"Feature","geometry":{"type":"Polygon","coordinates":[[[21.45,49.16389],[21.43612,49.16213],[21.42225,49.16038],[21.40838,49.15862],[21.3945,49.15686],[21.38063,49.1551],[21.36676,49.15333],[21.35289,49.15157],[21.33902,49.1498],[21.32516,49.14803],[21.31129,49.14626],[21.29742,49.14449],[21.28356,49.14272],[21.2697,49.14094],[21.25583,49.13917],[21.25582,49.13923],[21.25383,49.13895],[21.25137,49.13859],[21.24891,49.13819],[21.24647,49.13777],[21.24404,49.13732],[21.24162,49.13684],[21.23921,49.13633],[21.23682,49.1358],[21.23444,49.13524],[21.23208,49.13465],[21.22973,49.13404],[21.2274,49.1334],[21.22509,49.13273],[21.2228,49.13203],[21.22052,49.13131],[21.21827,49.13056],[21.21603,49.12979],[21.21382,49.12899],[21.21163,49.12817],[21.20946,49.12732],[21.20731,49.12645],[21.20519,49.12555],[21.20309,49.12463],[21.20101,49.12368],[21.19896,49.12271],[21.19694,49.12172],[21.19495,49.1207],[21.19298,49.11966],[21.19104,49.1186],[21.18913,49.11752],[21.18724,49.11641],[21.18539,49.11529],[21.18357,49.11414],[21.18178,49.11297],[21.18002,49.11178],[21.17829,49.11057],[21.17659,49.10934],[21.17493,49.1081],[21.1733,49.10683],[21.17171,49.10555],[21.17015,49.10424],[21.16862,49.10292],[21.16713,49.10158],[21.16567,49.10023],[21.16426,49.09886],[21.16288,49.09747],[21.16153,49.09607],[21.16022,49.09465],[21.15896,49.09321],[21.15773,49.09177],[21.15653,49.09031],[21.15538,49.08883],[21.15427,49.08734],[21.1532,49.08584],[21.15216,49.08433],[21.15117,49.08281],[21.15022,49.08127],[21.14931,49.07972],[21.14844,49.07817],[21.14761,49.0766],[21.14682,49.07503],[21.14608,49.07344],[21.14537,49.07185],[21.14471,49.07025],[21.1441,49.06864],[21.14352,49.06703],[21.14299,49.06541],[21.1425,49.06378],[21.14206,49.06215],[21.14166,49.06051],[21.1413,49.05887],[21.14099,49.05723],[21.14071,49.05558],[21.14049,49.05393],[21.14031,49.05227],[21.14017,49.05062],[21.14007,49.04896],[21.14002,49.0473],[21.14001,49.04565],[21.14005,49.04399],[21.14013,49.04233],[21.14026,49.04068],[21.14043,49.03902],[21.14064,49.03737],[21.1409,49.03572],[21.1412,49.03408],[21.14154,49.03243],[21.14193,49.0308],[21.14236,49.02916],[21.14283,49.02753],[21.14335,49.02591],[21.14391,49.02429],[21.14451,49.02269],[21.14516,49.02108],[21.14585,49.01949],[21.14658,49.0179],[21.14735,49.01632],[21.14816,49.01475],[21.14902,49.01319],[21.14992,49.01165],[21.15,49.01167],[21.15648,49.00083],[21.16297,48.99],[21.16944,48.97917],[21.17545,48.96917],[21.18145,48.95917],[21.18745,48.94917],[21.19345,48.93917],[21.19944,48.92917],[21.2136,48.92701],[21.22776,48.92486],[21.24191,48.9227],[21.25606,48.92054],[21.27022,48.91838],[21.28437,48.91621],[21.29852,48.91405],[21.31266,48.91188],[21.32681,48.90971],[21.34096,48.90754],[21.3551,48.90537],[21.36924,48.9032],[21.38339,48.90102],[21.39753,48.89885],[21.41167,48.89667],[21.41855,48.90472],[21.42544,48.91278],[21.43233,48.92083],[21.43922,48.92889],[21.44611,48.93694],[21.45305,48.94505],[21.46,48.95316],[21.46695,48.96127],[21.4739,48.96937],[21.48085,48.97748],[21.4878,48.98559],[21.49476,48.99369],[21.50172,49.0018],[21.50868,49.0099],[21.51564,49.01801],[21.52261,49.02611],[21.52957,49.03421],[21.53654,49.04232],[21.54351,49.05042],[21.55049,49.05852],[21.55747,49.06662],[21.56444,49.07472],[21.55492,49.08216],[21.5454,49.08959],[21.53587,49.09702],[21.52634,49.10446],[21.51681,49.11189],[21.50727,49.11932],[21.49774,49.12675],[21.48819,49.13418],[21.47865,49.14161],[21.4691,49.14904],[21.45955,49.15646],[21.45,49.16389]]]},"properties":{"_zoneType":"RSTA","name":"R315","identifier":"LZR315","lowerLimit":"GND","upperLimit":"5000","message":"Aktívny: H24\nVstup len so súhlasom stanovišťa MIL TWR Prešov.\nSúhlas musí byť získaný minimálne 3 minúty vopred na PREŠOV VEŽA FREQ 135,505.\nTrieda vzdušného priestoru: G\nStanovište poskytujúce ATS: FIC Bratislava\nVýcvik vojenského letectva.\nActive: H24\nEntry only after approval ","authority":"LPS SR, š. p."}},{"type":"Feature","geometry":{"type":"Polygon","coordinates":[[[21.99168,48.37949],[21.99225,48.37833],[21.99453,48.37732],[21.99554,48.37823],[21.9983,48.37892],[21.99892,48.37981],[22.00014,48.38004],[22.00034,48.38069],[22.00249,48.38085],[22.00363,48.3815],[22.00696,48.38128],[22.00772,48.38241],[22.00824,48.38264],[22.00811,48.38393],[22.0101,48.38378],[22.01051,48.3845],[22.01437,48.38515],[22.01482,48.38552],[22.01815,48.38654],[22.01863,48.3879],[22.01967,48.38901],[22.02106,48.38904],[22.02299,48.38859],[22.02396,48.38915],[22.0241,48.38997],[22.02295,48.39067],[22.02117,48.39075],[22.02133,48.39275],[22.02831,48.39224],[22.03313,48.38791],[22.03613,48.38605],[22.03677,48.38646],[22.04513,48.38406],[22.0546,48.37752],[22.05826,48.37789],[22.05802,48.3806],[22.0576,48.38132],[22.05976,48.38153],[22.06024,48.38238],[22.06141,48.38216],[22.06156,48.38278],[22.06663,48.38231],[22.06671,48.38183],[22.06959,48.38209],[22.06951,48.38233],[22.07154,48.38283],[22.07187,48.38178],[22.07281,48.382],[22.07189,48.384],[22.07218,48.3853],[22.07394,48.38588],[22.07649,48.38724],[22.08016,48.38358],[22.08061,48.38361],[22.08444,48.38078],[22.08263,48.37872],[22.08451,48.3773],[22.08402,48.37689],[22.08595,48.37177],[22.08675,48.37155],[22.08917,48.37374],[22.08967,48.37364],[22.09049,48.37433],[22.09326,48.37856],[22.09474,48.37728],[22.09679,48.37691],[22.0973,48.37721],[22.09846,48.37644],[22.10003,48.37618],[22.10154,48.37622],[22.10411,48.37715],[22.10863,48.38073],[22.1111,48.38126],[22.11343,48.38107],[22.11661,48.38041],[22.12164,48.37788],[22.12119,48.37851],[22.12247,48.37956],[22.12595,48.38075],[22.12883,48.38107],[22.13339,48.38049],[22.13596,48.38064],[22.13637,48.38118],[22.13677,48.38291],[22.13545,48.38495],[22.13241,48.3877],[22.13212,48.38825],[22.13094,48.38957],[22.13062,48.3905],[22.1314,48.39137],[22.13405,48.39244],[22.1381,48.39303],[22.14643,48.39395],[22.15151,48.39559],[22.15261,48.39616],[22.15512,48.3987],[22.1554,48.40033],[22.15537,48.40331],[22.15429,48.40351],[22.15399,48.40358],[22.15243,48.40396],[22.14958,48.40389],[22.14673,48.40367],[22.14398,48.40384],[22.14233,48.40526],[22.14212,48.40756],[22.1428,48.41129],[22.14226,48.41146],[22.14122,48.41178],[22.13829,48.41459],[22.13706,48.41879],[22.13773,48.42163],[22.13789,48.42504],[22.14024,48.42851],[22.13977,48.42922],[22.13806,48.43175],[22.13769,48.43269],[22.13822,48.43538],[22.13912,48.43998],[22.13995,48.44425],[22.14033,48.44633],[22.1407,48.44832],[22.14153,48.45267],[22.14249,48.45674],[22.14342,48.46074],[22.14463,48.46587],[22.1459,48.47133],[22.14654,48.474],[22.14754,48.47828],[22.14893,48.48417],[22.15036,48.49025],[22.15161,48.49608],[22.15293,48.5022],[22.15404,48.50735],[22.15456,48.50981],[22.15404,48.51114],[22.15397,48.51126],[22.15316,48.51282],[22.15558,48.51499],[22.15693,48.52099],[22.15829,48.52704],[22.15868,48.53308],[22.15902,48.5381],[22.15932,48.54268],[22.15958,48.54662],[22.1599,48.55155],[22.16025,48.55659],[22.16065,48.56251],[22.16088,48.56595],[22.16098,48.56733],[22.16254,48.57036],[22.16434,48.57385],[22.16667,48.5784],[22.16917,48.58325],[22.17138,48.58754],[22.17458,48.59136],[22.17765,48.59503],[22.18089,48.59889],[22.1832,48.60164],[22.18345,48.60194],[22.18382,48.60239],[22.18448,48.6021],[22.18551,48.60226],[22.18703,48.60311],[22.18827,48.60476],[22.18895,48.6061],[22.18813,48.60863],[22.18864,48.60962],[22.18969,48.61002],[22.1946,48.60921],[22.19597,48.60918],[22.19838,48.6094],[22.20122,48.6108],[22.20347,48.61143],[22.20383,48.61186],[22.20469,48.61288],[22.20587,48.61429],[22.20849,48.61742],[22.2157,48.62127],[22.22268,48.62092],[22.22999,48.62055],[22.23095,48.62223],[22.23522,48.62467],[22.24051,48.62771],[22.24204,48.62969],[22.24595,48.6347],[22.24967,48.63947],[22.24966,48.64272],[22.24965,48.64524],[22.2503,48.6474],[22.25323,48.64794],[22.25542,48.64834],[22.26169,48.65141],[22.2653,48.65318],[22.26502,48.65499],[22.2689,48.65494],[22.27446,48.65769],[22.27831,48.65959],[22.28227,48.66155],[22.28632,48.66429],[22.2893,48.6663],[22.28907,48.66708],[22.2891,48.668],[22.2898,48.66861],[22.29081,48.66932],[22.29301,48.66981],[22.29571,48.67066],[22.29754,48.67179],[22.29911,48.67225],[22.30138,48.6732],[22.30251,48.67425],[22.30255,48.67637],[22.30474,48.67649],[22.30708,48.67682],[22.30829,48.67763],[22.30975,48.67885],[22.31142,48.67915],[22.31249,48.67916],[22.3136,48.67918],[22.31486,48.67955],[22.3164,48.67987],[22.3173,48.68085],[22.31849,48.68158],[22.32063,48.68184],[22.32152,48.68228],[22.32523,48.68298],[22.32648,48.68301],[22.32854,48.68247],[22.33209,48.68271],[22.33375,48.68307],[22.33575,48.68372],[22.33771,48.68365],[22.33961,48.68389],[22.34111,48.6876],[22.34303,48.69216],[22.34535,48.69775],[22.3457,48.69858],[22.34575,48.70297],[22.34564,48.70423],[22.34561,48.70483],[22.34557,48.70589],[22.34758,48.70886],[22.34879,48.71066],[22.35046,48.71314],[22.35123,48.71426],[22.3537,48.71784],[22.35069,48.72032],[22.35263,48.72194],[22.35419,48.72321],[22.35494,48.72383],[22.35604,48.72481],[22.35697,48.72565],[22.36013,48.72614],[22.3618,48.7302],[22.36148,48.73315],[22.36048,48.73532],[22.36046,48.73855],[22.3616,48.73949],[22.36223,48.74],[22.36012,48.74183],[22.35753,48.74238],[22.35649,48.74261],[22.35584,48.74288],[22.35391,48.74323],[22.35312,48.74428],[22.35251,48.74547],[22.35269,48.74617],[22.35108,48.74692],[22.35052,48.74849],[22.35006,48.7492],[22.34518,48.74939],[22.34335,48.74986],[22.34267,48.75068],[22.34301,48.75118],[22.34401,48.75424],[22.3449,48.75589],[22.34562,48.75712],[22.34575,48.75797],[22.34622,48.76379],[22.34601,48.76526],[22.3457,48.76615],[22.34732,48.76758],[22.34959,48.77048],[22.35029,48.7716],[22.35113,48.77188],[22.35198,48.77234],[22.35448,48.77252],[22.35622,48.77244],[22.35793,48.77301],[22.36229,48.77824],[22.36374,48.77907],[22.36435,48.77951],[22.36633,48.78051],[22.36859,48.78099],[22.3709,48.78175],[22.37337,48.78245],[22.37411,48.78451],[22.3746,48.78551],[22.37559,48.78635],[22.3761,48.78655],[22.37719,48.78845],[22.37606,48.78918],[22.37618,48.79021],[22.37683,48.7907],[22.37808,48.79195],[22.37879,48.79344],[22.3789,48.79393],[22.37906,48.79463],[22.3804,48.79572],[22.38084,48.79649],[22.38486,48.79815],[22.38702,48.79895],[22.38765,48.80004],[22.38682,48.80144],[22.38652,48.80291],[22.38584,48.80493],[22.3854,48.80557],[22.385,48.80662],[22.38494,48.80754],[22.3857,48.81084],[22.38563,48.81135],[22.38506,48.81513],[22.38452,48.81877],[22.3837,48.8245],[22.38173,48.8257],[22.38134,48.82623],[22.38074,48.82705],[22.37912,48.82926],[22.3766,48.83325],[22.37591,48.83403],[22.37587,48.83571],[22.37613,48.83644],[22.37995,48.83888],[22.37918,48.84109],[22.38019,48.8454],[22.38104,48.8503],[22.3819,48.85507],[22.38204,48.85596],[22.3812,48.85748],[22.38125,48.85825],[22.38128,48.86004],[22.3819,48.86085],[22.38285,48.86211],[22.38354,48.86504],[22.38638,48.8692],[22.38673,48.86966],[22.3909,48.87081],[22.39443,48.87328],[22.39466,48.87709],[22.39524,48.87724],[22.40353,48.8794],[22.41091,48.88133],[22.41304,48.88189],[22.41787,48.88315],[22.41931,48.88352],[22.42044,48.8842],[22.42113,48.8846],[22.42118,48.88521],[22.42149,48.88888],[22.42192,48.89384],[22.42218,48.89685],[22.42258,48.90151],[22.42151,48.90228],[22.42101,48.90295],[22.42074,48.90348],[22.42145,48.90386],[22.42222,48.90417],[22.42343,48.90458],[22.42336,48.90521],[22.42388,48.90663],[22.42385,48.90759],[22.42364,48.90814],[22.42411,48.9087],[22.4251,48.90969],[22.42522,48.91057],[22.42457,48.9117],[22.42481,48.91257],[22.42613,48.91358],[22.42618,48.91383],[22.42599,48.91423],[22.42734,48.91549],[22.42966,48.91703],[22.43085,48.91809],[22.43123,48.91868],[22.43155,48.91925],[22.43134,48.92079],[22.43118,48.92189],[22.42834,48.92294],[22.42774,48.92351],[22.42629,48.92437],[22.42571,48.92529],[22.42529,48.92617],[22.42492,48.92933],[22.42635,48.92987],[22.42828,48.93172],[22.43148,48.9352],[22.43572,48.9398],[22.43838,48.94269],[22.43999,48.94443],[22.44161,48.9462],[22.44212,48.94675],[22.44273,48.94742],[22.44401,48.94882],[22.44688,48.95191],[22.44935,48.9546],[22.45291,48.95848],[22.45736,48.9633],[22.46069,48.96693],[22.46591,48.9726],[22.46623,48.97294],[22.46863,48.97372],[22.46955,48.97429],[22.47155,48.97443],[22.47406,48.97514],[22.47561,48.97628],[22.47582,48.97779],[22.47569,48.97939],[22.47611,48.98085],[22.47645,48.98184],[22.47742,48.98414],[22.47709,48.9853],[22.47734,48.98728],[22.47732,48.9886],[22.47742,48.98961],[22.47731,48.99118],[22.47884,48.99207],[22.47969,48.99284],[22.48416,48.99302],[22.48655,48.99322],[22.49034,48.99411],[22.49123,48.99455],[22.49301,48.99611],[22.495,48.99839],[22.49661,48.99889],[22.5005,48.99952],[22.5041,48.99984],[22.50546,48.99992],[22.5105,48.99803],[22.51131,48.99782],[22.51256,48.99745],[22.51388,48.99663],[22.52082,48.99675],[22.5222,48.99714],[22.52267,48.99783],[22.52438,48.99924],[22.52593,49.0004],[22.52692,49.00099],[22.52998,49.00232],[22.53112,49.00289],[22.53234,49.00298],[22.5412,49.0051],[22.54414,49.00607],[22.54471,49.00624],[22.5455,49.00677],[22.54499,49.00811],[22.54375,49.01022],[22.54196,49.01321],[22.53904,49.01809],[22.53889,49.01982],[22.53799,49.02132],[22.54353,49.02293],[22.5477,49.0252],[22.54999,49.02801],[22.55108,49.03016],[22.55106,49.03273],[22.55107,49.03464],[22.55107,49.03522],[22.55111,49.03859],[22.55113,49.04098],[22.55116,49.04495],[22.55118,49.04661],[22.5512,49.04913],[22.55121,49.05021],[22.55125,49.05242],[22.55126,49.05296],[22.55127,49.05471],[22.55126,49.05607],[22.5513,49.05843],[22.55133,49.0609],[22.5514,49.06325],[22.55151,49.06532],[22.55153,49.06568],[22.5516,49.06706],[22.55169,49.06828],[22.5522,49.0714],[22.55269,49.07519],[22.55324,49.07948],[22.55481,49.07924],[22.55811,49.08015],[22.5626,49.08104],[22.56475,49.08269],[22.5656,49.08366],[22.56555,49.08747],[22.56571,49.088],[22.56409,49.08773],[22.5623,49.08775],[22.56183,49.08789],[22.56052,49.08741],[22.55976,49.08733],[22.55836,49.0875],[22.55596,49.08759],[22.5539,49.08843],[22.55295,49.08907],[22.5502,49.08986],[22.54777,49.09029],[22.54718,49.0909],[22.54709,49.09156],[22.54466,49.09246],[22.54259,49.09356],[22.54128,49.09397],[22.54048,49.09451],[22.53942,49.0947],[22.53756,49.09389],[22.53603,49.0935],[22.53339,49.09318],[22.53081,49.09319],[22.52984,49.0933],[22.52887,49.09292],[22.52733,49.09273],[22.52211,49.09291],[22.51896,49.09236],[22.51774,49.09235],[22.51633,49.09253],[22.5133,49.09217],[22.5113,49.09216],[22.50853,49.0915],[22.50773,49.0914],[22.50702,49.09109],[22.50498,49.09078],[22.50249,49.0893],[22.50213,49.08865],[22.50101,49.08761],[22.50083,49.08688],[22.49979,49.08587],[22.49702,49.08589],[22.49547,49.08661],[22.49335,49.08684],[22.49206,49.08731],[22.4903,49.08824],[22.488,49.0885],[22.48707,49.08845],[22.48595,49.0889],[22.48529,49.0893],[22.48508,49.09085],[22.48336,49.09182],[22.48101,49.0925],[22.47904,49.0927],[22.47783,49.09302],[22.47648,49.09369],[22.47462,49.09542],[22.47317,49.09581],[22.4698,49.09804],[22.46835,49.09988],[22.46683,49.10071],[22.46342,49.10094],[22.46204,49.10124],[22.4589,49.10275],[22.45742,49.10325],[22.45703,49.10357],[22.45652,49.10358],[22.45607,49.10377],[22.45533,49.10373],[22.45334,49.10311],[22.45003,49.10297],[22.44707,49.10336],[22.44465,49.10327],[22.44132,49.1029],[22.44083,49.10297],[22.43917,49.10179],[22.43838,49.10156],[22.43677,49.10214],[22.43566,49.10212],[22.43496,49.10187],[22.43426,49.10186],[22.43136,49.10083],[22.42843,49.09847],[22.42477,49.09925],[22.42266,49.09949],[22.41916,49.10111],[22.41159,49.09338],[22.40402,49.08565],[22.39644,49.07791],[22.38888,49.07018],[22.38131,49.06244],[22.37374,49.0547],[22.36618,49.04697],[22.35862,49.03923],[22.35106,49.0315],[22.34351,49.02376],[22.33596,49.01602],[22.32841,49.00828],[22.32086,49.00054],[22.31331,48.9928],[22.30577,48.98506],[22.29823,48.97732],[22.29069,48.96958],[22.28315,48.96184],[22.27562,48.9541],[22.26809,48.94636],[22.26056,48.93861],[22.25758,48.9297],[22.25461,48.92078],[22.25164,48.91187],[22.24867,48.90295],[22.2457,48.89404],[22.24273,48.88512],[22.23976,48.87621],[22.2368,48.86729],[22.23383,48.85838],[22.23087,48.84946],[22.22791,48.84055],[22.22494,48.83163],[22.22198,48.82272],[22.21902,48.8138],[22.21607,48.80489],[22.21311,48.79597],[22.21015,48.78705],[22.20719,48.77814],[22.20424,48.76922],[22.20129,48.76031],[22.19834,48.75139],[22.1891,48.74476],[22.17987,48.73813],[22.17064,48.7315],[22.16141,48.72487],[22.15219,48.71824],[22.14297,48.7116],[22.13375,48.70497],[22.12453,48.69833],[22.11532,48.6917],[22.10611,48.68506],[22.0969,48.67842],[22.08769,48.67179],[22.07849,48.66515],[22.06928,48.65851],[22.06009,48.65187],[22.05089,48.64523],[22.04169,48.63859],[22.0325,48.63194],[22.03103,48.62293],[22.02957,48.61391],[22.02811,48.6049],[22.02664,48.59588],[22.02518,48.58687],[22.02372,48.57785],[22.02226,48.56883],[22.0208,48.55982],[22.01933,48.5508],[22.01787,48.54178],[22.01642,48.53277],[22.01496,48.52375],[22.0135,48.51473],[22.01204,48.50572],[22.01058,48.4967],[22.00912,48.48769],[22.00767,48.47867],[22.00621,48.46965],[22.00476,48.46064],[22.0033,48.45162],[22.00184,48.4426],[22.00039,48.43359],[21.99894,48.42457],[21.99748,48.41555],[21.99603,48.40654],[21.99458,48.39752],[21.99313,48.3885],[21.99168,48.37949]]]},"properties":{"_zoneType":"RSTA","name":"R55","identifier":"LZR55","lowerLimit":"GND","upperLimit":"10000","message":"Aktívny: H24\nVstup len so súhlasom AMC, TEL: +421/960/46 22 31. Žiadosť o povolenie sa predkladá najmenej 30 minút vopred v slovenskom jazyku.\nŽiadosť o povolenie musí obsahovať: poznávaciu značku lietadla, typ lietadla, čas, miesto vstupu alebo výstupu z priestoru, trať alebo mi","authority":"LPS SR, š. p."}}]}